<?xml version="1.0" encoding="UTF-8" standalone="yes"?>
<gpx version="1.1" creator="OS Maps - Web" xmlns="http://www.topografix.com/GPX/1/1"
xmlns:xsi="http://www.w3.org/2001/XMLSchema-instance"
xsi:schemaLocation="http://www.topografix.com/GPX/1/1 http://www.topografix.com/GPX/1/1/gpx.xsd"
xmlns:gs="http://www.topografix.com/GPX/gpx_style/0/2"
xmlns:gh="https://graphhopper.com/public/schema/gpx/1.1"
xmlns:os="https://ordnancesurvey.co.uk/public/schema/route/0.1">
    <metadata>
        <name>Ingleby Barkwick-Kirklevington-Hilton</name>
        <desc>9 miles  574 feet ascent</desc>
        <bounds minlat="54.4771900" minlon="-1.3342800" maxlat="54.5114070" maxlon="-1.2828000"/>
        <extensions>
            <os:version>2.0</os:version>
            <os:point lat="54.5079700" lon="-1.3050100" type="start"/>
            <os:point lat="54.5079700" lon="-1.3050300" type="end"/>
            <os:activity>ON_FOOT_WALKING</os:activity>
            <os:difficulty>UNKNOWN</os:difficulty>
            <os:paths/>
            <os:distance>14475.0418543</os:distance>
            <os:elevation_ascent>176.3300000</os:elevation_ascent>
            <os:route_type>SINGLE</os:route_type>
        </extensions>
    </metadata>
    <wpt lat="54.5079700" lon="-1.3050100"/>
    <wpt lat="54.5058900" lon="-1.3086100"/>
    <wpt lat="54.5080800" lon="-1.3123300"/>
    <wpt lat="54.5081300" lon="-1.3131200"/>
    <wpt lat="54.5068600" lon="-1.3149800"/>
    <wpt lat="54.5051200" lon="-1.3142900"/>
    <wpt lat="54.5029900" lon="-1.3146400"/>
    <wpt lat="54.5000600" lon="-1.3180400"/>
    <wpt lat="54.4920200" lon="-1.3324300"/>
    <wpt lat="54.4901000" lon="-1.3257000"/>
    <wpt lat="54.4862200" lon="-1.3342800"/>
    <wpt lat="54.4840700" lon="-1.3323500"/>
    <wpt lat="54.4842500" lon="-1.3238300"/>
    <wpt lat="54.4791600" lon="-1.3166800"/>
    <wpt lat="54.4779700" lon="-1.3013500"/>
    <wpt lat="54.4772900" lon="-1.2976700"/>
    <wpt lat="54.4818600" lon="-1.2911400"/>
    <wpt lat="54.4827900" lon="-1.2839400"/>
    <wpt lat="54.4879100" lon="-1.2855300"/>
    <wpt lat="54.4952300" lon="-1.2844400"/>
    <wpt lat="54.4955300" lon="-1.2828300"/>
    <wpt lat="54.5080400" lon="-1.2887000"/>
    <wpt lat="54.5112300" lon="-1.2923000"/>
    <wpt lat="54.5105600" lon="-1.2957300"/>
    <wpt lat="54.5087520" lon="-1.2983730"/>
    <wpt lat="54.5114070" lon="-1.3007760"/>
    <wpt lat="54.5099400" lon="-1.3043800"/>
    <wpt lat="54.5079700" lon="-1.3050300"/>
    <trk>
        <name>Ingleby Barkwick-Kirklevington-Hilton</name>
        <trkseg>
            <trkpt lat="54.5079700" lon="-1.3050100"/>
            <trkpt lat="54.5080100" lon="-1.3050900"/>
            <trkpt lat="54.5079600" lon="-1.3052100"/>
            <trkpt lat="54.5080400" lon="-1.3053400"/>
            <trkpt lat="54.5076900" lon="-1.3059600"/>
            <trkpt lat="54.5076400" lon="-1.3059800"/>
            <trkpt lat="54.5075900" lon="-1.3060600"/>
            <trkpt lat="54.5075700" lon="-1.3063100"/>
            <trkpt lat="54.5075300" lon="-1.3063800"/>
            <trkpt lat="54.5074000" lon="-1.3064300"/>
            <trkpt lat="54.5073400" lon="-1.3066400"/>
            <trkpt lat="54.5065900" lon="-1.3079500"/>
            <trkpt lat="54.5065400" lon="-1.3079800"/>
            <trkpt lat="54.5063800" lon="-1.3079400"/>
            <trkpt lat="54.5063400" lon="-1.3079500"/>
            <trkpt lat="54.5058900" lon="-1.3086100"/>
            <trkpt lat="54.5058500" lon="-1.3086700"/>
            <trkpt lat="54.5079700" lon="-1.3123500"/>
            <trkpt lat="54.5080800" lon="-1.3123300"/>
            <trkpt lat="54.5079900" lon="-1.3123600"/>
            <trkpt lat="54.5080100" lon="-1.3127200"/>
            <trkpt lat="54.5081600" lon="-1.3130700"/>
            <trkpt lat="54.5081300" lon="-1.3131200"/>
            <trkpt lat="54.5077400" lon="-1.3135800"/>
            <trkpt lat="54.5073500" lon="-1.3142100"/>
            <trkpt lat="54.5069000" lon="-1.3147700"/>
            <trkpt lat="54.5068800" lon="-1.3149400"/>
            <trkpt lat="54.5068600" lon="-1.3149800"/>
            <trkpt lat="54.5068800" lon="-1.3149400"/>
            <trkpt lat="54.5069000" lon="-1.3147700"/>
            <trkpt lat="54.5067900" lon="-1.3149300"/>
            <trkpt lat="54.5067200" lon="-1.3149600"/>
            <trkpt lat="54.5063700" lon="-1.3145500"/>
            <trkpt lat="54.5063000" lon="-1.3145000"/>
            <trkpt lat="54.5061900" lon="-1.3142000"/>
            <trkpt lat="54.5060800" lon="-1.3139700"/>
            <trkpt lat="54.5059500" lon="-1.3138000"/>
            <trkpt lat="54.5057600" lon="-1.3137200"/>
            <trkpt lat="54.5055300" lon="-1.3138000"/>
            <trkpt lat="54.5053800" lon="-1.3139500"/>
            <trkpt lat="54.5051200" lon="-1.3142900"/>
            <trkpt lat="54.5046100" lon="-1.3144600"/>
            <trkpt lat="54.5041100" lon="-1.3146700"/>
            <trkpt lat="54.5038700" lon="-1.3147500"/>
            <trkpt lat="54.5034400" lon="-1.3148400"/>
            <trkpt lat="54.5032600" lon="-1.3148100"/>
            <trkpt lat="54.5029900" lon="-1.3146400"/>
            <trkpt lat="54.5029100" lon="-1.3145400"/>
            <trkpt lat="54.5022400" lon="-1.3147700"/>
            <trkpt lat="54.5022300" lon="-1.3147000"/>
            <trkpt lat="54.5019900" lon="-1.3148400"/>
            <trkpt lat="54.5019100" lon="-1.3148400"/>
            <trkpt lat="54.5018300" lon="-1.3149100"/>
            <trkpt lat="54.5018200" lon="-1.3149900"/>
            <trkpt lat="54.5012900" lon="-1.3151900"/>
            <trkpt lat="54.5010800" lon="-1.3153200"/>
            <trkpt lat="54.5009300" lon="-1.3154500"/>
            <trkpt lat="54.5006700" lon="-1.3157400"/>
            <trkpt lat="54.5005600" lon="-1.3159100"/>
            <trkpt lat="54.5004500" lon="-1.3161200"/>
            <trkpt lat="54.5002700" lon="-1.3165400"/>
            <trkpt lat="54.5001200" lon="-1.3170400"/>
            <trkpt lat="54.5000600" lon="-1.3174600"/>
            <trkpt lat="54.5000500" lon="-1.3177700"/>
            <trkpt lat="54.5000600" lon="-1.3180400"/>
            <trkpt lat="54.5000500" lon="-1.3177700"/>
            <trkpt lat="54.4993100" lon="-1.3184800"/>
            <trkpt lat="54.4988500" lon="-1.3188400"/>
            <trkpt lat="54.4987200" lon="-1.3189000"/>
            <trkpt lat="54.4985200" lon="-1.3192500"/>
            <trkpt lat="54.4982900" lon="-1.3197200"/>
            <trkpt lat="54.4981700" lon="-1.3201500"/>
            <trkpt lat="54.4981400" lon="-1.3204300"/>
            <trkpt lat="54.4982400" lon="-1.3214800"/>
            <trkpt lat="54.4981900" lon="-1.3220200"/>
            <trkpt lat="54.4980600" lon="-1.3225100"/>
            <trkpt lat="54.4979200" lon="-1.3229600"/>
            <trkpt lat="54.4977000" lon="-1.3233700"/>
            <trkpt lat="54.4968600" lon="-1.3244500"/>
            <trkpt lat="54.4966300" lon="-1.3246700"/>
            <trkpt lat="54.4963900" lon="-1.3250200"/>
            <trkpt lat="54.4961900" lon="-1.3251900"/>
            <trkpt lat="54.4958600" lon="-1.3252400"/>
            <trkpt lat="54.4956600" lon="-1.3254000"/>
            <trkpt lat="54.4949500" lon="-1.3261700"/>
            <trkpt lat="54.4947400" lon="-1.3264300"/>
            <trkpt lat="54.4941300" lon="-1.3281900"/>
            <trkpt lat="54.4937700" lon="-1.3291400"/>
            <trkpt lat="54.4934900" lon="-1.3296700"/>
            <trkpt lat="54.4929200" lon="-1.3304800"/>
            <trkpt lat="54.4927000" lon="-1.3309300"/>
            <trkpt lat="54.4925500" lon="-1.3311500"/>
            <trkpt lat="54.4924100" lon="-1.3314700"/>
            <trkpt lat="54.4920800" lon="-1.3323400"/>
            <trkpt lat="54.4920200" lon="-1.3324300"/>
            <trkpt lat="54.4919400" lon="-1.3325300"/>
            <trkpt lat="54.4916600" lon="-1.3320600"/>
            <trkpt lat="54.4915600" lon="-1.3318100"/>
            <trkpt lat="54.4912400" lon="-1.3308000"/>
            <trkpt lat="54.4910800" lon="-1.3301600"/>
            <trkpt lat="54.4909700" lon="-1.3295800"/>
            <trkpt lat="54.4908100" lon="-1.3286100"/>
            <trkpt lat="54.4905900" lon="-1.3268400"/>
            <trkpt lat="54.4904000" lon="-1.3261200"/>
            <trkpt lat="54.4901800" lon="-1.3255500"/>
            <trkpt lat="54.4901000" lon="-1.3257000"/>
            <trkpt lat="54.4885900" lon="-1.3284700"/>
            <trkpt lat="54.4884000" lon="-1.3287900"/>
            <trkpt lat="54.4882900" lon="-1.3288500"/>
            <trkpt lat="54.4882600" lon="-1.3290800"/>
            <trkpt lat="54.4881400" lon="-1.3292400"/>
            <trkpt lat="54.4873800" lon="-1.3305800"/>
            <trkpt lat="54.4871400" lon="-1.3310400"/>
            <trkpt lat="54.4869500" lon="-1.3315100"/>
            <trkpt lat="54.4865900" lon="-1.3323000"/>
            <trkpt lat="54.4865200" lon="-1.3326500"/>
            <trkpt lat="54.4864400" lon="-1.3332300"/>
            <trkpt lat="54.4863400" lon="-1.3335900"/>
            <trkpt lat="54.4861200" lon="-1.3341700"/>
            <trkpt lat="54.4862200" lon="-1.3342800"/>
            <trkpt lat="54.4859900" lon="-1.3340100"/>
            <trkpt lat="54.4844300" lon="-1.3326300"/>
            <trkpt lat="54.4842800" lon="-1.3326600"/>
            <trkpt lat="54.4840900" lon="-1.3325300"/>
            <trkpt lat="54.4840400" lon="-1.3323300"/>
            <trkpt lat="54.4840700" lon="-1.3323500"/>
            <trkpt lat="54.4839800" lon="-1.3322800"/>
            <trkpt lat="54.4842000" lon="-1.3317600"/>
            <trkpt lat="54.4843100" lon="-1.3313600"/>
            <trkpt lat="54.4843500" lon="-1.3311200"/>
            <trkpt lat="54.4843900" lon="-1.3304500"/>
            <trkpt lat="54.4844900" lon="-1.3299200"/>
            <trkpt lat="54.4845400" lon="-1.3294300"/>
            <trkpt lat="54.4845600" lon="-1.3281400"/>
            <trkpt lat="54.4845400" lon="-1.3279800"/>
            <trkpt lat="54.4844800" lon="-1.3277500"/>
            <trkpt lat="54.4841300" lon="-1.3268700"/>
            <trkpt lat="54.4840600" lon="-1.3265200"/>
            <trkpt lat="54.4840200" lon="-1.3262100"/>
            <trkpt lat="54.4840100" lon="-1.3257900"/>
            <trkpt lat="54.4840600" lon="-1.3248400"/>
            <trkpt lat="54.4841300" lon="-1.3244000"/>
            <trkpt lat="54.4842500" lon="-1.3238300"/>
            <trkpt lat="54.4841300" lon="-1.3244000"/>
            <trkpt lat="54.4841000" lon="-1.3243200"/>
            <trkpt lat="54.4840500" lon="-1.3242500"/>
            <trkpt lat="54.4835300" lon="-1.3237000"/>
            <trkpt lat="54.4829500" lon="-1.3232700"/>
            <trkpt lat="54.4826000" lon="-1.3229800"/>
            <trkpt lat="54.4821000" lon="-1.3225000"/>
            <trkpt lat="54.4812700" lon="-1.3216300"/>
            <trkpt lat="54.4811700" lon="-1.3214600"/>
            <trkpt lat="54.4811100" lon="-1.3213000"/>
            <trkpt lat="54.4809000" lon="-1.3205900"/>
            <trkpt lat="54.4808200" lon="-1.3203800"/>
            <trkpt lat="54.4807400" lon="-1.3202300"/>
            <trkpt lat="54.4806300" lon="-1.3200900"/>
            <trkpt lat="54.4802100" lon="-1.3197300"/>
            <trkpt lat="54.4798200" lon="-1.3194700"/>
            <trkpt lat="54.4795600" lon="-1.3191500"/>
            <trkpt lat="54.4795400" lon="-1.3189400"/>
            <trkpt lat="54.4795500" lon="-1.3186600"/>
            <trkpt lat="54.4795300" lon="-1.3185200"/>
            <trkpt lat="54.4797200" lon="-1.3176900"/>
            <trkpt lat="54.4797400" lon="-1.3175700"/>
            <trkpt lat="54.4797300" lon="-1.3174200"/>
            <trkpt lat="54.4797100" lon="-1.3173600"/>
            <trkpt lat="54.4791600" lon="-1.3166800"/>
            <trkpt lat="54.4784200" lon="-1.3157100"/>
            <trkpt lat="54.4783400" lon="-1.3154100"/>
            <trkpt lat="54.4783400" lon="-1.3150900"/>
            <trkpt lat="54.4786300" lon="-1.3144700"/>
            <trkpt lat="54.4787700" lon="-1.3142800"/>
            <trkpt lat="54.4820300" lon="-1.3065100"/>
            <trkpt lat="54.4820700" lon="-1.3062500"/>
            <trkpt lat="54.4816800" lon="-1.3056700"/>
            <trkpt lat="54.4814500" lon="-1.3054100"/>
            <trkpt lat="54.4813100" lon="-1.3053300"/>
            <trkpt lat="54.4813100" lon="-1.3051600"/>
            <trkpt lat="54.4814500" lon="-1.3049100"/>
            <trkpt lat="54.4808500" lon="-1.3042700"/>
            <trkpt lat="54.4795600" lon="-1.3031400"/>
            <trkpt lat="54.4792100" lon="-1.3027500"/>
            <trkpt lat="54.4788900" lon="-1.3023000"/>
            <trkpt lat="54.4786400" lon="-1.3020400"/>
            <trkpt lat="54.4783600" lon="-1.3018600"/>
            <trkpt lat="54.4781700" lon="-1.3016600"/>
            <trkpt lat="54.4779700" lon="-1.3013500"/>
            <trkpt lat="54.4779300" lon="-1.3012900"/>
            <trkpt lat="54.4778700" lon="-1.3011000"/>
            <trkpt lat="54.4778300" lon="-1.3005100"/>
            <trkpt lat="54.4778400" lon="-1.2996800"/>
            <trkpt lat="54.4777200" lon="-1.2988000"/>
            <trkpt lat="54.4775600" lon="-1.2982600"/>
            <trkpt lat="54.4772900" lon="-1.2976700"/>
            <trkpt lat="54.4771900" lon="-1.2973900"/>
            <trkpt lat="54.4772800" lon="-1.2973800"/>
            <trkpt lat="54.4775200" lon="-1.2969100"/>
            <trkpt lat="54.4776900" lon="-1.2968400"/>
            <trkpt lat="54.4779000" lon="-1.2964400"/>
            <trkpt lat="54.4779600" lon="-1.2961900"/>
            <trkpt lat="54.4781800" lon="-1.2959700"/>
            <trkpt lat="54.4784000" lon="-1.2955000"/>
            <trkpt lat="54.4784200" lon="-1.2947100"/>
            <trkpt lat="54.4785100" lon="-1.2945000"/>
            <trkpt lat="54.4786100" lon="-1.2939500"/>
            <trkpt lat="54.4787600" lon="-1.2938300"/>
            <trkpt lat="54.4789000" lon="-1.2935400"/>
            <trkpt lat="54.4790600" lon="-1.2934700"/>
            <trkpt lat="54.4792400" lon="-1.2934400"/>
            <trkpt lat="54.4802300" lon="-1.2924600"/>
            <trkpt lat="54.4804500" lon="-1.2923600"/>
            <trkpt lat="54.4808000" lon="-1.2923000"/>
            <trkpt lat="54.4816700" lon="-1.2915400"/>
            <trkpt lat="54.4817800" lon="-1.2913800"/>
            <trkpt lat="54.4818600" lon="-1.2911400"/>
            <trkpt lat="54.4817400" lon="-1.2906800"/>
            <trkpt lat="54.4815500" lon="-1.2892100"/>
            <trkpt lat="54.4814400" lon="-1.2887300"/>
            <trkpt lat="54.4814600" lon="-1.2886200"/>
            <trkpt lat="54.4816100" lon="-1.2883600"/>
            <trkpt lat="54.4817300" lon="-1.2878100"/>
            <trkpt lat="54.4820700" lon="-1.2869200"/>
            <trkpt lat="54.4821400" lon="-1.2864200"/>
            <trkpt lat="54.4820300" lon="-1.2861000"/>
            <trkpt lat="54.4820500" lon="-1.2858700"/>
            <trkpt lat="54.4824300" lon="-1.2857500"/>
            <trkpt lat="54.4826000" lon="-1.2854600"/>
            <trkpt lat="54.4826700" lon="-1.2851700"/>
            <trkpt lat="54.4826200" lon="-1.2849400"/>
            <trkpt lat="54.4824200" lon="-1.2848000"/>
            <trkpt lat="54.4824200" lon="-1.2843600"/>
            <trkpt lat="54.4825400" lon="-1.2837700"/>
            <trkpt lat="54.4827900" lon="-1.2839400"/>
            <trkpt lat="54.4835800" lon="-1.2841100"/>
            <trkpt lat="54.4840000" lon="-1.2840600"/>
            <trkpt lat="54.4842700" lon="-1.2840900"/>
            <trkpt lat="54.4848900" lon="-1.2844700"/>
            <trkpt lat="54.4855200" lon="-1.2849500"/>
            <trkpt lat="54.4856700" lon="-1.2851900"/>
            <trkpt lat="54.4858900" lon="-1.2862000"/>
            <trkpt lat="54.4859700" lon="-1.2863600"/>
            <trkpt lat="54.4867200" lon="-1.2870900"/>
            <trkpt lat="54.4870600" lon="-1.2873000"/>
            <trkpt lat="54.4873900" lon="-1.2874500"/>
            <trkpt lat="54.4874800" lon="-1.2874700"/>
            <trkpt lat="54.4875600" lon="-1.2873500"/>
            <trkpt lat="54.4877000" lon="-1.2869100"/>
            <trkpt lat="54.4879000" lon="-1.2864900"/>
            <trkpt lat="54.4879200" lon="-1.2862300"/>
            <trkpt lat="54.4879000" lon="-1.2858400"/>
            <trkpt lat="54.4879100" lon="-1.2855300"/>
            <trkpt lat="54.4879200" lon="-1.2853200"/>
            <trkpt lat="54.4881300" lon="-1.2851500"/>
            <trkpt lat="54.4886200" lon="-1.2848100"/>
            <trkpt lat="54.4888000" lon="-1.2846500"/>
            <trkpt lat="54.4893400" lon="-1.2845000"/>
            <trkpt lat="54.4898900" lon="-1.2840200"/>
            <trkpt lat="54.4900900" lon="-1.2839900"/>
            <trkpt lat="54.4910200" lon="-1.2841200"/>
            <trkpt lat="54.4924300" lon="-1.2842000"/>
            <trkpt lat="54.4928600" lon="-1.2841200"/>
            <trkpt lat="54.4933800" lon="-1.2840900"/>
            <trkpt lat="54.4936800" lon="-1.2841000"/>
            <trkpt lat="54.4939600" lon="-1.2841400"/>
            <trkpt lat="54.4943200" lon="-1.2842800"/>
            <trkpt lat="54.4946300" lon="-1.2843600"/>
            <trkpt lat="54.4950200" lon="-1.2844200"/>
            <trkpt lat="54.4952200" lon="-1.2844800"/>
            <trkpt lat="54.4952300" lon="-1.2844400"/>
            <trkpt lat="54.4953400" lon="-1.2828000"/>
            <trkpt lat="54.4955300" lon="-1.2828300"/>
            <trkpt lat="54.4961200" lon="-1.2829200"/>
            <trkpt lat="54.4962300" lon="-1.2828800"/>
            <trkpt lat="54.4962700" lon="-1.2831200"/>
            <trkpt lat="54.4967300" lon="-1.2832800"/>
            <trkpt lat="54.4972100" lon="-1.2835900"/>
            <trkpt lat="54.4980200" lon="-1.2838400"/>
            <trkpt lat="54.4991900" lon="-1.2843100"/>
            <trkpt lat="54.5001900" lon="-1.2846600"/>
            <trkpt lat="54.5022000" lon="-1.2867000"/>
            <trkpt lat="54.5044900" lon="-1.2892300"/>
            <trkpt lat="54.5054400" lon="-1.2899400"/>
            <trkpt lat="54.5067300" lon="-1.2894000"/>
            <trkpt lat="54.5074000" lon="-1.2890000"/>
            <trkpt lat="54.5075800" lon="-1.2889500"/>
            <trkpt lat="54.5078800" lon="-1.2886900"/>
            <trkpt lat="54.5079700" lon="-1.2886600"/>
            <trkpt lat="54.5080400" lon="-1.2887000"/>
            <trkpt lat="54.5080800" lon="-1.2887300"/>
            <trkpt lat="54.5081200" lon="-1.2888200"/>
            <trkpt lat="54.5082600" lon="-1.2896300"/>
            <trkpt lat="54.5083100" lon="-1.2897900"/>
            <trkpt lat="54.5084500" lon="-1.2899500"/>
            <trkpt lat="54.5112300" lon="-1.2923200"/>
            <trkpt lat="54.5112300" lon="-1.2923000"/>
            <trkpt lat="54.5111200" lon="-1.2931600"/>
            <trkpt lat="54.5109400" lon="-1.2942200"/>
            <trkpt lat="54.5107800" lon="-1.2948400"/>
            <trkpt lat="54.5107800" lon="-1.2949500"/>
            <trkpt lat="54.5108000" lon="-1.2950300"/>
            <trkpt lat="54.5109000" lon="-1.2951800"/>
            <trkpt lat="54.5105600" lon="-1.2957300"/>
            <trkpt lat="54.5087520" lon="-1.2983730"/>
            <trkpt lat="54.5114070" lon="-1.3007760"/>
            <trkpt lat="54.5105620" lon="-1.3028750"/>
            <trkpt lat="54.5099400" lon="-1.3043800"/>
            <trkpt lat="54.5098500" lon="-1.3044600"/>
            <trkpt lat="54.5098500" lon="-1.3046800"/>
            <trkpt lat="54.5093600" lon="-1.3046700"/>
            <trkpt lat="54.5090500" lon="-1.3047700"/>
            <trkpt lat="54.5087800" lon="-1.3049100"/>
            <trkpt lat="54.5086000" lon="-1.3048400"/>
            <trkpt lat="54.5085100" lon="-1.3047400"/>
            <trkpt lat="54.5084700" lon="-1.3048600"/>
            <trkpt lat="54.5084800" lon="-1.3050000"/>
            <trkpt lat="54.5084000" lon="-1.3052600"/>
            <trkpt lat="54.5082500" lon="-1.3052100"/>
            <trkpt lat="54.5081600" lon="-1.3052200"/>
            <trkpt lat="54.5081200" lon="-1.3052400"/>
            <trkpt lat="54.5080400" lon="-1.3053400"/>
            <trkpt lat="54.5079600" lon="-1.3052100"/>
            <trkpt lat="54.5080100" lon="-1.3050900"/>
            <trkpt lat="54.5079700" lon="-1.3050300"/>
        </trkseg>
    </trk>
</gpx>
