<?xml version="1.0" encoding="UTF-8" standalone="yes"?>
<gpx version="1.1" creator="OS Maps - Web" xmlns="http://www.topografix.com/GPX/1/1"
xmlns:xsi="http://www.w3.org/2001/XMLSchema-instance"
xsi:schemaLocation="http://www.topografix.com/GPX/1/1 http://www.topografix.com/GPX/1/1/gpx.xsd"
xmlns:gs="http://www.topografix.com/GPX/gpx_style/0/2"
xmlns:gh="https://graphhopper.com/public/schema/gpx/1.1"
xmlns:os="https://ordnancesurvey.co.uk/public/schema/route/0.1">
    <metadata>
        <name>Bank Foot-Greenhow Plantation-Bloworth Crossing</name>
        <desc>9.83 miles, 1279 feet ascent</desc>
        <bounds minlat="54.4049100" minlon="-1.0985700" maxlat="54.4481700" maxlon="-1.0527100"/>
        <extensions>
            <os:version>2.0</os:version>
            <os:point lat="54.4468900" lon="-1.0881100" type="start"/>
            <os:point lat="54.4468900" lon="-1.0881100" type="end"/>
            <os:activity>ON_FOOT_WALKING</os:activity>
            <os:difficulty>UNKNOWN</os:difficulty>
            <os:paths/>
            <os:distance>15827.1611768</os:distance>
            <os:elevation_ascent>389.0700000</os:elevation_ascent>
            <os:route_type>SINGLE</os:route_type>
        </extensions>
    </metadata>
    <wpt lat="54.4468900" lon="-1.0881100"/>
    <wpt lat="54.4157400" lon="-1.0744800"/>
    <wpt lat="54.4127800" lon="-1.0841900"/>
    <wpt lat="54.4158200" lon="-1.0951400"/>
    <wpt lat="54.4121100" lon="-1.0985700"/>
    <wpt lat="54.4056200" lon="-1.0858800"/>
    <wpt lat="54.4051400" lon="-1.0527100"/>
    <wpt lat="54.4210500" lon="-1.0660300"/>
    <wpt lat="54.4368600" lon="-1.0742100"/>
    <wpt lat="54.4472900" lon="-1.0777000"/>
    <wpt lat="54.4461700" lon="-1.0818300"/>
    <wpt lat="54.4481700" lon="-1.0819600"/>
    <wpt lat="54.4471300" lon="-1.0843100"/>
    <wpt lat="54.4468000" lon="-1.0869800"/>
    <wpt lat="54.4468900" lon="-1.0881100"/>
    <trk>
        <name>Bank Foot-Greenhow Plantation-Bloworth Crossing</name>
        <trkseg>
            <trkpt lat="54.4468900" lon="-1.0881100"/>
            <trkpt lat="54.4467000" lon="-1.0880200"/>
            <trkpt lat="54.4457200" lon="-1.0877200"/>
            <trkpt lat="54.4440300" lon="-1.0872500"/>
            <trkpt lat="54.4433200" lon="-1.0871600"/>
            <trkpt lat="54.4427400" lon="-1.0871400"/>
            <trkpt lat="54.4421100" lon="-1.0871900"/>
            <trkpt lat="54.4415300" lon="-1.0871900"/>
            <trkpt lat="54.4408800" lon="-1.0870500"/>
            <trkpt lat="54.4402800" lon="-1.0868200"/>
            <trkpt lat="54.4386500" lon="-1.0858100"/>
            <trkpt lat="54.4343400" lon="-1.0830200"/>
            <trkpt lat="54.4334800" lon="-1.0826700"/>
            <trkpt lat="54.4323900" lon="-1.0820900"/>
            <trkpt lat="54.4315000" lon="-1.0815300"/>
            <trkpt lat="54.4300900" lon="-1.0806800"/>
            <trkpt lat="54.4292000" lon="-1.0800900"/>
            <trkpt lat="54.4284500" lon="-1.0796400"/>
            <trkpt lat="54.4280500" lon="-1.0794400"/>
            <trkpt lat="54.4274400" lon="-1.0792100"/>
            <trkpt lat="54.4265100" lon="-1.0788000"/>
            <trkpt lat="54.4254000" lon="-1.0781400"/>
            <trkpt lat="54.4241300" lon="-1.0774500"/>
            <trkpt lat="54.4237100" lon="-1.0770700"/>
            <trkpt lat="54.4233100" lon="-1.0766100"/>
            <trkpt lat="54.4231900" lon="-1.0765800"/>
            <trkpt lat="54.4228700" lon="-1.0763800"/>
            <trkpt lat="54.4225800" lon="-1.0762800"/>
            <trkpt lat="54.4208400" lon="-1.0759800"/>
            <trkpt lat="54.4199900" lon="-1.0757400"/>
            <trkpt lat="54.4191500" lon="-1.0752700"/>
            <trkpt lat="54.4188100" lon="-1.0751200"/>
            <trkpt lat="54.4182300" lon="-1.0749900"/>
            <trkpt lat="54.4180700" lon="-1.0748900"/>
            <trkpt lat="54.4165900" lon="-1.0737500"/>
            <trkpt lat="54.4165000" lon="-1.0737000"/>
            <trkpt lat="54.4164300" lon="-1.0737100"/>
            <trkpt lat="54.4163600" lon="-1.0737500"/>
            <trkpt lat="54.4157400" lon="-1.0744800"/>
            <trkpt lat="54.4155400" lon="-1.0746500"/>
            <trkpt lat="54.4153600" lon="-1.0749100"/>
            <trkpt lat="54.4151500" lon="-1.0753700"/>
            <trkpt lat="54.4150600" lon="-1.0759100"/>
            <trkpt lat="54.4150300" lon="-1.0768400"/>
            <trkpt lat="54.4150400" lon="-1.0770500"/>
            <trkpt lat="54.4151300" lon="-1.0776300"/>
            <trkpt lat="54.4154700" lon="-1.0787200"/>
            <trkpt lat="54.4155400" lon="-1.0790300"/>
            <trkpt lat="54.4155800" lon="-1.0794200"/>
            <trkpt lat="54.4155700" lon="-1.0797900"/>
            <trkpt lat="54.4155400" lon="-1.0800400"/>
            <trkpt lat="54.4154800" lon="-1.0803000"/>
            <trkpt lat="54.4154300" lon="-1.0804500"/>
            <trkpt lat="54.4152500" lon="-1.0807500"/>
            <trkpt lat="54.4150000" lon="-1.0810600"/>
            <trkpt lat="54.4144600" lon="-1.0819700"/>
            <trkpt lat="54.4143200" lon="-1.0822700"/>
            <trkpt lat="54.4140500" lon="-1.0827200"/>
            <trkpt lat="54.4137300" lon="-1.0833200"/>
            <trkpt lat="54.4135000" lon="-1.0835200"/>
            <trkpt lat="54.4134500" lon="-1.0835900"/>
            <trkpt lat="54.4131900" lon="-1.0836000"/>
            <trkpt lat="54.4129900" lon="-1.0837900"/>
            <trkpt lat="54.4128400" lon="-1.0839900"/>
            <trkpt lat="54.4127800" lon="-1.0841900"/>
            <trkpt lat="54.4125800" lon="-1.0847800"/>
            <trkpt lat="54.4125100" lon="-1.0855900"/>
            <trkpt lat="54.4124500" lon="-1.0872000"/>
            <trkpt lat="54.4125000" lon="-1.0885400"/>
            <trkpt lat="54.4123500" lon="-1.0897000"/>
            <trkpt lat="54.4124100" lon="-1.0899000"/>
            <trkpt lat="54.4130800" lon="-1.0909800"/>
            <trkpt lat="54.4136000" lon="-1.0913000"/>
            <trkpt lat="54.4138300" lon="-1.0915200"/>
            <trkpt lat="54.4139900" lon="-1.0917200"/>
            <trkpt lat="54.4140500" lon="-1.0922300"/>
            <trkpt lat="54.4159800" lon="-1.0950800"/>
            <trkpt lat="54.4158200" lon="-1.0951400"/>
            <trkpt lat="54.4153000" lon="-1.0951500"/>
            <trkpt lat="54.4149600" lon="-1.0952600"/>
            <trkpt lat="54.4148800" lon="-1.0953700"/>
            <trkpt lat="54.4151800" lon="-1.0956300"/>
            <trkpt lat="54.4149000" lon="-1.0959100"/>
            <trkpt lat="54.4148700" lon="-1.0959900"/>
            <trkpt lat="54.4147100" lon="-1.0961600"/>
            <trkpt lat="54.4146000" lon="-1.0962200"/>
            <trkpt lat="54.4144800" lon="-1.0962100"/>
            <trkpt lat="54.4143100" lon="-1.0963200"/>
            <trkpt lat="54.4141400" lon="-1.0963300"/>
            <trkpt lat="54.4139000" lon="-1.0961900"/>
            <trkpt lat="54.4137600" lon="-1.0961800"/>
            <trkpt lat="54.4136000" lon="-1.0962200"/>
            <trkpt lat="54.4132400" lon="-1.0960900"/>
            <trkpt lat="54.4131100" lon="-1.0960900"/>
            <trkpt lat="54.4129600" lon="-1.0961500"/>
            <trkpt lat="54.4127300" lon="-1.0962900"/>
            <trkpt lat="54.4126700" lon="-1.0962800"/>
            <trkpt lat="54.4124700" lon="-1.0965400"/>
            <trkpt lat="54.4123700" lon="-1.0969100"/>
            <trkpt lat="54.4123400" lon="-1.0973400"/>
            <trkpt lat="54.4123800" lon="-1.0974300"/>
            <trkpt lat="54.4123900" lon="-1.0975800"/>
            <trkpt lat="54.4123100" lon="-1.0979300"/>
            <trkpt lat="54.4122700" lon="-1.0980000"/>
            <trkpt lat="54.4121100" lon="-1.0985700"/>
            <trkpt lat="54.4121800" lon="-1.0983000"/>
            <trkpt lat="54.4115900" lon="-1.0979100"/>
            <trkpt lat="54.4113900" lon="-1.0978600"/>
            <trkpt lat="54.4103500" lon="-1.0972300"/>
            <trkpt lat="54.4099100" lon="-1.0971000"/>
            <trkpt lat="54.4097900" lon="-1.0970400"/>
            <trkpt lat="54.4096600" lon="-1.0970200"/>
            <trkpt lat="54.4095300" lon="-1.0969600"/>
            <trkpt lat="54.4093000" lon="-1.0969400"/>
            <trkpt lat="54.4092400" lon="-1.0968900"/>
            <trkpt lat="54.4089000" lon="-1.0960300"/>
            <trkpt lat="54.4087700" lon="-1.0957900"/>
            <trkpt lat="54.4082800" lon="-1.0946200"/>
            <trkpt lat="54.4079200" lon="-1.0936800"/>
            <trkpt lat="54.4078400" lon="-1.0935500"/>
            <trkpt lat="54.4074800" lon="-1.0927100"/>
            <trkpt lat="54.4071600" lon="-1.0918900"/>
            <trkpt lat="54.4069300" lon="-1.0912500"/>
            <trkpt lat="54.4068700" lon="-1.0910400"/>
            <trkpt lat="54.4067300" lon="-1.0907300"/>
            <trkpt lat="54.4064600" lon="-1.0898700"/>
            <trkpt lat="54.4063600" lon="-1.0894700"/>
            <trkpt lat="54.4062200" lon="-1.0891200"/>
            <trkpt lat="54.4055200" lon="-1.0858800"/>
            <trkpt lat="54.4056200" lon="-1.0858800"/>
            <trkpt lat="54.4055200" lon="-1.0858800"/>
            <trkpt lat="54.4049400" lon="-1.0822300"/>
            <trkpt lat="54.4049100" lon="-1.0819500"/>
            <trkpt lat="54.4049300" lon="-1.0815800"/>
            <trkpt lat="54.4050500" lon="-1.0809300"/>
            <trkpt lat="54.4052500" lon="-1.0801000"/>
            <trkpt lat="54.4053500" lon="-1.0794300"/>
            <trkpt lat="54.4054600" lon="-1.0775800"/>
            <trkpt lat="54.4055900" lon="-1.0767600"/>
            <trkpt lat="54.4057200" lon="-1.0763300"/>
            <trkpt lat="54.4058800" lon="-1.0760200"/>
            <trkpt lat="54.4059000" lon="-1.0758400"/>
            <trkpt lat="54.4058500" lon="-1.0756700"/>
            <trkpt lat="54.4057400" lon="-1.0753800"/>
            <trkpt lat="54.4055600" lon="-1.0745600"/>
            <trkpt lat="54.4054600" lon="-1.0735800"/>
            <trkpt lat="54.4054700" lon="-1.0730400"/>
            <trkpt lat="54.4056200" lon="-1.0705700"/>
            <trkpt lat="54.4056600" lon="-1.0702000"/>
            <trkpt lat="54.4057500" lon="-1.0696700"/>
            <trkpt lat="54.4060300" lon="-1.0685200"/>
            <trkpt lat="54.4065000" lon="-1.0657500"/>
            <trkpt lat="54.4066100" lon="-1.0647400"/>
            <trkpt lat="54.4066700" lon="-1.0642900"/>
            <trkpt lat="54.4067300" lon="-1.0626900"/>
            <trkpt lat="54.4067300" lon="-1.0622500"/>
            <trkpt lat="54.4067000" lon="-1.0618600"/>
            <trkpt lat="54.4067100" lon="-1.0617500"/>
            <trkpt lat="54.4066800" lon="-1.0616100"/>
            <trkpt lat="54.4066800" lon="-1.0607500"/>
            <trkpt lat="54.4067100" lon="-1.0604700"/>
            <trkpt lat="54.4067500" lon="-1.0603700"/>
            <trkpt lat="54.4067600" lon="-1.0596600"/>
            <trkpt lat="54.4067400" lon="-1.0595300"/>
            <trkpt lat="54.4067900" lon="-1.0585900"/>
            <trkpt lat="54.4053200" lon="-1.0532800"/>
            <trkpt lat="54.4051600" lon="-1.0527300"/>
            <trkpt lat="54.4051400" lon="-1.0527100"/>
            <trkpt lat="54.4055900" lon="-1.0530700"/>
            <trkpt lat="54.4069700" lon="-1.0546400"/>
            <trkpt lat="54.4076900" lon="-1.0554200"/>
            <trkpt lat="54.4089200" lon="-1.0564300"/>
            <trkpt lat="54.4094200" lon="-1.0566400"/>
            <trkpt lat="54.4097800" lon="-1.0569000"/>
            <trkpt lat="54.4107400" lon="-1.0574700"/>
            <trkpt lat="54.4111900" lon="-1.0579000"/>
            <trkpt lat="54.4115400" lon="-1.0584400"/>
            <trkpt lat="54.4119900" lon="-1.0589800"/>
            <trkpt lat="54.4123600" lon="-1.0593000"/>
            <trkpt lat="54.4129300" lon="-1.0599600"/>
            <trkpt lat="54.4147600" lon="-1.0612500"/>
            <trkpt lat="54.4151500" lon="-1.0616500"/>
            <trkpt lat="54.4163700" lon="-1.0627200"/>
            <trkpt lat="54.4167500" lon="-1.0629300"/>
            <trkpt lat="54.4172000" lon="-1.0631000"/>
            <trkpt lat="54.4174700" lon="-1.0632500"/>
            <trkpt lat="54.4178400" lon="-1.0635000"/>
            <trkpt lat="54.4183200" lon="-1.0638900"/>
            <trkpt lat="54.4193000" lon="-1.0645500"/>
            <trkpt lat="54.4200700" lon="-1.0651300"/>
            <trkpt lat="54.4207000" lon="-1.0657600"/>
            <trkpt lat="54.4209200" lon="-1.0659600"/>
            <trkpt lat="54.4210500" lon="-1.0660300"/>
            <trkpt lat="54.4211300" lon="-1.0660700"/>
            <trkpt lat="54.4213900" lon="-1.0661300"/>
            <trkpt lat="54.4217000" lon="-1.0661200"/>
            <trkpt lat="54.4219700" lon="-1.0660700"/>
            <trkpt lat="54.4221800" lon="-1.0659900"/>
            <trkpt lat="54.4224700" lon="-1.0657900"/>
            <trkpt lat="54.4227500" lon="-1.0654400"/>
            <trkpt lat="54.4228700" lon="-1.0653300"/>
            <trkpt lat="54.4229700" lon="-1.0653600"/>
            <trkpt lat="54.4230800" lon="-1.0654800"/>
            <trkpt lat="54.4232400" lon="-1.0658200"/>
            <trkpt lat="54.4237400" lon="-1.0664500"/>
            <trkpt lat="54.4247600" lon="-1.0678200"/>
            <trkpt lat="54.4256300" lon="-1.0687400"/>
            <trkpt lat="54.4262100" lon="-1.0695300"/>
            <trkpt lat="54.4265000" lon="-1.0698100"/>
            <trkpt lat="54.4272000" lon="-1.0701300"/>
            <trkpt lat="54.4277300" lon="-1.0704400"/>
            <trkpt lat="54.4283000" lon="-1.0705700"/>
            <trkpt lat="54.4297200" lon="-1.0705800"/>
            <trkpt lat="54.4333500" lon="-1.0721400"/>
            <trkpt lat="54.4340100" lon="-1.0723300"/>
            <trkpt lat="54.4344600" lon="-1.0724000"/>
            <trkpt lat="54.4349900" lon="-1.0726000"/>
            <trkpt lat="54.4353800" lon="-1.0728400"/>
            <trkpt lat="54.4367400" lon="-1.0742300"/>
            <trkpt lat="54.4368600" lon="-1.0742100"/>
            <trkpt lat="54.4367400" lon="-1.0742300"/>
            <trkpt lat="54.4369000" lon="-1.0744000"/>
            <trkpt lat="54.4374900" lon="-1.0748700"/>
            <trkpt lat="54.4379500" lon="-1.0751600"/>
            <trkpt lat="54.4392800" lon="-1.0756800"/>
            <trkpt lat="54.4404500" lon="-1.0760900"/>
            <trkpt lat="54.4408200" lon="-1.0764600"/>
            <trkpt lat="54.4412800" lon="-1.0770400"/>
            <trkpt lat="54.4415100" lon="-1.0771600"/>
            <trkpt lat="54.4420000" lon="-1.0773400"/>
            <trkpt lat="54.4438800" lon="-1.0778600"/>
            <trkpt lat="54.4445900" lon="-1.0781800"/>
            <trkpt lat="54.4452000" lon="-1.0784800"/>
            <trkpt lat="54.4454200" lon="-1.0784800"/>
            <trkpt lat="54.4464700" lon="-1.0782400"/>
            <trkpt lat="54.4472900" lon="-1.0777000"/>
            <trkpt lat="54.4473300" lon="-1.0776600"/>
            <trkpt lat="54.4474400" lon="-1.0776900"/>
            <trkpt lat="54.4474800" lon="-1.0777600"/>
            <trkpt lat="54.4475300" lon="-1.0779800"/>
            <trkpt lat="54.4475500" lon="-1.0788000"/>
            <trkpt lat="54.4475000" lon="-1.0791700"/>
            <trkpt lat="54.4474300" lon="-1.0794300"/>
            <trkpt lat="54.4472500" lon="-1.0796700"/>
            <trkpt lat="54.4468500" lon="-1.0799600"/>
            <trkpt lat="54.4463100" lon="-1.0806700"/>
            <trkpt lat="54.4461700" lon="-1.0808900"/>
            <trkpt lat="54.4461300" lon="-1.0810100"/>
            <trkpt lat="54.4461100" lon="-1.0811800"/>
            <trkpt lat="54.4461200" lon="-1.0813300"/>
            <trkpt lat="54.4461700" lon="-1.0814500"/>
            <trkpt lat="54.4463000" lon="-1.0816200"/>
            <trkpt lat="54.4462200" lon="-1.0818000"/>
            <trkpt lat="54.4461700" lon="-1.0818300"/>
            <trkpt lat="54.4462200" lon="-1.0818000"/>
            <trkpt lat="54.4463000" lon="-1.0816200"/>
            <trkpt lat="54.4465600" lon="-1.0817700"/>
            <trkpt lat="54.4466500" lon="-1.0817900"/>
            <trkpt lat="54.4470900" lon="-1.0817000"/>
            <trkpt lat="54.4476200" lon="-1.0817200"/>
            <trkpt lat="54.4479100" lon="-1.0814500"/>
            <trkpt lat="54.4479800" lon="-1.0814100"/>
            <trkpt lat="54.4481100" lon="-1.0815700"/>
            <trkpt lat="54.4481500" lon="-1.0817100"/>
            <trkpt lat="54.4481700" lon="-1.0819600"/>
            <trkpt lat="54.4481400" lon="-1.0822100"/>
            <trkpt lat="54.4479200" lon="-1.0828500"/>
            <trkpt lat="54.4478000" lon="-1.0833700"/>
            <trkpt lat="54.4476400" lon="-1.0838000"/>
            <trkpt lat="54.4473700" lon="-1.0842000"/>
            <trkpt lat="54.4471300" lon="-1.0843100"/>
            <trkpt lat="54.4470500" lon="-1.0843500"/>
            <trkpt lat="54.4469500" lon="-1.0844900"/>
            <trkpt lat="54.4466900" lon="-1.0850800"/>
            <trkpt lat="54.4466200" lon="-1.0853300"/>
            <trkpt lat="54.4465900" lon="-1.0855000"/>
            <trkpt lat="54.4465700" lon="-1.0857600"/>
            <trkpt lat="54.4466700" lon="-1.0864900"/>
            <trkpt lat="54.4468000" lon="-1.0869800"/>
            <trkpt lat="54.4469600" lon="-1.0874400"/>
            <trkpt lat="54.4473100" lon="-1.0883000"/>
            <trkpt lat="54.4468900" lon="-1.0881100"/>
        </trkseg>
    </trk>
</gpx>
