<?xml version="1.0" encoding="UTF-8" standalone="yes"?>
<gpx version="1.1" creator="OS Maps - Web" xmlns="http://www.topografix.com/GPX/1/1"
xmlns:xsi="http://www.w3.org/2001/XMLSchema-instance"
xsi:schemaLocation="http://www.topografix.com/GPX/1/1 http://www.topografix.com/GPX/1/1/gpx.xsd"
xmlns:gs="http://www.topografix.com/GPX/gpx_style/0/2"
xmlns:gh="https://graphhopper.com/public/schema/gpx/1.1"
xmlns:os="https://ordnancesurvey.co.uk/public/schema/route/0.1">
    <metadata>
        <name>Rosedale-Cropton Forest</name>
        <desc>9 miles  1296 feet ascent</desc>
        <bounds minlat="54.3197000" minlon="-0.8877700" maxlat="54.3528100" maxlon="-0.8220100"/>
        <extensions>
            <os:version>2.0</os:version>
            <os:point lat="54.3528100" lon="-0.8867400" type="start"/>
            <os:point lat="54.3528100" lon="-0.8867300" type="end"/>
            <os:activity>ON_FOOT_WALKING</os:activity>
            <os:difficulty>UNKNOWN</os:difficulty>
            <os:paths/>
            <os:distance>14406.7400186</os:distance>
            <os:elevation_ascent>394.9900000</os:elevation_ascent>
            <os:route_type>SINGLE</os:route_type>
        </extensions>
    </metadata>
    <wpt lat="54.3528100" lon="-0.8867400"/>
    <wpt lat="54.3513000" lon="-0.8837700"/>
    <wpt lat="54.3523800" lon="-0.8761800"/>
    <wpt lat="54.3498900" lon="-0.8719600"/>
    <wpt lat="54.3522100" lon="-0.8658000"/>
    <wpt lat="54.3517600" lon="-0.8623600"/>
    <wpt lat="54.3507300" lon="-0.8449600"/>
    <wpt lat="54.3510300" lon="-0.8417100"/>
    <wpt lat="54.3491100" lon="-0.8375400"/>
    <wpt lat="54.3491700" lon="-0.8285100"/>
    <wpt lat="54.3357900" lon="-0.8224200"/>
    <wpt lat="54.3304600" lon="-0.8276600"/>
    <wpt lat="54.3293800" lon="-0.8333700"/>
    <wpt lat="54.3270900" lon="-0.8390800"/>
    <wpt lat="54.3285100" lon="-0.8414800"/>
    <wpt lat="54.3221000" lon="-0.8495800"/>
    <wpt lat="54.3229900" lon="-0.8496200"/>
    <wpt lat="54.3197000" lon="-0.8550100"/>
    <wpt lat="54.3228600" lon="-0.8540200"/>
    <wpt lat="54.3284700" lon="-0.8543100"/>
    <wpt lat="54.3313000" lon="-0.8558700"/>
    <wpt lat="54.3338800" lon="-0.8600500"/>
    <wpt lat="54.3405200" lon="-0.8753000"/>
    <wpt lat="54.3430800" lon="-0.8788100"/>
    <wpt lat="54.3470000" lon="-0.8849300"/>
    <wpt lat="54.3499200" lon="-0.8877700"/>
    <wpt lat="54.3528100" lon="-0.8867300"/>
    <trk>
        <name>Rosedale-Cropton Forest</name>
        <trkseg>
            <trkpt lat="54.3528100" lon="-0.8867400"/>
            <trkpt lat="54.3527400" lon="-0.8865100"/>
            <trkpt lat="54.3527300" lon="-0.8864000"/>
            <trkpt lat="54.3527400" lon="-0.8862400"/>
            <trkpt lat="54.3523300" lon="-0.8854900"/>
            <trkpt lat="54.3513000" lon="-0.8837700"/>
            <trkpt lat="54.3512700" lon="-0.8837100"/>
            <trkpt lat="54.3521300" lon="-0.8822600"/>
            <trkpt lat="54.3521700" lon="-0.8820300"/>
            <trkpt lat="54.3524000" lon="-0.8797800"/>
            <trkpt lat="54.3521100" lon="-0.8780300"/>
            <trkpt lat="54.3520700" lon="-0.8780300"/>
            <trkpt lat="54.3520500" lon="-0.8777200"/>
            <trkpt lat="54.3520700" lon="-0.8775300"/>
            <trkpt lat="54.3522700" lon="-0.8772700"/>
            <trkpt lat="54.3523700" lon="-0.8770100"/>
            <trkpt lat="54.3524200" lon="-0.8766900"/>
            <trkpt lat="54.3524200" lon="-0.8765800"/>
            <trkpt lat="54.3523700" lon="-0.8763600"/>
            <trkpt lat="54.3523800" lon="-0.8761800"/>
            <trkpt lat="54.3523800" lon="-0.8761000"/>
            <trkpt lat="54.3522500" lon="-0.8760800"/>
            <trkpt lat="54.3516800" lon="-0.8757500"/>
            <trkpt lat="54.3514600" lon="-0.8755800"/>
            <trkpt lat="54.3513100" lon="-0.8752900"/>
            <trkpt lat="54.3510700" lon="-0.8746000"/>
            <trkpt lat="54.3509300" lon="-0.8744600"/>
            <trkpt lat="54.3508400" lon="-0.8742100"/>
            <trkpt lat="54.3507900" lon="-0.8738700"/>
            <trkpt lat="54.3506900" lon="-0.8736800"/>
            <trkpt lat="54.3505800" lon="-0.8732200"/>
            <trkpt lat="54.3503800" lon="-0.8726900"/>
            <trkpt lat="54.3499800" lon="-0.8717300"/>
            <trkpt lat="54.3498900" lon="-0.8719600"/>
            <trkpt lat="54.3502500" lon="-0.8711200"/>
            <trkpt lat="54.3506000" lon="-0.8700600"/>
            <trkpt lat="54.3508300" lon="-0.8696800"/>
            <trkpt lat="54.3509300" lon="-0.8694300"/>
            <trkpt lat="54.3511500" lon="-0.8686700"/>
            <trkpt lat="54.3511600" lon="-0.8684700"/>
            <trkpt lat="54.3511300" lon="-0.8683000"/>
            <trkpt lat="54.3511500" lon="-0.8681300"/>
            <trkpt lat="54.3511800" lon="-0.8680500"/>
            <trkpt lat="54.3511900" lon="-0.8679700"/>
            <trkpt lat="54.3511800" lon="-0.8679000"/>
            <trkpt lat="54.3512900" lon="-0.8677200"/>
            <trkpt lat="54.3514100" lon="-0.8674200"/>
            <trkpt lat="54.3515500" lon="-0.8671600"/>
            <trkpt lat="54.3515800" lon="-0.8670300"/>
            <trkpt lat="54.3517300" lon="-0.8667500"/>
            <trkpt lat="54.3520200" lon="-0.8660700"/>
            <trkpt lat="54.3522100" lon="-0.8658000"/>
            <trkpt lat="54.3518600" lon="-0.8636600"/>
            <trkpt lat="54.3517600" lon="-0.8623600"/>
            <trkpt lat="54.3518200" lon="-0.8620400"/>
            <trkpt lat="54.3516100" lon="-0.8619500"/>
            <trkpt lat="54.3516700" lon="-0.8616500"/>
            <trkpt lat="54.3515700" lon="-0.8613800"/>
            <trkpt lat="54.3515400" lon="-0.8613400"/>
            <trkpt lat="54.3513600" lon="-0.8608100"/>
            <trkpt lat="54.3512100" lon="-0.8601500"/>
            <trkpt lat="54.3510500" lon="-0.8588700"/>
            <trkpt lat="54.3509200" lon="-0.8579600"/>
            <trkpt lat="54.3508600" lon="-0.8577400"/>
            <trkpt lat="54.3508800" lon="-0.8574000"/>
            <trkpt lat="54.3505400" lon="-0.8546000"/>
            <trkpt lat="54.3505100" lon="-0.8542600"/>
            <trkpt lat="54.3505400" lon="-0.8536000"/>
            <trkpt lat="54.3506800" lon="-0.8523800"/>
            <trkpt lat="54.3507400" lon="-0.8506700"/>
            <trkpt lat="54.3506500" lon="-0.8500000"/>
            <trkpt lat="54.3506100" lon="-0.8494200"/>
            <trkpt lat="54.3508200" lon="-0.8483400"/>
            <trkpt lat="54.3508400" lon="-0.8473100"/>
            <trkpt lat="54.3507600" lon="-0.8453700"/>
            <trkpt lat="54.3507300" lon="-0.8450800"/>
            <trkpt lat="54.3507300" lon="-0.8449600"/>
            <trkpt lat="54.3507300" lon="-0.8448700"/>
            <trkpt lat="54.3508100" lon="-0.8446100"/>
            <trkpt lat="54.3507700" lon="-0.8438700"/>
            <trkpt lat="54.3507600" lon="-0.8426700"/>
            <trkpt lat="54.3508500" lon="-0.8422100"/>
            <trkpt lat="54.3508600" lon="-0.8420500"/>
            <trkpt lat="54.3509600" lon="-0.8418200"/>
            <trkpt lat="54.3510300" lon="-0.8417100"/>
            <trkpt lat="54.3511100" lon="-0.8415900"/>
            <trkpt lat="54.3509900" lon="-0.8415200"/>
            <trkpt lat="54.3506400" lon="-0.8406300"/>
            <trkpt lat="54.3504000" lon="-0.8404300"/>
            <trkpt lat="54.3502100" lon="-0.8399300"/>
            <trkpt lat="54.3498500" lon="-0.8388100"/>
            <trkpt lat="54.3497700" lon="-0.8384600"/>
            <trkpt lat="54.3497200" lon="-0.8380800"/>
            <trkpt lat="54.3494600" lon="-0.8378900"/>
            <trkpt lat="54.3491000" lon="-0.8377200"/>
            <trkpt lat="54.3491100" lon="-0.8375400"/>
            <trkpt lat="54.3491100" lon="-0.8374600"/>
            <trkpt lat="54.3491000" lon="-0.8373700"/>
            <trkpt lat="54.3489600" lon="-0.8373000"/>
            <trkpt lat="54.3488000" lon="-0.8371600"/>
            <trkpt lat="54.3487600" lon="-0.8370500"/>
            <trkpt lat="54.3487600" lon="-0.8368400"/>
            <trkpt lat="54.3488500" lon="-0.8366100"/>
            <trkpt lat="54.3488500" lon="-0.8364700"/>
            <trkpt lat="54.3490300" lon="-0.8360700"/>
            <trkpt lat="54.3490700" lon="-0.8359100"/>
            <trkpt lat="54.3490600" lon="-0.8355600"/>
            <trkpt lat="54.3491000" lon="-0.8349700"/>
            <trkpt lat="54.3491500" lon="-0.8335300"/>
            <trkpt lat="54.3492900" lon="-0.8326500"/>
            <trkpt lat="54.3492800" lon="-0.8325800"/>
            <trkpt lat="54.3493300" lon="-0.8325100"/>
            <trkpt lat="54.3493600" lon="-0.8323300"/>
            <trkpt lat="54.3493700" lon="-0.8318100"/>
            <trkpt lat="54.3492900" lon="-0.8299500"/>
            <trkpt lat="54.3492300" lon="-0.8295000"/>
            <trkpt lat="54.3492000" lon="-0.8290900"/>
            <trkpt lat="54.3492000" lon="-0.8285100"/>
            <trkpt lat="54.3491700" lon="-0.8285100"/>
            <trkpt lat="54.3486500" lon="-0.8285100"/>
            <trkpt lat="54.3477300" lon="-0.8284700"/>
            <trkpt lat="54.3467400" lon="-0.8282000"/>
            <trkpt lat="54.3453100" lon="-0.8275700"/>
            <trkpt lat="54.3451600" lon="-0.8275600"/>
            <trkpt lat="54.3449900" lon="-0.8275100"/>
            <trkpt lat="54.3445000" lon="-0.8272000"/>
            <trkpt lat="54.3439200" lon="-0.8267800"/>
            <trkpt lat="54.3438300" lon="-0.8266300"/>
            <trkpt lat="54.3435400" lon="-0.8263700"/>
            <trkpt lat="54.3434600" lon="-0.8262300"/>
            <trkpt lat="54.3433500" lon="-0.8258900"/>
            <trkpt lat="54.3431700" lon="-0.8251400"/>
            <trkpt lat="54.3431000" lon="-0.8249300"/>
            <trkpt lat="54.3429900" lon="-0.8247000"/>
            <trkpt lat="54.3425800" lon="-0.8239900"/>
            <trkpt lat="54.3422400" lon="-0.8233300"/>
            <trkpt lat="54.3420100" lon="-0.8229300"/>
            <trkpt lat="54.3418700" lon="-0.8226400"/>
            <trkpt lat="54.3416000" lon="-0.8222500"/>
            <trkpt lat="54.3414900" lon="-0.8221500"/>
            <trkpt lat="54.3413900" lon="-0.8220900"/>
            <trkpt lat="54.3411700" lon="-0.8220100"/>
            <trkpt lat="54.3404200" lon="-0.8220500"/>
            <trkpt lat="54.3393600" lon="-0.8220300"/>
            <trkpt lat="54.3376600" lon="-0.8220500"/>
            <trkpt lat="54.3367900" lon="-0.8221600"/>
            <trkpt lat="54.3365700" lon="-0.8222300"/>
            <trkpt lat="54.3361600" lon="-0.8223100"/>
            <trkpt lat="54.3357900" lon="-0.8224200"/>
            <trkpt lat="54.3358100" lon="-0.8224100"/>
            <trkpt lat="54.3359500" lon="-0.8228100"/>
            <trkpt lat="54.3358800" lon="-0.8233700"/>
            <trkpt lat="54.3356900" lon="-0.8241700"/>
            <trkpt lat="54.3354600" lon="-0.8246200"/>
            <trkpt lat="54.3352800" lon="-0.8247600"/>
            <trkpt lat="54.3344900" lon="-0.8251600"/>
            <trkpt lat="54.3334700" lon="-0.8254800"/>
            <trkpt lat="54.3330400" lon="-0.8256600"/>
            <trkpt lat="54.3325500" lon="-0.8259300"/>
            <trkpt lat="54.3316300" lon="-0.8266400"/>
            <trkpt lat="54.3305400" lon="-0.8275300"/>
            <trkpt lat="54.3304600" lon="-0.8276600"/>
            <trkpt lat="54.3302800" lon="-0.8279600"/>
            <trkpt lat="54.3300700" lon="-0.8284800"/>
            <trkpt lat="54.3296000" lon="-0.8300500"/>
            <trkpt lat="54.3294400" lon="-0.8310800"/>
            <trkpt lat="54.3295100" lon="-0.8322200"/>
            <trkpt lat="54.3294800" lon="-0.8328500"/>
            <trkpt lat="54.3293300" lon="-0.8333600"/>
            <trkpt lat="54.3293800" lon="-0.8333700"/>
            <trkpt lat="54.3293300" lon="-0.8333600"/>
            <trkpt lat="54.3284700" lon="-0.8347600"/>
            <trkpt lat="54.3282000" lon="-0.8352400"/>
            <trkpt lat="54.3281200" lon="-0.8356500"/>
            <trkpt lat="54.3281400" lon="-0.8370400"/>
            <trkpt lat="54.3280600" lon="-0.8374300"/>
            <trkpt lat="54.3279200" lon="-0.8378200"/>
            <trkpt lat="54.3273900" lon="-0.8386900"/>
            <trkpt lat="54.3270900" lon="-0.8390800"/>
            <trkpt lat="54.3285100" lon="-0.8414800"/>
            <trkpt lat="54.3284100" lon="-0.8417200"/>
            <trkpt lat="54.3279300" lon="-0.8424200"/>
            <trkpt lat="54.3275200" lon="-0.8431700"/>
            <trkpt lat="54.3270600" lon="-0.8439100"/>
            <trkpt lat="54.3265100" lon="-0.8443500"/>
            <trkpt lat="54.3260300" lon="-0.8446000"/>
            <trkpt lat="54.3255200" lon="-0.8446000"/>
            <trkpt lat="54.3251300" lon="-0.8450000"/>
            <trkpt lat="54.3246200" lon="-0.8454600"/>
            <trkpt lat="54.3243500" lon="-0.8458800"/>
            <trkpt lat="54.3227700" lon="-0.8485600"/>
            <trkpt lat="54.3221900" lon="-0.8493400"/>
            <trkpt lat="54.3220500" lon="-0.8496000"/>
            <trkpt lat="54.3221000" lon="-0.8495800"/>
            <trkpt lat="54.3226800" lon="-0.8494000"/>
            <trkpt lat="54.3228300" lon="-0.8494400"/>
            <trkpt lat="54.3229400" lon="-0.8495400"/>
            <trkpt lat="54.3229900" lon="-0.8496200"/>
            <trkpt lat="54.3230800" lon="-0.8497600"/>
            <trkpt lat="54.3225800" lon="-0.8500700"/>
            <trkpt lat="54.3225400" lon="-0.8501300"/>
            <trkpt lat="54.3225200" lon="-0.8502100"/>
            <trkpt lat="54.3224500" lon="-0.8503000"/>
            <trkpt lat="54.3223800" lon="-0.8506500"/>
            <trkpt lat="54.3222400" lon="-0.8508300"/>
            <trkpt lat="54.3220000" lon="-0.8513100"/>
            <trkpt lat="54.3216100" lon="-0.8519400"/>
            <trkpt lat="54.3213100" lon="-0.8522500"/>
            <trkpt lat="54.3207900" lon="-0.8532100"/>
            <trkpt lat="54.3203300" lon="-0.8539400"/>
            <trkpt lat="54.3202100" lon="-0.8540700"/>
            <trkpt lat="54.3198500" lon="-0.8546300"/>
            <trkpt lat="54.3197000" lon="-0.8550100"/>
            <trkpt lat="54.3197300" lon="-0.8549500"/>
            <trkpt lat="54.3207700" lon="-0.8545800"/>
            <trkpt lat="54.3212900" lon="-0.8544500"/>
            <trkpt lat="54.3216200" lon="-0.8544100"/>
            <trkpt lat="54.3217900" lon="-0.8542400"/>
            <trkpt lat="54.3228600" lon="-0.8540200"/>
            <trkpt lat="54.3232000" lon="-0.8539900"/>
            <trkpt lat="54.3236300" lon="-0.8541100"/>
            <trkpt lat="54.3238600" lon="-0.8541200"/>
            <trkpt lat="54.3240800" lon="-0.8539000"/>
            <trkpt lat="54.3241900" lon="-0.8538700"/>
            <trkpt lat="54.3245300" lon="-0.8536600"/>
            <trkpt lat="54.3250500" lon="-0.8535600"/>
            <trkpt lat="54.3255600" lon="-0.8535600"/>
            <trkpt lat="54.3262500" lon="-0.8538400"/>
            <trkpt lat="54.3269200" lon="-0.8540500"/>
            <trkpt lat="54.3274200" lon="-0.8539400"/>
            <trkpt lat="54.3284700" lon="-0.8543100"/>
            <trkpt lat="54.3290900" lon="-0.8547500"/>
            <trkpt lat="54.3296400" lon="-0.8550200"/>
            <trkpt lat="54.3303900" lon="-0.8555700"/>
            <trkpt lat="54.3307000" lon="-0.8557300"/>
            <trkpt lat="54.3312100" lon="-0.8557700"/>
            <trkpt lat="54.3313000" lon="-0.8558700"/>
            <trkpt lat="54.3314900" lon="-0.8560900"/>
            <trkpt lat="54.3317400" lon="-0.8561800"/>
            <trkpt lat="54.3319400" lon="-0.8564000"/>
            <trkpt lat="54.3323100" lon="-0.8568800"/>
            <trkpt lat="54.3324800" lon="-0.8572900"/>
            <trkpt lat="54.3327600" lon="-0.8576900"/>
            <trkpt lat="54.3333400" lon="-0.8583000"/>
            <trkpt lat="54.3335600" lon="-0.8588300"/>
            <trkpt lat="54.3338100" lon="-0.8596500"/>
            <trkpt lat="54.3338800" lon="-0.8600500"/>
            <trkpt lat="54.3338800" lon="-0.8603000"/>
            <trkpt lat="54.3339200" lon="-0.8604800"/>
            <trkpt lat="54.3339700" lon="-0.8605600"/>
            <trkpt lat="54.3340900" lon="-0.8606500"/>
            <trkpt lat="54.3342000" lon="-0.8608000"/>
            <trkpt lat="54.3343500" lon="-0.8608500"/>
            <trkpt lat="54.3344700" lon="-0.8609300"/>
            <trkpt lat="54.3346100" lon="-0.8611200"/>
            <trkpt lat="54.3346700" lon="-0.8612800"/>
            <trkpt lat="54.3347000" lon="-0.8615400"/>
            <trkpt lat="54.3348000" lon="-0.8618300"/>
            <trkpt lat="54.3347900" lon="-0.8620100"/>
            <trkpt lat="54.3348800" lon="-0.8622400"/>
            <trkpt lat="54.3349000" lon="-0.8628400"/>
            <trkpt lat="54.3349500" lon="-0.8630100"/>
            <trkpt lat="54.3349500" lon="-0.8631500"/>
            <trkpt lat="54.3350200" lon="-0.8633800"/>
            <trkpt lat="54.3352300" lon="-0.8637700"/>
            <trkpt lat="54.3353800" lon="-0.8641600"/>
            <trkpt lat="54.3356400" lon="-0.8644800"/>
            <trkpt lat="54.3359600" lon="-0.8649800"/>
            <trkpt lat="54.3361000" lon="-0.8651700"/>
            <trkpt lat="54.3361500" lon="-0.8652700"/>
            <trkpt lat="54.3362400" lon="-0.8655100"/>
            <trkpt lat="54.3363400" lon="-0.8656300"/>
            <trkpt lat="54.3368900" lon="-0.8667000"/>
            <trkpt lat="54.3375600" lon="-0.8676900"/>
            <trkpt lat="54.3379100" lon="-0.8684100"/>
            <trkpt lat="54.3381500" lon="-0.8690700"/>
            <trkpt lat="54.3384200" lon="-0.8701900"/>
            <trkpt lat="54.3384700" lon="-0.8706300"/>
            <trkpt lat="54.3385600" lon="-0.8708800"/>
            <trkpt lat="54.3386400" lon="-0.8713700"/>
            <trkpt lat="54.3386900" lon="-0.8721100"/>
            <trkpt lat="54.3389500" lon="-0.8735700"/>
            <trkpt lat="54.3390300" lon="-0.8738200"/>
            <trkpt lat="54.3391000" lon="-0.8739500"/>
            <trkpt lat="54.3392800" lon="-0.8740900"/>
            <trkpt lat="54.3397600" lon="-0.8742500"/>
            <trkpt lat="54.3399100" lon="-0.8742700"/>
            <trkpt lat="54.3399400" lon="-0.8744700"/>
            <trkpt lat="54.3400700" lon="-0.8747500"/>
            <trkpt lat="54.3402500" lon="-0.8749000"/>
            <trkpt lat="54.3403300" lon="-0.8750000"/>
            <trkpt lat="54.3404500" lon="-0.8752500"/>
            <trkpt lat="54.3405200" lon="-0.8753000"/>
            <trkpt lat="54.3408000" lon="-0.8752900"/>
            <trkpt lat="54.3410000" lon="-0.8752000"/>
            <trkpt lat="54.3410900" lon="-0.8752500"/>
            <trkpt lat="54.3412200" lon="-0.8755400"/>
            <trkpt lat="54.3414300" lon="-0.8759500"/>
            <trkpt lat="54.3415800" lon="-0.8762000"/>
            <trkpt lat="54.3419400" lon="-0.8766500"/>
            <trkpt lat="54.3426600" lon="-0.8777100"/>
            <trkpt lat="54.3427600" lon="-0.8779100"/>
            <trkpt lat="54.3428700" lon="-0.8783800"/>
            <trkpt lat="54.3429300" lon="-0.8785800"/>
            <trkpt lat="54.3430800" lon="-0.8788100"/>
            <trkpt lat="54.3431000" lon="-0.8788500"/>
            <trkpt lat="54.3431300" lon="-0.8790000"/>
            <trkpt lat="54.3431200" lon="-0.8791600"/>
            <trkpt lat="54.3430000" lon="-0.8795600"/>
            <trkpt lat="54.3429400" lon="-0.8799400"/>
            <trkpt lat="54.3429400" lon="-0.8801700"/>
            <trkpt lat="54.3429800" lon="-0.8803600"/>
            <trkpt lat="54.3437800" lon="-0.8823800"/>
            <trkpt lat="54.3442900" lon="-0.8835000"/>
            <trkpt lat="54.3444700" lon="-0.8837100"/>
            <trkpt lat="54.3447500" lon="-0.8838900"/>
            <trkpt lat="54.3449400" lon="-0.8839600"/>
            <trkpt lat="54.3454400" lon="-0.8840800"/>
            <trkpt lat="54.3456800" lon="-0.8843700"/>
            <trkpt lat="54.3458100" lon="-0.8844200"/>
            <trkpt lat="54.3463000" lon="-0.8847500"/>
            <trkpt lat="54.3470000" lon="-0.8849300"/>
            <trkpt lat="54.3473400" lon="-0.8850100"/>
            <trkpt lat="54.3478500" lon="-0.8851800"/>
            <trkpt lat="54.3484700" lon="-0.8854900"/>
            <trkpt lat="54.3494000" lon="-0.8858900"/>
            <trkpt lat="54.3495500" lon="-0.8860300"/>
            <trkpt lat="54.3498300" lon="-0.8867300"/>
            <trkpt lat="54.3499300" lon="-0.8870700"/>
            <trkpt lat="54.3499600" lon="-0.8872800"/>
            <trkpt lat="54.3499500" lon="-0.8876800"/>
            <trkpt lat="54.3499200" lon="-0.8877700"/>
            <trkpt lat="54.3499500" lon="-0.8876800"/>
            <trkpt lat="54.3503300" lon="-0.8876200"/>
            <trkpt lat="54.3505800" lon="-0.8875300"/>
            <trkpt lat="54.3514200" lon="-0.8869200"/>
            <trkpt lat="54.3519600" lon="-0.8867600"/>
            <trkpt lat="54.3522100" lon="-0.8869000"/>
            <trkpt lat="54.3527400" lon="-0.8862400"/>
            <trkpt lat="54.3527300" lon="-0.8864000"/>
            <trkpt lat="54.3527400" lon="-0.8865100"/>
            <trkpt lat="54.3528100" lon="-0.8867300"/>
        </trkseg>
    </trk>
</gpx>
