<?xml version="1.0" encoding="UTF-8" standalone="yes"?>
<gpx version="1.1" creator="OS Maps - Web" xmlns="http://www.topografix.com/GPX/1/1"
xmlns:xsi="http://www.w3.org/2001/XMLSchema-instance"
xsi:schemaLocation="http://www.topografix.com/GPX/1/1 http://www.topografix.com/GPX/1/1/gpx.xsd"
xmlns:gs="http://www.topografix.com/GPX/gpx_style/0/2"
xmlns:gh="https://graphhopper.com/public/schema/gpx/1.1"
xmlns:os="https://ordnancesurvey.co.uk/public/schema/route/0.1">
    <metadata>
        <name>Square Corner - Shooting House - Sheep Wash - Oak Dale</name>
        <desc>8.6 miles 980 feet ascent.  Start at Square Corner</desc>
        <bounds minlat="54.3524800" minlon="-1.2868400" maxlat="54.3955400" maxlon="-1.2379600"/>
        <extensions>
            <os:version>2.0</os:version>
            <os:point lat="54.3565502" lon="-1.2636814" type="start"/>
            <os:point lat="54.3565000" lon="-1.2637800" type="end"/>
            <os:activity>ON_FOOT_WALKING</os:activity>
            <os:difficulty>EASY</os:difficulty>
            <os:paths/>
            <os:distance>13855.3216703</os:distance>
            <os:elevation_ascent>298.3400000</os:elevation_ascent>
            <os:route_type>SINGLE</os:route_type>
        </extensions>
    </metadata>
    <wpt lat="54.3565502" lon="-1.2636814"/>
    <wpt lat="54.3525500" lon="-1.2486700"/>
    <wpt lat="54.3606600" lon="-1.2483400"/>
    <wpt lat="54.3756600" lon="-1.2391800"/>
    <wpt lat="54.3907700" lon="-1.2505700"/>
    <wpt lat="54.3937500" lon="-1.2693700"/>
    <wpt lat="54.3883200" lon="-1.2759800"/>
    <wpt lat="54.3756500" lon="-1.2738600"/>
    <wpt lat="54.3746000" lon="-1.2833200"/>
    <wpt lat="54.3647800" lon="-1.2860600"/>
    <wpt lat="54.3600800" lon="-1.2789600"/>
    <wpt lat="54.3565000" lon="-1.2637800"/>
    <trk>
        <name>Square Corner - Shooting House - Sheep Wash - Oak Dale</name>
        <trkseg>
            <trkpt lat="54.3565502" lon="-1.2636814"/>
            <trkpt lat="54.3564900" lon="-1.2637000"/>
            <trkpt lat="54.3564800" lon="-1.2629300"/>
            <trkpt lat="54.3564300" lon="-1.2621100"/>
            <trkpt lat="54.3562000" lon="-1.2607400"/>
            <trkpt lat="54.3560300" lon="-1.2600500"/>
            <trkpt lat="54.3557400" lon="-1.2592300"/>
            <trkpt lat="54.3547400" lon="-1.2567000"/>
            <trkpt lat="54.3542400" lon="-1.2554800"/>
            <trkpt lat="54.3540600" lon="-1.2549300"/>
            <trkpt lat="54.3538300" lon="-1.2541000"/>
            <trkpt lat="54.3536400" lon="-1.2532300"/>
            <trkpt lat="54.3534800" lon="-1.2526100"/>
            <trkpt lat="54.3529300" lon="-1.2506300"/>
            <trkpt lat="54.3527400" lon="-1.2498500"/>
            <trkpt lat="54.3525500" lon="-1.2486700"/>
            <trkpt lat="54.3524800" lon="-1.2482700"/>
            <trkpt lat="54.3525700" lon="-1.2482700"/>
            <trkpt lat="54.3527600" lon="-1.2483300"/>
            <trkpt lat="54.3529500" lon="-1.2482500"/>
            <trkpt lat="54.3534800" lon="-1.2481400"/>
            <trkpt lat="54.3538800" lon="-1.2479700"/>
            <trkpt lat="54.3541700" lon="-1.2477600"/>
            <trkpt lat="54.3543600" lon="-1.2475800"/>
            <trkpt lat="54.3544600" lon="-1.2473900"/>
            <trkpt lat="54.3546700" lon="-1.2467500"/>
            <trkpt lat="54.3547600" lon="-1.2466100"/>
            <trkpt lat="54.3551000" lon="-1.2461600"/>
            <trkpt lat="54.3558900" lon="-1.2453000"/>
            <trkpt lat="54.3568800" lon="-1.2442900"/>
            <trkpt lat="54.3570400" lon="-1.2441900"/>
            <trkpt lat="54.3571900" lon="-1.2441800"/>
            <trkpt lat="54.3578600" lon="-1.2450300"/>
            <trkpt lat="54.3585900" lon="-1.2457900"/>
            <trkpt lat="54.3589000" lon="-1.2462100"/>
            <trkpt lat="54.3591700" lon="-1.2465000"/>
            <trkpt lat="54.3597000" lon="-1.2465600"/>
            <trkpt lat="54.3598800" lon="-1.2466100"/>
            <trkpt lat="54.3599400" lon="-1.2466600"/>
            <trkpt lat="54.3600200" lon="-1.2467700"/>
            <trkpt lat="54.3600700" lon="-1.2468800"/>
            <trkpt lat="54.3601500" lon="-1.2471200"/>
            <trkpt lat="54.3602800" lon="-1.2476300"/>
            <trkpt lat="54.3604500" lon="-1.2479700"/>
            <trkpt lat="54.3606600" lon="-1.2483400"/>
            <trkpt lat="54.3607800" lon="-1.2485500"/>
            <trkpt lat="54.3608600" lon="-1.2486100"/>
            <trkpt lat="54.3609400" lon="-1.2486300"/>
            <trkpt lat="54.3616100" lon="-1.2483300"/>
            <trkpt lat="54.3619000" lon="-1.2482300"/>
            <trkpt lat="54.3622300" lon="-1.2481800"/>
            <trkpt lat="54.3624400" lon="-1.2480600"/>
            <trkpt lat="54.3631200" lon="-1.2474900"/>
            <trkpt lat="54.3632600" lon="-1.2474500"/>
            <trkpt lat="54.3636400" lon="-1.2477100"/>
            <trkpt lat="54.3637300" lon="-1.2477500"/>
            <trkpt lat="54.3638200" lon="-1.2477800"/>
            <trkpt lat="54.3640200" lon="-1.2477600"/>
            <trkpt lat="54.3647500" lon="-1.2473300"/>
            <trkpt lat="54.3652300" lon="-1.2470700"/>
            <trkpt lat="54.3658700" lon="-1.2464600"/>
            <trkpt lat="54.3664500" lon="-1.2459700"/>
            <trkpt lat="54.3670900" lon="-1.2455100"/>
            <trkpt lat="54.3673900" lon="-1.2453400"/>
            <trkpt lat="54.3676800" lon="-1.2451300"/>
            <trkpt lat="54.3678800" lon="-1.2449600"/>
            <trkpt lat="54.3697900" lon="-1.2435300"/>
            <trkpt lat="54.3704000" lon="-1.2430100"/>
            <trkpt lat="54.3709700" lon="-1.2425700"/>
            <trkpt lat="54.3720700" lon="-1.2415400"/>
            <trkpt lat="54.3730000" lon="-1.2408500"/>
            <trkpt lat="54.3733500" lon="-1.2407100"/>
            <trkpt lat="54.3736100" lon="-1.2406600"/>
            <trkpt lat="54.3738600" lon="-1.2406600"/>
            <trkpt lat="54.3741400" lon="-1.2406000"/>
            <trkpt lat="54.3742800" lon="-1.2404900"/>
            <trkpt lat="54.3748900" lon="-1.2399000"/>
            <trkpt lat="54.3754600" lon="-1.2394000"/>
            <trkpt lat="54.3756600" lon="-1.2391800"/>
            <trkpt lat="54.3759700" lon="-1.2388100"/>
            <trkpt lat="54.3760500" lon="-1.2387000"/>
            <trkpt lat="54.3761800" lon="-1.2381900"/>
            <trkpt lat="54.3762600" lon="-1.2379600"/>
            <trkpt lat="54.3771300" lon="-1.2388700"/>
            <trkpt lat="54.3774800" lon="-1.2391800"/>
            <trkpt lat="54.3779100" lon="-1.2394400"/>
            <trkpt lat="54.3782800" lon="-1.2396200"/>
            <trkpt lat="54.3787100" lon="-1.2397700"/>
            <trkpt lat="54.3790600" lon="-1.2398300"/>
            <trkpt lat="54.3794500" lon="-1.2397600"/>
            <trkpt lat="54.3798700" lon="-1.2398100"/>
            <trkpt lat="54.3800100" lon="-1.2398000"/>
            <trkpt lat="54.3801800" lon="-1.2397300"/>
            <trkpt lat="54.3807000" lon="-1.2396600"/>
            <trkpt lat="54.3817900" lon="-1.2396800"/>
            <trkpt lat="54.3823900" lon="-1.2397300"/>
            <trkpt lat="54.3825000" lon="-1.2398200"/>
            <trkpt lat="54.3828000" lon="-1.2402400"/>
            <trkpt lat="54.3829900" lon="-1.2405900"/>
            <trkpt lat="54.3833700" lon="-1.2414200"/>
            <trkpt lat="54.3836900" lon="-1.2420600"/>
            <trkpt lat="54.3841000" lon="-1.2427300"/>
            <trkpt lat="54.3848900" lon="-1.2437200"/>
            <trkpt lat="54.3861600" lon="-1.2450400"/>
            <trkpt lat="54.3864700" lon="-1.2453900"/>
            <trkpt lat="54.3869100" lon="-1.2457900"/>
            <trkpt lat="54.3876100" lon="-1.2465500"/>
            <trkpt lat="54.3885000" lon="-1.2474200"/>
            <trkpt lat="54.3886800" lon="-1.2476500"/>
            <trkpt lat="54.3888400" lon="-1.2479600"/>
            <trkpt lat="54.3890100" lon="-1.2482100"/>
            <trkpt lat="54.3892200" lon="-1.2484300"/>
            <trkpt lat="54.3899100" lon="-1.2494600"/>
            <trkpt lat="54.3907700" lon="-1.2505700"/>
            <trkpt lat="54.3909400" lon="-1.2507900"/>
            <trkpt lat="54.3910500" lon="-1.2509700"/>
            <trkpt lat="54.3911700" lon="-1.2511100"/>
            <trkpt lat="54.3919600" lon="-1.2525500"/>
            <trkpt lat="54.3942000" lon="-1.2568700"/>
            <trkpt lat="54.3951700" lon="-1.2595900"/>
            <trkpt lat="54.3955400" lon="-1.2607600"/>
            <trkpt lat="54.3954800" lon="-1.2608400"/>
            <trkpt lat="54.3953600" lon="-1.2611500"/>
            <trkpt lat="54.3951500" lon="-1.2618300"/>
            <trkpt lat="54.3949900" lon="-1.2629600"/>
            <trkpt lat="54.3948700" lon="-1.2634500"/>
            <trkpt lat="54.3948000" lon="-1.2640400"/>
            <trkpt lat="54.3948000" lon="-1.2644000"/>
            <trkpt lat="54.3947300" lon="-1.2649100"/>
            <trkpt lat="54.3947300" lon="-1.2652800"/>
            <trkpt lat="54.3945500" lon="-1.2665800"/>
            <trkpt lat="54.3937500" lon="-1.2693700"/>
            <trkpt lat="54.3936400" lon="-1.2697500"/>
            <trkpt lat="54.3932100" lon="-1.2697400"/>
            <trkpt lat="54.3929800" lon="-1.2697800"/>
            <trkpt lat="54.3927000" lon="-1.2697500"/>
            <trkpt lat="54.3921100" lon="-1.2696400"/>
            <trkpt lat="54.3915300" lon="-1.2694200"/>
            <trkpt lat="54.3905500" lon="-1.2697100"/>
            <trkpt lat="54.3904300" lon="-1.2697700"/>
            <trkpt lat="54.3901700" lon="-1.2702000"/>
            <trkpt lat="54.3895000" lon="-1.2709400"/>
            <trkpt lat="54.3892000" lon="-1.2713900"/>
            <trkpt lat="54.3891300" lon="-1.2717600"/>
            <trkpt lat="54.3891100" lon="-1.2723100"/>
            <trkpt lat="54.3890100" lon="-1.2729300"/>
            <trkpt lat="54.3889200" lon="-1.2732900"/>
            <trkpt lat="54.3889300" lon="-1.2739500"/>
            <trkpt lat="54.3889200" lon="-1.2746800"/>
            <trkpt lat="54.3889600" lon="-1.2751300"/>
            <trkpt lat="54.3888000" lon="-1.2753500"/>
            <trkpt lat="54.3886000" lon="-1.2757300"/>
            <trkpt lat="54.3884600" lon="-1.2759200"/>
            <trkpt lat="54.3884600" lon="-1.2760200"/>
            <trkpt lat="54.3883800" lon="-1.2760300"/>
            <trkpt lat="54.3883200" lon="-1.2759800"/>
            <trkpt lat="54.3881900" lon="-1.2758700"/>
            <trkpt lat="54.3879300" lon="-1.2758400"/>
            <trkpt lat="54.3878800" lon="-1.2758100"/>
            <trkpt lat="54.3876600" lon="-1.2753800"/>
            <trkpt lat="54.3875700" lon="-1.2752500"/>
            <trkpt lat="54.3873000" lon="-1.2751700"/>
            <trkpt lat="54.3868200" lon="-1.2750800"/>
            <trkpt lat="54.3859700" lon="-1.2748500"/>
            <trkpt lat="54.3858400" lon="-1.2747900"/>
            <trkpt lat="54.3854000" lon="-1.2746900"/>
            <trkpt lat="54.3851300" lon="-1.2745800"/>
            <trkpt lat="54.3848600" lon="-1.2744200"/>
            <trkpt lat="54.3842600" lon="-1.2739300"/>
            <trkpt lat="54.3841300" lon="-1.2739100"/>
            <trkpt lat="54.3839400" lon="-1.2737900"/>
            <trkpt lat="54.3834900" lon="-1.2735700"/>
            <trkpt lat="54.3828300" lon="-1.2733000"/>
            <trkpt lat="54.3813100" lon="-1.2728200"/>
            <trkpt lat="54.3807900" lon="-1.2726800"/>
            <trkpt lat="54.3804500" lon="-1.2727100"/>
            <trkpt lat="54.3802000" lon="-1.2727700"/>
            <trkpt lat="54.3793600" lon="-1.2731300"/>
            <trkpt lat="54.3788500" lon="-1.2733200"/>
            <trkpt lat="54.3780700" lon="-1.2734900"/>
            <trkpt lat="54.3778500" lon="-1.2735000"/>
            <trkpt lat="54.3761300" lon="-1.2737600"/>
            <trkpt lat="54.3756500" lon="-1.2738600"/>
            <trkpt lat="54.3754800" lon="-1.2739000"/>
            <trkpt lat="54.3755100" lon="-1.2742700"/>
            <trkpt lat="54.3754800" lon="-1.2747500"/>
            <trkpt lat="54.3756400" lon="-1.2753300"/>
            <trkpt lat="54.3760600" lon="-1.2764400"/>
            <trkpt lat="54.3769600" lon="-1.2791600"/>
            <trkpt lat="54.3773800" lon="-1.2810600"/>
            <trkpt lat="54.3774000" lon="-1.2813300"/>
            <trkpt lat="54.3769500" lon="-1.2815400"/>
            <trkpt lat="54.3752400" lon="-1.2824800"/>
            <trkpt lat="54.3745800" lon="-1.2829100"/>
            <trkpt lat="54.3746000" lon="-1.2833200"/>
            <trkpt lat="54.3745800" lon="-1.2829100"/>
            <trkpt lat="54.3739400" lon="-1.2832400"/>
            <trkpt lat="54.3730400" lon="-1.2838100"/>
            <trkpt lat="54.3725600" lon="-1.2840400"/>
            <trkpt lat="54.3718100" lon="-1.2844700"/>
            <trkpt lat="54.3697900" lon="-1.2855100"/>
            <trkpt lat="54.3692400" lon="-1.2857400"/>
            <trkpt lat="54.3687000" lon="-1.2858600"/>
            <trkpt lat="54.3681900" lon="-1.2859400"/>
            <trkpt lat="54.3678200" lon="-1.2860600"/>
            <trkpt lat="54.3666900" lon="-1.2862800"/>
            <trkpt lat="54.3661000" lon="-1.2864900"/>
            <trkpt lat="54.3657800" lon="-1.2865500"/>
            <trkpt lat="54.3646900" lon="-1.2868300"/>
            <trkpt lat="54.3645700" lon="-1.2868400"/>
            <trkpt lat="54.3646700" lon="-1.2866600"/>
            <trkpt lat="54.3648100" lon="-1.2861000"/>
            <trkpt lat="54.3647800" lon="-1.2860600"/>
            <trkpt lat="54.3646700" lon="-1.2859200"/>
            <trkpt lat="54.3638300" lon="-1.2843400"/>
            <trkpt lat="54.3635100" lon="-1.2838700"/>
            <trkpt lat="54.3630100" lon="-1.2831800"/>
            <trkpt lat="54.3628100" lon="-1.2828100"/>
            <trkpt lat="54.3626400" lon="-1.2826600"/>
            <trkpt lat="54.3624000" lon="-1.2825600"/>
            <trkpt lat="54.3621900" lon="-1.2824400"/>
            <trkpt lat="54.3618600" lon="-1.2820600"/>
            <trkpt lat="54.3616100" lon="-1.2818300"/>
            <trkpt lat="54.3611500" lon="-1.2816200"/>
            <trkpt lat="54.3611100" lon="-1.2815600"/>
            <trkpt lat="54.3607800" lon="-1.2808500"/>
            <trkpt lat="54.3605300" lon="-1.2805100"/>
            <trkpt lat="54.3603800" lon="-1.2802500"/>
            <trkpt lat="54.3603400" lon="-1.2801200"/>
            <trkpt lat="54.3602000" lon="-1.2794400"/>
            <trkpt lat="54.3600800" lon="-1.2789600"/>
            <trkpt lat="54.3594900" lon="-1.2775300"/>
            <trkpt lat="54.3594600" lon="-1.2773600"/>
            <trkpt lat="54.3594100" lon="-1.2767700"/>
            <trkpt lat="54.3593100" lon="-1.2753700"/>
            <trkpt lat="54.3593400" lon="-1.2750300"/>
            <trkpt lat="54.3593300" lon="-1.2749000"/>
            <trkpt lat="54.3592400" lon="-1.2745500"/>
            <trkpt lat="54.3590400" lon="-1.2740200"/>
            <trkpt lat="54.3587600" lon="-1.2729500"/>
            <trkpt lat="54.3586500" lon="-1.2723600"/>
            <trkpt lat="54.3585300" lon="-1.2713900"/>
            <trkpt lat="54.3583900" lon="-1.2713800"/>
            <trkpt lat="54.3582700" lon="-1.2713200"/>
            <trkpt lat="54.3581400" lon="-1.2710200"/>
            <trkpt lat="54.3581000" lon="-1.2709900"/>
            <trkpt lat="54.3580900" lon="-1.2709500"/>
            <trkpt lat="54.3581300" lon="-1.2708200"/>
            <trkpt lat="54.3581000" lon="-1.2707300"/>
            <trkpt lat="54.3580200" lon="-1.2706800"/>
            <trkpt lat="54.3579300" lon="-1.2704900"/>
            <trkpt lat="54.3579100" lon="-1.2703600"/>
            <trkpt lat="54.3578900" lon="-1.2697700"/>
            <trkpt lat="54.3579000" lon="-1.2696400"/>
            <trkpt lat="54.3578900" lon="-1.2695600"/>
            <trkpt lat="54.3579200" lon="-1.2695000"/>
            <trkpt lat="54.3579300" lon="-1.2693000"/>
            <trkpt lat="54.3579100" lon="-1.2691700"/>
            <trkpt lat="54.3579400" lon="-1.2689500"/>
            <trkpt lat="54.3578800" lon="-1.2686300"/>
            <trkpt lat="54.3578800" lon="-1.2685900"/>
            <trkpt lat="54.3579200" lon="-1.2684800"/>
            <trkpt lat="54.3579300" lon="-1.2684100"/>
            <trkpt lat="54.3578800" lon="-1.2683300"/>
            <trkpt lat="54.3576300" lon="-1.2680300"/>
            <trkpt lat="54.3574800" lon="-1.2677300"/>
            <trkpt lat="54.3574200" lon="-1.2675700"/>
            <trkpt lat="54.3573100" lon="-1.2668100"/>
            <trkpt lat="54.3571600" lon="-1.2661800"/>
            <trkpt lat="54.3571600" lon="-1.2659900"/>
            <trkpt lat="54.3571300" lon="-1.2658600"/>
            <trkpt lat="54.3569800" lon="-1.2653900"/>
            <trkpt lat="54.3569400" lon="-1.2651700"/>
            <trkpt lat="54.3568100" lon="-1.2647800"/>
            <trkpt lat="54.3566900" lon="-1.2645500"/>
            <trkpt lat="54.3566000" lon="-1.2641800"/>
            <trkpt lat="54.3564800" lon="-1.2639700"/>
            <trkpt lat="54.3565100" lon="-1.2638400"/>
            <trkpt lat="54.3565000" lon="-1.2637800"/>
        </trkseg>
    </trk>
</gpx>
