<?xml version="1.0" encoding="UTF-8" standalone="yes"?>
<gpx version="1.1" creator="OS Maps - Web" xmlns="http://www.topografix.com/GPX/1/1"
xmlns:xsi="http://www.w3.org/2001/XMLSchema-instance"
xsi:schemaLocation="http://www.topografix.com/GPX/1/1 http://www.topografix.com/GPX/1/1/gpx.xsd"
xmlns:gs="http://www.topografix.com/GPX/gpx_style/0/2"
xmlns:gh="https://graphhopper.com/public/schema/gpx/1.1"
xmlns:os="https://ordnancesurvey.co.uk/public/schema/route/0.1">
    <metadata>
        <name>Moor Gate-Bilsdale Mast-Ellers Wood</name>
        <desc></desc>
        <bounds minlat="54.3178900" minlon="-1.2086500" maxlat="54.3632800" maxlon="-1.1502300"/>
        <extensions>
            <os:version>2.0</os:version>
            <os:point lat="54.3179100" lon="-1.1716200" type="start"/>
            <os:point lat="54.3179200" lon="-1.1715100" type="end"/>
            <os:activity>ON_FOOT_WALKING</os:activity>
            <os:difficulty>UNKNOWN</os:difficulty>
            <os:paths/>
            <os:distance>16266.3263954</os:distance>
            <os:elevation_ascent>340.4000000</os:elevation_ascent>
            <os:route_type>SINGLE</os:route_type>
        </extensions>
    </metadata>
    <wpt lat="54.3179100" lon="-1.1716200"/>
    <wpt lat="54.3295100" lon="-1.1684400"/>
    <wpt lat="54.3402100" lon="-1.1666000"/>
    <wpt lat="54.3541500" lon="-1.1566400"/>
    <wpt lat="54.3563200" lon="-1.1537500"/>
    <wpt lat="54.3574200" lon="-1.1530000"/>
    <wpt lat="54.3581700" lon="-1.1502300"/>
    <wpt lat="54.3571700" lon="-1.1549300"/>
    <wpt lat="54.3571700" lon="-1.1571400"/>
    <wpt lat="54.3578900" lon="-1.1575900"/>
    <wpt lat="54.3577300" lon="-1.1584800"/>
    <wpt lat="54.3593800" lon="-1.1589600"/>
    <wpt lat="54.3597400" lon="-1.1599800"/>
    <wpt lat="54.3600800" lon="-1.1603600"/>
    <wpt lat="54.3632800" lon="-1.1620700"/>
    <wpt lat="54.3619300" lon="-1.1641900"/>
    <wpt lat="54.3598300" lon="-1.1685000"/>
    <wpt lat="54.3588300" lon="-1.1708400"/>
    <wpt lat="54.3579300" lon="-1.1737400"/>
    <wpt lat="54.3571000" lon="-1.1755000"/>
    <wpt lat="54.3540300" lon="-1.1808100"/>
    <wpt lat="54.3504200" lon="-1.1863200"/>
    <wpt lat="54.3471800" lon="-1.1890300"/>
    <wpt lat="54.3402100" lon="-1.1907200"/>
    <wpt lat="54.3383600" lon="-1.1915700"/>
    <wpt lat="54.3386600" lon="-1.1995000"/>
    <wpt lat="54.3404700" lon="-1.2085000"/>
    <wpt lat="54.3388700" lon="-1.2083800"/>
    <wpt lat="54.3360700" lon="-1.2075100"/>
    <wpt lat="54.3331000" lon="-1.2017800"/>
    <wpt lat="54.3313400" lon="-1.1958300"/>
    <wpt lat="54.3277600" lon="-1.1967300"/>
    <wpt lat="54.3254800" lon="-1.1946400"/>
    <wpt lat="54.3234900" lon="-1.1947000"/>
    <wpt lat="54.3275800" lon="-1.1848300"/>
    <wpt lat="54.3229300" lon="-1.1827000"/>
    <wpt lat="54.3180600" lon="-1.1723400"/>
    <wpt lat="54.3179200" lon="-1.1715100"/>
    <trk>
        <name>Moor Gate-Bilsdale Mast-Ellers Wood</name>
        <trkseg>
            <trkpt lat="54.3179100" lon="-1.1716200"/>
            <trkpt lat="54.3178900" lon="-1.1719300"/>
            <trkpt lat="54.3179400" lon="-1.1720000"/>
            <trkpt lat="54.3180200" lon="-1.1719500"/>
            <trkpt lat="54.3191700" lon="-1.1719700"/>
            <trkpt lat="54.3196900" lon="-1.1720200"/>
            <trkpt lat="54.3198200" lon="-1.1720000"/>
            <trkpt lat="54.3201100" lon="-1.1718300"/>
            <trkpt lat="54.3203500" lon="-1.1716200"/>
            <trkpt lat="54.3207200" lon="-1.1713900"/>
            <trkpt lat="54.3218200" lon="-1.1705800"/>
            <trkpt lat="54.3225300" lon="-1.1701900"/>
            <trkpt lat="54.3241300" lon="-1.1693600"/>
            <trkpt lat="54.3246600" lon="-1.1690500"/>
            <trkpt lat="54.3260500" lon="-1.1688800"/>
            <trkpt lat="54.3267000" lon="-1.1686100"/>
            <trkpt lat="54.3270100" lon="-1.1686200"/>
            <trkpt lat="54.3282300" lon="-1.1684500"/>
            <trkpt lat="54.3286200" lon="-1.1685200"/>
            <trkpt lat="54.3289000" lon="-1.1684400"/>
            <trkpt lat="54.3294200" lon="-1.1684300"/>
            <trkpt lat="54.3295100" lon="-1.1684400"/>
            <trkpt lat="54.3298700" lon="-1.1685100"/>
            <trkpt lat="54.3302400" lon="-1.1688300"/>
            <trkpt lat="54.3304300" lon="-1.1689400"/>
            <trkpt lat="54.3307600" lon="-1.1690600"/>
            <trkpt lat="54.3308700" lon="-1.1692700"/>
            <trkpt lat="54.3310400" lon="-1.1697200"/>
            <trkpt lat="54.3313600" lon="-1.1701800"/>
            <trkpt lat="54.3320000" lon="-1.1707000"/>
            <trkpt lat="54.3324600" lon="-1.1706700"/>
            <trkpt lat="54.3328200" lon="-1.1707400"/>
            <trkpt lat="54.3335200" lon="-1.1704200"/>
            <trkpt lat="54.3339600" lon="-1.1701300"/>
            <trkpt lat="54.3344800" lon="-1.1701000"/>
            <trkpt lat="54.3347700" lon="-1.1700100"/>
            <trkpt lat="54.3353800" lon="-1.1698700"/>
            <trkpt lat="54.3355100" lon="-1.1698600"/>
            <trkpt lat="54.3358800" lon="-1.1699300"/>
            <trkpt lat="54.3360100" lon="-1.1698600"/>
            <trkpt lat="54.3364600" lon="-1.1692200"/>
            <trkpt lat="54.3367000" lon="-1.1690300"/>
            <trkpt lat="54.3368300" lon="-1.1689600"/>
            <trkpt lat="54.3374400" lon="-1.1683700"/>
            <trkpt lat="54.3380900" lon="-1.1680200"/>
            <trkpt lat="54.3385400" lon="-1.1677400"/>
            <trkpt lat="54.3388700" lon="-1.1675900"/>
            <trkpt lat="54.3390000" lon="-1.1674400"/>
            <trkpt lat="54.3394200" lon="-1.1671400"/>
            <trkpt lat="54.3396700" lon="-1.1670400"/>
            <trkpt lat="54.3399800" lon="-1.1667100"/>
            <trkpt lat="54.3402100" lon="-1.1666000"/>
            <trkpt lat="54.3403200" lon="-1.1665600"/>
            <trkpt lat="54.3405200" lon="-1.1667100"/>
            <trkpt lat="54.3406200" lon="-1.1668400"/>
            <trkpt lat="54.3407000" lon="-1.1668800"/>
            <trkpt lat="54.3408600" lon="-1.1668700"/>
            <trkpt lat="54.3413300" lon="-1.1667600"/>
            <trkpt lat="54.3417100" lon="-1.1667200"/>
            <trkpt lat="54.3420200" lon="-1.1666000"/>
            <trkpt lat="54.3423100" lon="-1.1665300"/>
            <trkpt lat="54.3423900" lon="-1.1666300"/>
            <trkpt lat="54.3426900" lon="-1.1665800"/>
            <trkpt lat="54.3427200" lon="-1.1665700"/>
            <trkpt lat="54.3428000" lon="-1.1663500"/>
            <trkpt lat="54.3431800" lon="-1.1661900"/>
            <trkpt lat="54.3437000" lon="-1.1660700"/>
            <trkpt lat="54.3439200" lon="-1.1659700"/>
            <trkpt lat="54.3441400" lon="-1.1659000"/>
            <trkpt lat="54.3445400" lon="-1.1658600"/>
            <trkpt lat="54.3449700" lon="-1.1655700"/>
            <trkpt lat="54.3453500" lon="-1.1651000"/>
            <trkpt lat="54.3457600" lon="-1.1644400"/>
            <trkpt lat="54.3458200" lon="-1.1644000"/>
            <trkpt lat="54.3458500" lon="-1.1644500"/>
            <trkpt lat="54.3459800" lon="-1.1642800"/>
            <trkpt lat="54.3465000" lon="-1.1638300"/>
            <trkpt lat="54.3468000" lon="-1.1634900"/>
            <trkpt lat="54.3469800" lon="-1.1632400"/>
            <trkpt lat="54.3471300" lon="-1.1631000"/>
            <trkpt lat="54.3473100" lon="-1.1628700"/>
            <trkpt lat="54.3475600" lon="-1.1623900"/>
            <trkpt lat="54.3476600" lon="-1.1621400"/>
            <trkpt lat="54.3478800" lon="-1.1617400"/>
            <trkpt lat="54.3480300" lon="-1.1614000"/>
            <trkpt lat="54.3483200" lon="-1.1610200"/>
            <trkpt lat="54.3484900" lon="-1.1609000"/>
            <trkpt lat="54.3491500" lon="-1.1602900"/>
            <trkpt lat="54.3495600" lon="-1.1599800"/>
            <trkpt lat="54.3497500" lon="-1.1596500"/>
            <trkpt lat="54.3498600" lon="-1.1595500"/>
            <trkpt lat="54.3499700" lon="-1.1595000"/>
            <trkpt lat="54.3502300" lon="-1.1594300"/>
            <trkpt lat="54.3503500" lon="-1.1594800"/>
            <trkpt lat="54.3505100" lon="-1.1595900"/>
            <trkpt lat="54.3507000" lon="-1.1594300"/>
            <trkpt lat="54.3508100" lon="-1.1593000"/>
            <trkpt lat="54.3510100" lon="-1.1589800"/>
            <trkpt lat="54.3512900" lon="-1.1588700"/>
            <trkpt lat="54.3514800" lon="-1.1587000"/>
            <trkpt lat="54.3515800" lon="-1.1584000"/>
            <trkpt lat="54.3516500" lon="-1.1582800"/>
            <trkpt lat="54.3517700" lon="-1.1581800"/>
            <trkpt lat="54.3519300" lon="-1.1581100"/>
            <trkpt lat="54.3520900" lon="-1.1579700"/>
            <trkpt lat="54.3523600" lon="-1.1578100"/>
            <trkpt lat="54.3524500" lon="-1.1577100"/>
            <trkpt lat="54.3532800" lon="-1.1573600"/>
            <trkpt lat="54.3535300" lon="-1.1572200"/>
            <trkpt lat="54.3538300" lon="-1.1570000"/>
            <trkpt lat="54.3541500" lon="-1.1566400"/>
            <trkpt lat="54.3543800" lon="-1.1563600"/>
            <trkpt lat="54.3544600" lon="-1.1562400"/>
            <trkpt lat="54.3546400" lon="-1.1555300"/>
            <trkpt lat="54.3547000" lon="-1.1550900"/>
            <trkpt lat="54.3547300" lon="-1.1549700"/>
            <trkpt lat="54.3547700" lon="-1.1548900"/>
            <trkpt lat="54.3549000" lon="-1.1547700"/>
            <trkpt lat="54.3553000" lon="-1.1546100"/>
            <trkpt lat="54.3555200" lon="-1.1546700"/>
            <trkpt lat="54.3559000" lon="-1.1545900"/>
            <trkpt lat="54.3559900" lon="-1.1545000"/>
            <trkpt lat="54.3561800" lon="-1.1540600"/>
            <trkpt lat="54.3562000" lon="-1.1539300"/>
            <trkpt lat="54.3563200" lon="-1.1537500"/>
            <trkpt lat="54.3568500" lon="-1.1532800"/>
            <trkpt lat="54.3574200" lon="-1.1530000"/>
            <trkpt lat="54.3581700" lon="-1.1502300"/>
            <trkpt lat="54.3571700" lon="-1.1549300"/>
            <trkpt lat="54.3571000" lon="-1.1556700"/>
            <trkpt lat="54.3570600" lon="-1.1559200"/>
            <trkpt lat="54.3568800" lon="-1.1563900"/>
            <trkpt lat="54.3568500" lon="-1.1565400"/>
            <trkpt lat="54.3568500" lon="-1.1567100"/>
            <trkpt lat="54.3568800" lon="-1.1568200"/>
            <trkpt lat="54.3569300" lon="-1.1569100"/>
            <trkpt lat="54.3570400" lon="-1.1570300"/>
            <trkpt lat="54.3571700" lon="-1.1571400"/>
            <trkpt lat="54.3575500" lon="-1.1574400"/>
            <trkpt lat="54.3578900" lon="-1.1575900"/>
            <trkpt lat="54.3577300" lon="-1.1584800"/>
            <trkpt lat="54.3593800" lon="-1.1589600"/>
            <trkpt lat="54.3597400" lon="-1.1599800"/>
            <trkpt lat="54.3600800" lon="-1.1603600"/>
            <trkpt lat="54.3604800" lon="-1.1606400"/>
            <trkpt lat="54.3619700" lon="-1.1613600"/>
            <trkpt lat="54.3632800" lon="-1.1620700"/>
            <trkpt lat="54.3627500" lon="-1.1629800"/>
            <trkpt lat="54.3619300" lon="-1.1641900"/>
            <trkpt lat="54.3608300" lon="-1.1663900"/>
            <trkpt lat="54.3598300" lon="-1.1685000"/>
            <trkpt lat="54.3588300" lon="-1.1708400"/>
            <trkpt lat="54.3579300" lon="-1.1737400"/>
            <trkpt lat="54.3571000" lon="-1.1755000"/>
            <trkpt lat="54.3558800" lon="-1.1775300"/>
            <trkpt lat="54.3540300" lon="-1.1808100"/>
            <trkpt lat="54.3526600" lon="-1.1829500"/>
            <trkpt lat="54.3525700" lon="-1.1829700"/>
            <trkpt lat="54.3523000" lon="-1.1833800"/>
            <trkpt lat="54.3511300" lon="-1.1853000"/>
            <trkpt lat="54.3504200" lon="-1.1863200"/>
            <trkpt lat="54.3503400" lon="-1.1864400"/>
            <trkpt lat="54.3502200" lon="-1.1868000"/>
            <trkpt lat="54.3501600" lon="-1.1869300"/>
            <trkpt lat="54.3500500" lon="-1.1870500"/>
            <trkpt lat="54.3491000" lon="-1.1877300"/>
            <trkpt lat="54.3484500" lon="-1.1881200"/>
            <trkpt lat="54.3473500" lon="-1.1889400"/>
            <trkpt lat="54.3471800" lon="-1.1890300"/>
            <trkpt lat="54.3468300" lon="-1.1892300"/>
            <trkpt lat="54.3459800" lon="-1.1896300"/>
            <trkpt lat="54.3457000" lon="-1.1896800"/>
            <trkpt lat="54.3447700" lon="-1.1899300"/>
            <trkpt lat="54.3433000" lon="-1.1903600"/>
            <trkpt lat="54.3431200" lon="-1.1904300"/>
            <trkpt lat="54.3427000" lon="-1.1904700"/>
            <trkpt lat="54.3418600" lon="-1.1904600"/>
            <trkpt lat="54.3415100" lon="-1.1904100"/>
            <trkpt lat="54.3412500" lon="-1.1904300"/>
            <trkpt lat="54.3406500" lon="-1.1905700"/>
            <trkpt lat="54.3402100" lon="-1.1907200"/>
            <trkpt lat="54.3397900" lon="-1.1908400"/>
            <trkpt lat="54.3395700" lon="-1.1909500"/>
            <trkpt lat="54.3389600" lon="-1.1911400"/>
            <trkpt lat="54.3386100" lon="-1.1913100"/>
            <trkpt lat="54.3384500" lon="-1.1914600"/>
            <trkpt lat="54.3383600" lon="-1.1915700"/>
            <trkpt lat="54.3383100" lon="-1.1916400"/>
            <trkpt lat="54.3383900" lon="-1.1931000"/>
            <trkpt lat="54.3384200" lon="-1.1939900"/>
            <trkpt lat="54.3383200" lon="-1.1960500"/>
            <trkpt lat="54.3383200" lon="-1.1962700"/>
            <trkpt lat="54.3386600" lon="-1.1995000"/>
            <trkpt lat="54.3387600" lon="-1.1999200"/>
            <trkpt lat="54.3388300" lon="-1.2001300"/>
            <trkpt lat="54.3392400" lon="-1.2011400"/>
            <trkpt lat="54.3394800" lon="-1.2016800"/>
            <trkpt lat="54.3396000" lon="-1.2020700"/>
            <trkpt lat="54.3398700" lon="-1.2033600"/>
            <trkpt lat="54.3401500" lon="-1.2049900"/>
            <trkpt lat="54.3403000" lon="-1.2061200"/>
            <trkpt lat="54.3404100" lon="-1.2079400"/>
            <trkpt lat="54.3404700" lon="-1.2085000"/>
            <trkpt lat="54.3404600" lon="-1.2084600"/>
            <trkpt lat="54.3397800" lon="-1.2086500"/>
            <trkpt lat="54.3396200" lon="-1.2086000"/>
            <trkpt lat="54.3389600" lon="-1.2085600"/>
            <trkpt lat="54.3388900" lon="-1.2085800"/>
            <trkpt lat="54.3388700" lon="-1.2083800"/>
            <trkpt lat="54.3388900" lon="-1.2085800"/>
            <trkpt lat="54.3386800" lon="-1.2085600"/>
            <trkpt lat="54.3377700" lon="-1.2082200"/>
            <trkpt lat="54.3363000" lon="-1.2082000"/>
            <trkpt lat="54.3361400" lon="-1.2078600"/>
            <trkpt lat="54.3360600" lon="-1.2078800"/>
            <trkpt lat="54.3360700" lon="-1.2075100"/>
            <trkpt lat="54.3360600" lon="-1.2078800"/>
            <trkpt lat="54.3358000" lon="-1.2079500"/>
            <trkpt lat="54.3354600" lon="-1.2067400"/>
            <trkpt lat="54.3352200" lon="-1.2063100"/>
            <trkpt lat="54.3350700" lon="-1.2058600"/>
            <trkpt lat="54.3348600" lon="-1.2060800"/>
            <trkpt lat="54.3345800" lon="-1.2058300"/>
            <trkpt lat="54.3340500" lon="-1.2051000"/>
            <trkpt lat="54.3338600" lon="-1.2047000"/>
            <trkpt lat="54.3337000" lon="-1.2042500"/>
            <trkpt lat="54.3333900" lon="-1.2032600"/>
            <trkpt lat="54.3331000" lon="-1.2021200"/>
            <trkpt lat="54.3331000" lon="-1.2017800"/>
            <trkpt lat="54.3331100" lon="-1.1984800"/>
            <trkpt lat="54.3324400" lon="-1.1966700"/>
            <trkpt lat="54.3316800" lon="-1.1959700"/>
            <trkpt lat="54.3313400" lon="-1.1958300"/>
            <trkpt lat="54.3312000" lon="-1.1957700"/>
            <trkpt lat="54.3302100" lon="-1.1963700"/>
            <trkpt lat="54.3286000" lon="-1.1970100"/>
            <trkpt lat="54.3277600" lon="-1.1967300"/>
            <trkpt lat="54.3273500" lon="-1.1966200"/>
            <trkpt lat="54.3268200" lon="-1.1966700"/>
            <trkpt lat="54.3265500" lon="-1.1964700"/>
            <trkpt lat="54.3259400" lon="-1.1959300"/>
            <trkpt lat="54.3257900" lon="-1.1952900"/>
            <trkpt lat="54.3255700" lon="-1.1947300"/>
            <trkpt lat="54.3254800" lon="-1.1946400"/>
            <trkpt lat="54.3251900" lon="-1.1944900"/>
            <trkpt lat="54.3248700" lon="-1.1946800"/>
            <trkpt lat="54.3246000" lon="-1.1946900"/>
            <trkpt lat="54.3242300" lon="-1.1947800"/>
            <trkpt lat="54.3239400" lon="-1.1949000"/>
            <trkpt lat="54.3236700" lon="-1.1948400"/>
            <trkpt lat="54.3234900" lon="-1.1947000"/>
            <trkpt lat="54.3234200" lon="-1.1946400"/>
            <trkpt lat="54.3232200" lon="-1.1942500"/>
            <trkpt lat="54.3231500" lon="-1.1941500"/>
            <trkpt lat="54.3231100" lon="-1.1937300"/>
            <trkpt lat="54.3230800" lon="-1.1923800"/>
            <trkpt lat="54.3231000" lon="-1.1922200"/>
            <trkpt lat="54.3229700" lon="-1.1914300"/>
            <trkpt lat="54.3230200" lon="-1.1908600"/>
            <trkpt lat="54.3230100" lon="-1.1906000"/>
            <trkpt lat="54.3229700" lon="-1.1901700"/>
            <trkpt lat="54.3229400" lon="-1.1889700"/>
            <trkpt lat="54.3229100" lon="-1.1886300"/>
            <trkpt lat="54.3228600" lon="-1.1885300"/>
            <trkpt lat="54.3228500" lon="-1.1878300"/>
            <trkpt lat="54.3229900" lon="-1.1874500"/>
            <trkpt lat="54.3231700" lon="-1.1872700"/>
            <trkpt lat="54.3233400" lon="-1.1870300"/>
            <trkpt lat="54.3235600" lon="-1.1867700"/>
            <trkpt lat="54.3238000" lon="-1.1865300"/>
            <trkpt lat="54.3246000" lon="-1.1859100"/>
            <trkpt lat="54.3248200" lon="-1.1857100"/>
            <trkpt lat="54.3255600" lon="-1.1857800"/>
            <trkpt lat="54.3258300" lon="-1.1857600"/>
            <trkpt lat="54.3262400" lon="-1.1855700"/>
            <trkpt lat="54.3264700" lon="-1.1855700"/>
            <trkpt lat="54.3268400" lon="-1.1853300"/>
            <trkpt lat="54.3271900" lon="-1.1849200"/>
            <trkpt lat="54.3272500" lon="-1.1847900"/>
            <trkpt lat="54.3272600" lon="-1.1846200"/>
            <trkpt lat="54.3274100" lon="-1.1847000"/>
            <trkpt lat="54.3275800" lon="-1.1848300"/>
            <trkpt lat="54.3274100" lon="-1.1847000"/>
            <trkpt lat="54.3272600" lon="-1.1846200"/>
            <trkpt lat="54.3269400" lon="-1.1845300"/>
            <trkpt lat="54.3267000" lon="-1.1844200"/>
            <trkpt lat="54.3258100" lon="-1.1839800"/>
            <trkpt lat="54.3254900" lon="-1.1837800"/>
            <trkpt lat="54.3254100" lon="-1.1837600"/>
            <trkpt lat="54.3251100" lon="-1.1837600"/>
            <trkpt lat="54.3249600" lon="-1.1837200"/>
            <trkpt lat="54.3245400" lon="-1.1835000"/>
            <trkpt lat="54.3242200" lon="-1.1834200"/>
            <trkpt lat="54.3234800" lon="-1.1831700"/>
            <trkpt lat="54.3232300" lon="-1.1830200"/>
            <trkpt lat="54.3229300" lon="-1.1827000"/>
            <trkpt lat="54.3228000" lon="-1.1825400"/>
            <trkpt lat="54.3227000" lon="-1.1823400"/>
            <trkpt lat="54.3220000" lon="-1.1806200"/>
            <trkpt lat="54.3216500" lon="-1.1796900"/>
            <trkpt lat="54.3214400" lon="-1.1790700"/>
            <trkpt lat="54.3211500" lon="-1.1780400"/>
            <trkpt lat="54.3206900" lon="-1.1770200"/>
            <trkpt lat="54.3203300" lon="-1.1763600"/>
            <trkpt lat="54.3199800" lon="-1.1757800"/>
            <trkpt lat="54.3195500" lon="-1.1750100"/>
            <trkpt lat="54.3189700" lon="-1.1741200"/>
            <trkpt lat="54.3182700" lon="-1.1728900"/>
            <trkpt lat="54.3180600" lon="-1.1723400"/>
            <trkpt lat="54.3179400" lon="-1.1720000"/>
            <trkpt lat="54.3178900" lon="-1.1719300"/>
            <trkpt lat="54.3179200" lon="-1.1715100"/>
        </trkseg>
    </trk>
</gpx>
