<?xml version="1.0" encoding="UTF-8" standalone="yes"?>
<gpx version="1.1" creator="OS Maps - Web" xmlns="http://www.topografix.com/GPX/1/1"
xmlns:xsi="http://www.w3.org/2001/XMLSchema-instance"
xsi:schemaLocation="http://www.topografix.com/GPX/1/1 http://www.topografix.com/GPX/1/1/gpx.xsd"
xmlns:gs="http://www.topografix.com/GPX/gpx_style/0/2"
xmlns:gh="https://graphhopper.com/public/schema/gpx/1.1"
xmlns:os="https://ordnancesurvey.co.uk/public/schema/route/0.1">
    <metadata>
        <name>Lords Stones-Chop Gate-Green Howe</name>
        <desc></desc>
        <bounds minlat="54.3762500" minlon="-1.1978480" maxlat="54.4231790" maxlon="-1.1404190"/>
        <extensions>
            <os:version>2.0</os:version>
            <os:surface_types>
                <os:surface_type>4</os:surface_type>
            </os:surface_types>
            <os:point lat="54.4197200" lon="-1.1928000" type="start"/>
            <os:point lat="54.4195800" lon="-1.1928000" type="end"/>
            <os:activity>ON_FOOT_WALKING</os:activity>
            <os:difficulty>UNKNOWN</os:difficulty>
            <os:paths>
                <os:path start="0" end="2" type="plotted"/>
                <os:path start="3" end="67" type="routed"/>
            </os:paths>
            <os:distance>15340.2054301</os:distance>
            <os:elevation_ascent>538.3100000</os:elevation_ascent>
            <os:route_type>SINGLE</os:route_type>
        </extensions>
    </metadata>
    <wpt lat="54.4197200" lon="-1.1928000"/>
    <wpt lat="54.4205100" lon="-1.1934000"/>
    <wpt lat="54.4207193" lon="-1.1923172"/>
    <wpt lat="54.4227170" lon="-1.1594953"/>
    <wpt lat="54.4196202" lon="-1.1561765"/>
    <wpt lat="54.4051734" lon="-1.1472999"/>
    <wpt lat="54.3979429" lon="-1.1463126"/>
    <wpt lat="54.3867630" lon="-1.1404190"/>
    <wpt lat="54.3762501" lon="-1.1653094"/>
    <wpt lat="54.3823498" lon="-1.1766605"/>
    <wpt lat="54.3935125" lon="-1.1889555"/>
    <wpt lat="54.3980734" lon="-1.1962390"/>
    <wpt lat="54.4188000" lon="-1.1959000"/>
    <wpt lat="54.4195800" lon="-1.1928000"/>
    <trk>
        <name>Lords Stones-Chop Gate-Green Howe</name>
        <trkseg>
            <trkpt lat="54.4197200" lon="-1.1928000"/>
            <trkpt lat="54.4200500" lon="-1.1927900"/>
            <trkpt lat="54.4200600" lon="-1.1928600"/>
            <trkpt lat="54.4200600" lon="-1.1931700"/>
            <trkpt lat="54.4202900" lon="-1.1932000"/>
            <trkpt lat="54.4205100" lon="-1.1934000"/>
            <trkpt lat="54.4207193" lon="-1.1923172"/>
            <trkpt lat="54.4207190" lon="-1.1923170"/>
            <trkpt lat="54.4207960" lon="-1.1920540"/>
            <trkpt lat="54.4208240" lon="-1.1918970"/>
            <trkpt lat="54.4209540" lon="-1.1883020"/>
            <trkpt lat="54.4207950" lon="-1.1860650"/>
            <trkpt lat="54.4207510" lon="-1.1850450"/>
            <trkpt lat="54.4207860" lon="-1.1847590"/>
            <trkpt lat="54.4208930" lon="-1.1842690"/>
            <trkpt lat="54.4209850" lon="-1.1832940"/>
            <trkpt lat="54.4210710" lon="-1.1829050"/>
            <trkpt lat="54.4212890" lon="-1.1824130"/>
            <trkpt lat="54.4214160" lon="-1.1820660"/>
            <trkpt lat="54.4215890" lon="-1.1814320"/>
            <trkpt lat="54.4216410" lon="-1.1813030"/>
            <trkpt lat="54.4216930" lon="-1.1810030"/>
            <trkpt lat="54.4217850" lon="-1.1807470"/>
            <trkpt lat="54.4218890" lon="-1.1802740"/>
            <trkpt lat="54.4219280" lon="-1.1801970"/>
            <trkpt lat="54.4219280" lon="-1.1801000"/>
            <trkpt lat="54.4219480" lon="-1.1800020"/>
            <trkpt lat="54.4219460" lon="-1.1798560"/>
            <trkpt lat="54.4220160" lon="-1.1793020"/>
            <trkpt lat="54.4220760" lon="-1.1790570"/>
            <trkpt lat="54.4221260" lon="-1.1789460"/>
            <trkpt lat="54.4223440" lon="-1.1786580"/>
            <trkpt lat="54.4224730" lon="-1.1783600"/>
            <trkpt lat="54.4225950" lon="-1.1779850"/>
            <trkpt lat="54.4226730" lon="-1.1775640"/>
            <trkpt lat="54.4228090" lon="-1.1773250"/>
            <trkpt lat="54.4228680" lon="-1.1771000"/>
            <trkpt lat="54.4228540" lon="-1.1770140"/>
            <trkpt lat="54.4228110" lon="-1.1769350"/>
            <trkpt lat="54.4219770" lon="-1.1759090"/>
            <trkpt lat="54.4217110" lon="-1.1755130"/>
            <trkpt lat="54.4216510" lon="-1.1753600"/>
            <trkpt lat="54.4214950" lon="-1.1750840"/>
            <trkpt lat="54.4214770" lon="-1.1748900"/>
            <trkpt lat="54.4214430" lon="-1.1747670"/>
            <trkpt lat="54.4213230" lon="-1.1745010"/>
            <trkpt lat="54.4211810" lon="-1.1742480"/>
            <trkpt lat="54.4209690" lon="-1.1736050"/>
            <trkpt lat="54.4209460" lon="-1.1734390"/>
            <trkpt lat="54.4209420" lon="-1.1729380"/>
            <trkpt lat="54.4208750" lon="-1.1722690"/>
            <trkpt lat="54.4209290" lon="-1.1721600"/>
            <trkpt lat="54.4209920" lon="-1.1716050"/>
            <trkpt lat="54.4210010" lon="-1.1713040"/>
            <trkpt lat="54.4210400" lon="-1.1709660"/>
            <trkpt lat="54.4210460" lon="-1.1705580"/>
            <trkpt lat="54.4210750" lon="-1.1701150"/>
            <trkpt lat="54.4210670" lon="-1.1697580"/>
            <trkpt lat="54.4210040" lon="-1.1692950"/>
            <trkpt lat="54.4209950" lon="-1.1689860"/>
            <trkpt lat="54.4210630" lon="-1.1686150"/>
            <trkpt lat="54.4211130" lon="-1.1682300"/>
            <trkpt lat="54.4211220" lon="-1.1678740"/>
            <trkpt lat="54.4211940" lon="-1.1670750"/>
            <trkpt lat="54.4212860" lon="-1.1666130"/>
            <trkpt lat="54.4213370" lon="-1.1665050"/>
            <trkpt lat="54.4214200" lon="-1.1664140"/>
            <trkpt lat="54.4215940" lon="-1.1661080"/>
            <trkpt lat="54.4216730" lon="-1.1660090"/>
            <trkpt lat="54.4219190" lon="-1.1658250"/>
            <trkpt lat="54.4221130" lon="-1.1654870"/>
            <trkpt lat="54.4222000" lon="-1.1652700"/>
            <trkpt lat="54.4222240" lon="-1.1652520"/>
            <trkpt lat="54.4222700" lon="-1.1650910"/>
            <trkpt lat="54.4223020" lon="-1.1648830"/>
            <trkpt lat="54.4222960" lon="-1.1648550"/>
            <trkpt lat="54.4223570" lon="-1.1645890"/>
            <trkpt lat="54.4224000" lon="-1.1644920"/>
            <trkpt lat="54.4224370" lon="-1.1644530"/>
            <trkpt lat="54.4225110" lon="-1.1644390"/>
            <trkpt lat="54.4225450" lon="-1.1643380"/>
            <trkpt lat="54.4226240" lon="-1.1642580"/>
            <trkpt lat="54.4226870" lon="-1.1641290"/>
            <trkpt lat="54.4226910" lon="-1.1640670"/>
            <trkpt lat="54.4228910" lon="-1.1632800"/>
            <trkpt lat="54.4230950" lon="-1.1626630"/>
            <trkpt lat="54.4231790" lon="-1.1620660"/>
            <trkpt lat="54.4231770" lon="-1.1619000"/>
            <trkpt lat="54.4231400" lon="-1.1615990"/>
            <trkpt lat="54.4230740" lon="-1.1612260"/>
            <trkpt lat="54.4230660" lon="-1.1609380"/>
            <trkpt lat="54.4230840" lon="-1.1603320"/>
            <trkpt lat="54.4230730" lon="-1.1602630"/>
            <trkpt lat="54.4229650" lon="-1.1599910"/>
            <trkpt lat="54.4228740" lon="-1.1598310"/>
            <trkpt lat="54.4227160" lon="-1.1596520"/>
            <trkpt lat="54.4227130" lon="-1.1595360"/>
            <trkpt lat="54.4227170" lon="-1.1594953"/>
            <trkpt lat="54.4227440" lon="-1.1592110"/>
            <trkpt lat="54.4219350" lon="-1.1586350"/>
            <trkpt lat="54.4214520" lon="-1.1581980"/>
            <trkpt lat="54.4212670" lon="-1.1577330"/>
            <trkpt lat="54.4207370" lon="-1.1569220"/>
            <trkpt lat="54.4201450" lon="-1.1564020"/>
            <trkpt lat="54.4200200" lon="-1.1563260"/>
            <trkpt lat="54.4196270" lon="-1.1561950"/>
            <trkpt lat="54.4196202" lon="-1.1561765"/>
            <trkpt lat="54.4192780" lon="-1.1551660"/>
            <trkpt lat="54.4192060" lon="-1.1549840"/>
            <trkpt lat="54.4191260" lon="-1.1546150"/>
            <trkpt lat="54.4190940" lon="-1.1545660"/>
            <trkpt lat="54.4186140" lon="-1.1542370"/>
            <trkpt lat="54.4180550" lon="-1.1540700"/>
            <trkpt lat="54.4176410" lon="-1.1539920"/>
            <trkpt lat="54.4171620" lon="-1.1538240"/>
            <trkpt lat="54.4169680" lon="-1.1537030"/>
            <trkpt lat="54.4167000" lon="-1.1536200"/>
            <trkpt lat="54.4159190" lon="-1.1530050"/>
            <trkpt lat="54.4156990" lon="-1.1528000"/>
            <trkpt lat="54.4156120" lon="-1.1526870"/>
            <trkpt lat="54.4155080" lon="-1.1526290"/>
            <trkpt lat="54.4153810" lon="-1.1523610"/>
            <trkpt lat="54.4146710" lon="-1.1520790"/>
            <trkpt lat="54.4143110" lon="-1.1518380"/>
            <trkpt lat="54.4140950" lon="-1.1516580"/>
            <trkpt lat="54.4138760" lon="-1.1516690"/>
            <trkpt lat="54.4135490" lon="-1.1516060"/>
            <trkpt lat="54.4132410" lon="-1.1513750"/>
            <trkpt lat="54.4121650" lon="-1.1509670"/>
            <trkpt lat="54.4114930" lon="-1.1507920"/>
            <trkpt lat="54.4107460" lon="-1.1504930"/>
            <trkpt lat="54.4099020" lon="-1.1501010"/>
            <trkpt lat="54.4084450" lon="-1.1496670"/>
            <trkpt lat="54.4078710" lon="-1.1494380"/>
            <trkpt lat="54.4072800" lon="-1.1491120"/>
            <trkpt lat="54.4065720" lon="-1.1490910"/>
            <trkpt lat="54.4061390" lon="-1.1487280"/>
            <trkpt lat="54.4059770" lon="-1.1485380"/>
            <trkpt lat="54.4052730" lon="-1.1474410"/>
            <trkpt lat="54.4051734" lon="-1.1472999"/>
            <trkpt lat="54.4049740" lon="-1.1470180"/>
            <trkpt lat="54.4044410" lon="-1.1464040"/>
            <trkpt lat="54.4037920" lon="-1.1461090"/>
            <trkpt lat="54.4031950" lon="-1.1462030"/>
            <trkpt lat="54.4030020" lon="-1.1462070"/>
            <trkpt lat="54.4025980" lon="-1.1459930"/>
            <trkpt lat="54.4025160" lon="-1.1460040"/>
            <trkpt lat="54.4019750" lon="-1.1462030"/>
            <trkpt lat="54.4012950" lon="-1.1459820"/>
            <trkpt lat="54.4006790" lon="-1.1461290"/>
            <trkpt lat="54.3999540" lon="-1.1462330"/>
            <trkpt lat="54.3997860" lon="-1.1463020"/>
            <trkpt lat="54.3993890" lon="-1.1463610"/>
            <trkpt lat="54.3986810" lon="-1.1464010"/>
            <trkpt lat="54.3979429" lon="-1.1463126"/>
            <trkpt lat="54.3977720" lon="-1.1462900"/>
            <trkpt lat="54.3971980" lon="-1.1461070"/>
            <trkpt lat="54.3968880" lon="-1.1461280"/>
            <trkpt lat="54.3967330" lon="-1.1459660"/>
            <trkpt lat="54.3965850" lon="-1.1457530"/>
            <trkpt lat="54.3965450" lon="-1.1456690"/>
            <trkpt lat="54.3965310" lon="-1.1455630"/>
            <trkpt lat="54.3965010" lon="-1.1454650"/>
            <trkpt lat="54.3956450" lon="-1.1443970"/>
            <trkpt lat="54.3954570" lon="-1.1441320"/>
            <trkpt lat="54.3947950" lon="-1.1435900"/>
            <trkpt lat="54.3936280" lon="-1.1426880"/>
            <trkpt lat="54.3935190" lon="-1.1425690"/>
            <trkpt lat="54.3932030" lon="-1.1421420"/>
            <trkpt lat="54.3931090" lon="-1.1420610"/>
            <trkpt lat="54.3925060" lon="-1.1417220"/>
            <trkpt lat="54.3924060" lon="-1.1416180"/>
            <trkpt lat="54.3920830" lon="-1.1413970"/>
            <trkpt lat="54.3914520" lon="-1.1408050"/>
            <trkpt lat="54.3913030" lon="-1.1407220"/>
            <trkpt lat="54.3911660" lon="-1.1407090"/>
            <trkpt lat="54.3910170" lon="-1.1407330"/>
            <trkpt lat="54.3908000" lon="-1.1408070"/>
            <trkpt lat="54.3906150" lon="-1.1409320"/>
            <trkpt lat="54.3905410" lon="-1.1409430"/>
            <trkpt lat="54.3905590" lon="-1.1408780"/>
            <trkpt lat="54.3905620" lon="-1.1407140"/>
            <trkpt lat="54.3905230" lon="-1.1406230"/>
            <trkpt lat="54.3903250" lon="-1.1407720"/>
            <trkpt lat="54.3901560" lon="-1.1408010"/>
            <trkpt lat="54.3896550" lon="-1.1408020"/>
            <trkpt lat="54.3890430" lon="-1.1410130"/>
            <trkpt lat="54.3888130" lon="-1.1410650"/>
            <trkpt lat="54.3885610" lon="-1.1410640"/>
            <trkpt lat="54.3883220" lon="-1.1410280"/>
            <trkpt lat="54.3880460" lon="-1.1409460"/>
            <trkpt lat="54.3869670" lon="-1.1405840"/>
            <trkpt lat="54.3868340" lon="-1.1404990"/>
            <trkpt lat="54.3867630" lon="-1.1404190"/>
            <trkpt lat="54.3868340" lon="-1.1404990"/>
            <trkpt lat="54.3867200" lon="-1.1407640"/>
            <trkpt lat="54.3863640" lon="-1.1408340"/>
            <trkpt lat="54.3862490" lon="-1.1410470"/>
            <trkpt lat="54.3862100" lon="-1.1412340"/>
            <trkpt lat="54.3860970" lon="-1.1413230"/>
            <trkpt lat="54.3857300" lon="-1.1417430"/>
            <trkpt lat="54.3852970" lon="-1.1421420"/>
            <trkpt lat="54.3852370" lon="-1.1422250"/>
            <trkpt lat="54.3852050" lon="-1.1423240"/>
            <trkpt lat="54.3852100" lon="-1.1424220"/>
            <trkpt lat="54.3851870" lon="-1.1425480"/>
            <trkpt lat="54.3852170" lon="-1.1429030"/>
            <trkpt lat="54.3851940" lon="-1.1431290"/>
            <trkpt lat="54.3851380" lon="-1.1432060"/>
            <trkpt lat="54.3849040" lon="-1.1432740"/>
            <trkpt lat="54.3847550" lon="-1.1434580"/>
            <trkpt lat="54.3846450" lon="-1.1436570"/>
            <trkpt lat="54.3845850" lon="-1.1438110"/>
            <trkpt lat="54.3845560" lon="-1.1439500"/>
            <trkpt lat="54.3845150" lon="-1.1445680"/>
            <trkpt lat="54.3845480" lon="-1.1445710"/>
            <trkpt lat="54.3845260" lon="-1.1451000"/>
            <trkpt lat="54.3845650" lon="-1.1451480"/>
            <trkpt lat="54.3845790" lon="-1.1452270"/>
            <trkpt lat="54.3845740" lon="-1.1453200"/>
            <trkpt lat="54.3845480" lon="-1.1453540"/>
            <trkpt lat="54.3844890" lon="-1.1455410"/>
            <trkpt lat="54.3842670" lon="-1.1460330"/>
            <trkpt lat="54.3840780" lon="-1.1463650"/>
            <trkpt lat="54.3839050" lon="-1.1467200"/>
            <trkpt lat="54.3836970" lon="-1.1472430"/>
            <trkpt lat="54.3834980" lon="-1.1480300"/>
            <trkpt lat="54.3833740" lon="-1.1482190"/>
            <trkpt lat="54.3832800" lon="-1.1482650"/>
            <trkpt lat="54.3831930" lon="-1.1483940"/>
            <trkpt lat="54.3831390" lon="-1.1485930"/>
            <trkpt lat="54.3830970" lon="-1.1486930"/>
            <trkpt lat="54.3830090" lon="-1.1488110"/>
            <trkpt lat="54.3829540" lon="-1.1488280"/>
            <trkpt lat="54.3826800" lon="-1.1487590"/>
            <trkpt lat="54.3825860" lon="-1.1487720"/>
            <trkpt lat="54.3825370" lon="-1.1488040"/>
            <trkpt lat="54.3824400" lon="-1.1489310"/>
            <trkpt lat="54.3823460" lon="-1.1490990"/>
            <trkpt lat="54.3821290" lon="-1.1493130"/>
            <trkpt lat="54.3817910" lon="-1.1498340"/>
            <trkpt lat="54.3813470" lon="-1.1505760"/>
            <trkpt lat="54.3812200" lon="-1.1507550"/>
            <trkpt lat="54.3810980" lon="-1.1510330"/>
            <trkpt lat="54.3810570" lon="-1.1511670"/>
            <trkpt lat="54.3810630" lon="-1.1514360"/>
            <trkpt lat="54.3810450" lon="-1.1516540"/>
            <trkpt lat="54.3809760" lon="-1.1521340"/>
            <trkpt lat="54.3808650" lon="-1.1526850"/>
            <trkpt lat="54.3807630" lon="-1.1535380"/>
            <trkpt lat="54.3806350" lon="-1.1541760"/>
            <trkpt lat="54.3805890" lon="-1.1543220"/>
            <trkpt lat="54.3800900" lon="-1.1568070"/>
            <trkpt lat="54.3800050" lon="-1.1573710"/>
            <trkpt lat="54.3799070" lon="-1.1581660"/>
            <trkpt lat="54.3798330" lon="-1.1589150"/>
            <trkpt lat="54.3797210" lon="-1.1593620"/>
            <trkpt lat="54.3795970" lon="-1.1597180"/>
            <trkpt lat="54.3794170" lon="-1.1601230"/>
            <trkpt lat="54.3792170" lon="-1.1606350"/>
            <trkpt lat="54.3790630" lon="-1.1609690"/>
            <trkpt lat="54.3787470" lon="-1.1615060"/>
            <trkpt lat="54.3783020" lon="-1.1621160"/>
            <trkpt lat="54.3779540" lon="-1.1625140"/>
            <trkpt lat="54.3777140" lon="-1.1627310"/>
            <trkpt lat="54.3775090" lon="-1.1630110"/>
            <trkpt lat="54.3771590" lon="-1.1635880"/>
            <trkpt lat="54.3768650" lon="-1.1642150"/>
            <trkpt lat="54.3762740" lon="-1.1652380"/>
            <trkpt lat="54.3762500" lon="-1.1653090"/>
            <trkpt lat="54.3762501" lon="-1.1653094"/>
            <trkpt lat="54.3762740" lon="-1.1652380"/>
            <trkpt lat="54.3767920" lon="-1.1655160"/>
            <trkpt lat="54.3770590" lon="-1.1657100"/>
            <trkpt lat="54.3771030" lon="-1.1657970"/>
            <trkpt lat="54.3771220" lon="-1.1658930"/>
            <trkpt lat="54.3771370" lon="-1.1663080"/>
            <trkpt lat="54.3771160" lon="-1.1668370"/>
            <trkpt lat="54.3771810" lon="-1.1670300"/>
            <trkpt lat="54.3777990" lon="-1.1677220"/>
            <trkpt lat="54.3779750" lon="-1.1678890"/>
            <trkpt lat="54.3789060" lon="-1.1685710"/>
            <trkpt lat="54.3793080" lon="-1.1689110"/>
            <trkpt lat="54.3793530" lon="-1.1689910"/>
            <trkpt lat="54.3794250" lon="-1.1692380"/>
            <trkpt lat="54.3795760" lon="-1.1698780"/>
            <trkpt lat="54.3796370" lon="-1.1700030"/>
            <trkpt lat="54.3797190" lon="-1.1700660"/>
            <trkpt lat="54.3802100" lon="-1.1699410"/>
            <trkpt lat="54.3802920" lon="-1.1699340"/>
            <trkpt lat="54.3803840" lon="-1.1699750"/>
            <trkpt lat="54.3804980" lon="-1.1701110"/>
            <trkpt lat="54.3811530" lon="-1.1711170"/>
            <trkpt lat="54.3813040" lon="-1.1713140"/>
            <trkpt lat="54.3815360" lon="-1.1716680"/>
            <trkpt lat="54.3816360" lon="-1.1718650"/>
            <trkpt lat="54.3817250" lon="-1.1721190"/>
            <trkpt lat="54.3817780" lon="-1.1723970"/>
            <trkpt lat="54.3817730" lon="-1.1729540"/>
            <trkpt lat="54.3817240" lon="-1.1741350"/>
            <trkpt lat="54.3819310" lon="-1.1746120"/>
            <trkpt lat="54.3821510" lon="-1.1749660"/>
            <trkpt lat="54.3822840" lon="-1.1754070"/>
            <trkpt lat="54.3823140" lon="-1.1755660"/>
            <trkpt lat="54.3823250" lon="-1.1760880"/>
            <trkpt lat="54.3823020" lon="-1.1765850"/>
            <trkpt lat="54.3823160" lon="-1.1765880"/>
            <trkpt lat="54.3823498" lon="-1.1766605"/>
            <trkpt lat="54.3824160" lon="-1.1767830"/>
            <trkpt lat="54.3826720" lon="-1.1768190"/>
            <trkpt lat="54.3829110" lon="-1.1770210"/>
            <trkpt lat="54.3831360" lon="-1.1773440"/>
            <trkpt lat="54.3836940" lon="-1.1783440"/>
            <trkpt lat="54.3839290" lon="-1.1788450"/>
            <trkpt lat="54.3843370" lon="-1.1798420"/>
            <trkpt lat="54.3844440" lon="-1.1801480"/>
            <trkpt lat="54.3845230" lon="-1.1804550"/>
            <trkpt lat="54.3846310" lon="-1.1813530"/>
            <trkpt lat="54.3846930" lon="-1.1815930"/>
            <trkpt lat="54.3847550" lon="-1.1817600"/>
            <trkpt lat="54.3849900" lon="-1.1821040"/>
            <trkpt lat="54.3856590" lon="-1.1828350"/>
            <trkpt lat="54.3862140" lon="-1.1833950"/>
            <trkpt lat="54.3863220" lon="-1.1835420"/>
            <trkpt lat="54.3864650" lon="-1.1838370"/>
            <trkpt lat="54.3866190" lon="-1.1842380"/>
            <trkpt lat="54.3866860" lon="-1.1844860"/>
            <trkpt lat="54.3868380" lon="-1.1852130"/>
            <trkpt lat="54.3869480" lon="-1.1854220"/>
            <trkpt lat="54.3874530" lon="-1.1856350"/>
            <trkpt lat="54.3884890" lon="-1.1862560"/>
            <trkpt lat="54.3899180" lon="-1.1872380"/>
            <trkpt lat="54.3904040" lon="-1.1875050"/>
            <trkpt lat="54.3906470" lon="-1.1875690"/>
            <trkpt lat="54.3910000" lon="-1.1875820"/>
            <trkpt lat="54.3911760" lon="-1.1876370"/>
            <trkpt lat="54.3921920" lon="-1.1881610"/>
            <trkpt lat="54.3934560" lon="-1.1887740"/>
            <trkpt lat="54.3934780" lon="-1.1888810"/>
            <trkpt lat="54.3935125" lon="-1.1889555"/>
            <trkpt lat="54.3936510" lon="-1.1892540"/>
            <trkpt lat="54.3937410" lon="-1.1895200"/>
            <trkpt lat="54.3937060" lon="-1.1895940"/>
            <trkpt lat="54.3939240" lon="-1.1899400"/>
            <trkpt lat="54.3940740" lon="-1.1904920"/>
            <trkpt lat="54.3942480" lon="-1.1912350"/>
            <trkpt lat="54.3943240" lon="-1.1914930"/>
            <trkpt lat="54.3945940" lon="-1.1920560"/>
            <trkpt lat="54.3945980" lon="-1.1926360"/>
            <trkpt lat="54.3947420" lon="-1.1928010"/>
            <trkpt lat="54.3948640" lon="-1.1929050"/>
            <trkpt lat="54.3949460" lon="-1.1930290"/>
            <trkpt lat="54.3949700" lon="-1.1931150"/>
            <trkpt lat="54.3950030" lon="-1.1933760"/>
            <trkpt lat="54.3950780" lon="-1.1937700"/>
            <trkpt lat="54.3951380" lon="-1.1939380"/>
            <trkpt lat="54.3954340" lon="-1.1945610"/>
            <trkpt lat="54.3957220" lon="-1.1951000"/>
            <trkpt lat="54.3958730" lon="-1.1952370"/>
            <trkpt lat="54.3960390" lon="-1.1952750"/>
            <trkpt lat="54.3961090" lon="-1.1952650"/>
            <trkpt lat="54.3962450" lon="-1.1951990"/>
            <trkpt lat="54.3967450" lon="-1.1955010"/>
            <trkpt lat="54.3973350" lon="-1.1956380"/>
            <trkpt lat="54.3974920" lon="-1.1956340"/>
            <trkpt lat="54.3977900" lon="-1.1958670"/>
            <trkpt lat="54.3980734" lon="-1.1962390"/>
            <trkpt lat="54.3981610" lon="-1.1963540"/>
            <trkpt lat="54.3989360" lon="-1.1967050"/>
            <trkpt lat="54.3990690" lon="-1.1968240"/>
            <trkpt lat="54.3993340" lon="-1.1968950"/>
            <trkpt lat="54.3996450" lon="-1.1968350"/>
            <trkpt lat="54.4002480" lon="-1.1970380"/>
            <trkpt lat="54.4006660" lon="-1.1971190"/>
            <trkpt lat="54.4009340" lon="-1.1972510"/>
            <trkpt lat="54.4010080" lon="-1.1972620"/>
            <trkpt lat="54.4012270" lon="-1.1971730"/>
            <trkpt lat="54.4014420" lon="-1.1971490"/>
            <trkpt lat="54.4016110" lon="-1.1970470"/>
            <trkpt lat="54.4018180" lon="-1.1969920"/>
            <trkpt lat="54.4019330" lon="-1.1968790"/>
            <trkpt lat="54.4022560" lon="-1.1964620"/>
            <trkpt lat="54.4024970" lon="-1.1961910"/>
            <trkpt lat="54.4026550" lon="-1.1960800"/>
            <trkpt lat="54.4029900" lon="-1.1959150"/>
            <trkpt lat="54.4031490" lon="-1.1958760"/>
            <trkpt lat="54.4036790" lon="-1.1958400"/>
            <trkpt lat="54.4043910" lon="-1.1958780"/>
            <trkpt lat="54.4049330" lon="-1.1957910"/>
            <trkpt lat="54.4050310" lon="-1.1958120"/>
            <trkpt lat="54.4051770" lon="-1.1958950"/>
            <trkpt lat="54.4054139" lon="-1.1959796"/>
            <trkpt lat="54.4057430" lon="-1.1962320"/>
            <trkpt lat="54.4058470" lon="-1.1963870"/>
            <trkpt lat="54.4060890" lon="-1.1965300"/>
            <trkpt lat="54.4068550" lon="-1.1972000"/>
            <trkpt lat="54.4068660" lon="-1.1971760"/>
            <trkpt lat="54.4071260" lon="-1.1971520"/>
            <trkpt lat="54.4071980" lon="-1.1971210"/>
            <trkpt lat="54.4083820" lon="-1.1973720"/>
            <trkpt lat="54.4086860" lon="-1.1974880"/>
            <trkpt lat="54.4088430" lon="-1.1974970"/>
            <trkpt lat="54.4093670" lon="-1.1977240"/>
            <trkpt lat="54.4096410" lon="-1.1976400"/>
            <trkpt lat="54.4098700" lon="-1.1977260"/>
            <trkpt lat="54.4100530" lon="-1.1978480"/>
            <trkpt lat="54.4102180" lon="-1.1978160"/>
            <trkpt lat="54.4109500" lon="-1.1978020"/>
            <trkpt lat="54.4113530" lon="-1.1976020"/>
            <trkpt lat="54.4119170" lon="-1.1972680"/>
            <trkpt lat="54.4119970" lon="-1.1972600"/>
            <trkpt lat="54.4125760" lon="-1.1974020"/>
            <trkpt lat="54.4126450" lon="-1.1973280"/>
            <trkpt lat="54.4138710" lon="-1.1967530"/>
            <trkpt lat="54.4139800" lon="-1.1967350"/>
            <trkpt lat="54.4145330" lon="-1.1968230"/>
            <trkpt lat="54.4150080" lon="-1.1969980"/>
            <trkpt lat="54.4156450" lon="-1.1970990"/>
            <trkpt lat="54.4158380" lon="-1.1970940"/>
            <trkpt lat="54.4164960" lon="-1.1967030"/>
            <trkpt lat="54.4168570" lon="-1.1964170"/>
            <trkpt lat="54.4171330" lon="-1.1962850"/>
            <trkpt lat="54.4173120" lon="-1.1962980"/>
            <trkpt lat="54.4175810" lon="-1.1964110"/>
            <trkpt lat="54.4176410" lon="-1.1964080"/>
            <trkpt lat="54.4177020" lon="-1.1963670"/>
            <trkpt lat="54.4179520" lon="-1.1959960"/>
            <trkpt lat="54.4181140" lon="-1.1958270"/>
            <trkpt lat="54.4181960" lon="-1.1957990"/>
            <trkpt lat="54.4185540" lon="-1.1958020"/>
            <trkpt lat="54.4187100" lon="-1.1958380"/>
            <trkpt lat="54.4188000" lon="-1.1959000"/>
            <trkpt lat="54.4186400" lon="-1.1958200"/>
            <trkpt lat="54.4187600" lon="-1.1956200"/>
            <trkpt lat="54.4189700" lon="-1.1953700"/>
            <trkpt lat="54.4190400" lon="-1.1952300"/>
            <trkpt lat="54.4191200" lon="-1.1951500"/>
            <trkpt lat="54.4193000" lon="-1.1950500"/>
            <trkpt lat="54.4195600" lon="-1.1947300"/>
            <trkpt lat="54.4195100" lon="-1.1944900"/>
            <trkpt lat="54.4194500" lon="-1.1934300"/>
            <trkpt lat="54.4194600" lon="-1.1932200"/>
            <trkpt lat="54.4195000" lon="-1.1931100"/>
            <trkpt lat="54.4194400" lon="-1.1930300"/>
            <trkpt lat="54.4194800" lon="-1.1929300"/>
            <trkpt lat="54.4194900" lon="-1.1928600"/>
            <trkpt lat="54.4195200" lon="-1.1928000"/>
            <trkpt lat="54.4195800" lon="-1.1928000"/>
        </trkseg>
    </trk>
</gpx>
