<?xml version="1.0" encoding="UTF-8" standalone="yes"?>
<gpx version="1.1" creator="OS Maps - Web" xmlns="http://www.topografix.com/GPX/1/1"
xmlns:xsi="http://www.w3.org/2001/XMLSchema-instance"
xsi:schemaLocation="http://www.topografix.com/GPX/1/1 http://www.topografix.com/GPX/1/1/gpx.xsd"
xmlns:gs="http://www.topografix.com/GPX/gpx_style/0/2"
xmlns:gh="https://graphhopper.com/public/schema/gpx/1.1"
xmlns:os="https://ordnancesurvey.co.uk/public/schema/route/0.1">
    <metadata>
        <name>Chop Gate-Tripsdale</name>
        <desc></desc>
        <bounds minlat="54.3805640" minlon="-1.1405862" maxlat="54.4062200" maxlon="-1.0655810"/>
        <extensions>
            <os:version>2.0</os:version>
            <os:surface_types>
                <os:surface_type>4</os:surface_type>
            </os:surface_types>
            <os:point lat="54.3867970" lon="-1.1405862" type="start"/>
            <os:point lat="54.3867000" lon="-1.1403700" type="end"/>
            <os:activity>ON_FOOT_WALKING</os:activity>
            <os:difficulty>UNKNOWN</os:difficulty>
            <os:paths>
                <os:path start="0" end="83" type="routed"/>
                <os:path start="84" end="85" type="plotted"/>
            </os:paths>
            <os:distance>13924.8428540</os:distance>
            <os:elevation_ascent>436.7700000</os:elevation_ascent>
            <os:route_type>SINGLE</os:route_type>
        </extensions>
    </metadata>
    <wpt lat="54.3867970" lon="-1.1405862"/>
    <wpt lat="54.3855939" lon="-1.1384048"/>
    <wpt lat="54.3855817" lon="-1.1352580"/>
    <wpt lat="54.3869776" lon="-1.1248391"/>
    <wpt lat="54.3842820" lon="-1.1134192"/>
    <wpt lat="54.3825126" lon="-1.1084955"/>
    <wpt lat="54.3805824" lon="-1.0896650"/>
    <wpt lat="54.3865528" lon="-1.0781618"/>
    <wpt lat="54.3966142" lon="-1.0696473"/>
    <wpt lat="54.3974003" lon="-1.0656287"/>
    <wpt lat="54.4054000" lon="-1.0730200"/>
    <wpt lat="54.4059700" lon="-1.0879400"/>
    <wpt lat="54.4042400" lon="-1.1094500"/>
    <wpt lat="54.3946200" lon="-1.1346100"/>
    <wpt lat="54.3924324" lon="-1.1358220"/>
    <wpt lat="54.3868422" lon="-1.1372558"/>
    <wpt lat="54.3862100" lon="-1.1390100"/>
    <wpt lat="54.3867000" lon="-1.1403700"/>
    <trk>
        <name>Chop Gate-Tripsdale</name>
        <trkseg>
            <trkpt lat="54.3867970" lon="-1.1405862"/>
            <trkpt lat="54.3868340" lon="-1.1404990"/>
            <trkpt lat="54.3867320" lon="-1.1403840"/>
            <trkpt lat="54.3864710" lon="-1.1399080"/>
            <trkpt lat="54.3861370" lon="-1.1391940"/>
            <trkpt lat="54.3860200" lon="-1.1390020"/>
            <trkpt lat="54.3855939" lon="-1.1384048"/>
            <trkpt lat="54.3852480" lon="-1.1381050"/>
            <trkpt lat="54.3849670" lon="-1.1379530"/>
            <trkpt lat="54.3849840" lon="-1.1378150"/>
            <trkpt lat="54.3855817" lon="-1.1352580"/>
            <trkpt lat="54.3856710" lon="-1.1348690"/>
            <trkpt lat="54.3857650" lon="-1.1343630"/>
            <trkpt lat="54.3860080" lon="-1.1324630"/>
            <trkpt lat="54.3861070" lon="-1.1315480"/>
            <trkpt lat="54.3861760" lon="-1.1301900"/>
            <trkpt lat="54.3861870" lon="-1.1292510"/>
            <trkpt lat="54.3862970" lon="-1.1286290"/>
            <trkpt lat="54.3868750" lon="-1.1257860"/>
            <trkpt lat="54.3869510" lon="-1.1253530"/>
            <trkpt lat="54.3869870" lon="-1.1250030"/>
            <trkpt lat="54.3869776" lon="-1.1248391"/>
            <trkpt lat="54.3869730" lon="-1.1247690"/>
            <trkpt lat="54.3869080" lon="-1.1246590"/>
            <trkpt lat="54.3868880" lon="-1.1245850"/>
            <trkpt lat="54.3868910" lon="-1.1243980"/>
            <trkpt lat="54.3869340" lon="-1.1241960"/>
            <trkpt lat="54.3866490" lon="-1.1238530"/>
            <trkpt lat="54.3864360" lon="-1.1236350"/>
            <trkpt lat="54.3864000" lon="-1.1234930"/>
            <trkpt lat="54.3862160" lon="-1.1215060"/>
            <trkpt lat="54.3862720" lon="-1.1207390"/>
            <trkpt lat="54.3862500" lon="-1.1197660"/>
            <trkpt lat="54.3862320" lon="-1.1196020"/>
            <trkpt lat="54.3861710" lon="-1.1193070"/>
            <trkpt lat="54.3861840" lon="-1.1189150"/>
            <trkpt lat="54.3861760" lon="-1.1186820"/>
            <trkpt lat="54.3861130" lon="-1.1184650"/>
            <trkpt lat="54.3861010" lon="-1.1183650"/>
            <trkpt lat="54.3861290" lon="-1.1181390"/>
            <trkpt lat="54.3861180" lon="-1.1179720"/>
            <trkpt lat="54.3859970" lon="-1.1175190"/>
            <trkpt lat="54.3859650" lon="-1.1173450"/>
            <trkpt lat="54.3858780" lon="-1.1172010"/>
            <trkpt lat="54.3858430" lon="-1.1170970"/>
            <trkpt lat="54.3857910" lon="-1.1170060"/>
            <trkpt lat="54.3857110" lon="-1.1167460"/>
            <trkpt lat="54.3854700" lon="-1.1163030"/>
            <trkpt lat="54.3854160" lon="-1.1161200"/>
            <trkpt lat="54.3853940" lon="-1.1157900"/>
            <trkpt lat="54.3853200" lon="-1.1153140"/>
            <trkpt lat="54.3852910" lon="-1.1149800"/>
            <trkpt lat="54.3850740" lon="-1.1137580"/>
            <trkpt lat="54.3850720" lon="-1.1131920"/>
            <trkpt lat="54.3842820" lon="-1.1134192"/>
            <trkpt lat="54.3842280" lon="-1.1134300"/>
            <trkpt lat="54.3837840" lon="-1.1110890"/>
            <trkpt lat="54.3837080" lon="-1.1108980"/>
            <trkpt lat="54.3836450" lon="-1.1106510"/>
            <trkpt lat="54.3833050" lon="-1.1090020"/>
            <trkpt lat="54.3832650" lon="-1.1086370"/>
            <trkpt lat="54.3832460" lon="-1.1085760"/>
            <trkpt lat="54.3831930" lon="-1.1085680"/>
            <trkpt lat="54.3829240" lon="-1.1086360"/>
            <trkpt lat="54.3827960" lon="-1.1086440"/>
            <trkpt lat="54.3826950" lon="-1.1086170"/>
            <trkpt lat="54.3825750" lon="-1.1086430"/>
            <trkpt lat="54.3825040" lon="-1.1086040"/>
            <trkpt lat="54.3824950" lon="-1.1085630"/>
            <trkpt lat="54.3825126" lon="-1.1084955"/>
            <trkpt lat="54.3825690" lon="-1.1084100"/>
            <trkpt lat="54.3832240" lon="-1.1076910"/>
            <trkpt lat="54.3835330" lon="-1.1072770"/>
            <trkpt lat="54.3832710" lon="-1.1066290"/>
            <trkpt lat="54.3829160" lon="-1.1056010"/>
            <trkpt lat="54.3826270" lon="-1.1053980"/>
            <trkpt lat="54.3822600" lon="-1.1052310"/>
            <trkpt lat="54.3819750" lon="-1.1052040"/>
            <trkpt lat="54.3817050" lon="-1.1052200"/>
            <trkpt lat="54.3817050" lon="-1.1051730"/>
            <trkpt lat="54.3817450" lon="-1.1050910"/>
            <trkpt lat="54.3821390" lon="-1.1047100"/>
            <trkpt lat="54.3820590" lon="-1.1034430"/>
            <trkpt lat="54.3824370" lon="-1.1033700"/>
            <trkpt lat="54.3824580" lon="-1.1033430"/>
            <trkpt lat="54.3824380" lon="-1.1032600"/>
            <trkpt lat="54.3821860" lon="-1.1029590"/>
            <trkpt lat="54.3823500" lon="-1.1025070"/>
            <trkpt lat="54.3824140" lon="-1.1020990"/>
            <trkpt lat="54.3825090" lon="-1.1016950"/>
            <trkpt lat="54.3825370" lon="-1.1014200"/>
            <trkpt lat="54.3824860" lon="-1.1010820"/>
            <trkpt lat="54.3824810" lon="-1.1008580"/>
            <trkpt lat="54.3825590" lon="-1.0999460"/>
            <trkpt lat="54.3826490" lon="-1.0994980"/>
            <trkpt lat="54.3828190" lon="-1.0989510"/>
            <trkpt lat="54.3828470" lon="-1.0987510"/>
            <trkpt lat="54.3828550" lon="-1.0985520"/>
            <trkpt lat="54.3827090" lon="-1.0978590"/>
            <trkpt lat="54.3826120" lon="-1.0975320"/>
            <trkpt lat="54.3823790" lon="-1.0970690"/>
            <trkpt lat="54.3815970" lon="-1.0957780"/>
            <trkpt lat="54.3814800" lon="-1.0953980"/>
            <trkpt lat="54.3813960" lon="-1.0949750"/>
            <trkpt lat="54.3807040" lon="-1.0920680"/>
            <trkpt lat="54.3807150" lon="-1.0920030"/>
            <trkpt lat="54.3806570" lon="-1.0916340"/>
            <trkpt lat="54.3805660" lon="-1.0908490"/>
            <trkpt lat="54.3805640" lon="-1.0902000"/>
            <trkpt lat="54.3805824" lon="-1.0896650"/>
            <trkpt lat="54.3805920" lon="-1.0895700"/>
            <trkpt lat="54.3808040" lon="-1.0893590"/>
            <trkpt lat="54.3809910" lon="-1.0892340"/>
            <trkpt lat="54.3811430" lon="-1.0889440"/>
            <trkpt lat="54.3812440" lon="-1.0888070"/>
            <trkpt lat="54.3834070" lon="-1.0861750"/>
            <trkpt lat="54.3838590" lon="-1.0855920"/>
            <trkpt lat="54.3840320" lon="-1.0853210"/>
            <trkpt lat="54.3866670" lon="-1.0796230"/>
            <trkpt lat="54.3866920" lon="-1.0795130"/>
            <trkpt lat="54.3866900" lon="-1.0794100"/>
            <trkpt lat="54.3866250" lon="-1.0791210"/>
            <trkpt lat="54.3866620" lon="-1.0788450"/>
            <trkpt lat="54.3865870" lon="-1.0782780"/>
            <trkpt lat="54.3865910" lon="-1.0782300"/>
            <trkpt lat="54.3865528" lon="-1.0781618"/>
            <trkpt lat="54.3865910" lon="-1.0782300"/>
            <trkpt lat="54.3866680" lon="-1.0782290"/>
            <trkpt lat="54.3872690" lon="-1.0786710"/>
            <trkpt lat="54.3878390" lon="-1.0789900"/>
            <trkpt lat="54.3879120" lon="-1.0789690"/>
            <trkpt lat="54.3879950" lon="-1.0789020"/>
            <trkpt lat="54.3881640" lon="-1.0788740"/>
            <trkpt lat="54.3884230" lon="-1.0787840"/>
            <trkpt lat="54.3887180" lon="-1.0787670"/>
            <trkpt lat="54.3887670" lon="-1.0787070"/>
            <trkpt lat="54.3888100" lon="-1.0785180"/>
            <trkpt lat="54.3889500" lon="-1.0773820"/>
            <trkpt lat="54.3890240" lon="-1.0762520"/>
            <trkpt lat="54.3890770" lon="-1.0760330"/>
            <trkpt lat="54.3891290" lon="-1.0759470"/>
            <trkpt lat="54.3900940" lon="-1.0756190"/>
            <trkpt lat="54.3904280" lon="-1.0754610"/>
            <trkpt lat="54.3907940" lon="-1.0753260"/>
            <trkpt lat="54.3911260" lon="-1.0752580"/>
            <trkpt lat="54.3915570" lon="-1.0752460"/>
            <trkpt lat="54.3920950" lon="-1.0750510"/>
            <trkpt lat="54.3922080" lon="-1.0750500"/>
            <trkpt lat="54.3932850" lon="-1.0752180"/>
            <trkpt lat="54.3934100" lon="-1.0752690"/>
            <trkpt lat="54.3935920" lon="-1.0754190"/>
            <trkpt lat="54.3936810" lon="-1.0754480"/>
            <trkpt lat="54.3942630" lon="-1.0754600"/>
            <trkpt lat="54.3944050" lon="-1.0754360"/>
            <trkpt lat="54.3945190" lon="-1.0753350"/>
            <trkpt lat="54.3948980" lon="-1.0751220"/>
            <trkpt lat="54.3950580" lon="-1.0750080"/>
            <trkpt lat="54.3951730" lon="-1.0748290"/>
            <trkpt lat="54.3953070" lon="-1.0744490"/>
            <trkpt lat="54.3953590" lon="-1.0742350"/>
            <trkpt lat="54.3956090" lon="-1.0729450"/>
            <trkpt lat="54.3957710" lon="-1.0722600"/>
            <trkpt lat="54.3958090" lon="-1.0719610"/>
            <trkpt lat="54.3958250" lon="-1.0714950"/>
            <trkpt lat="54.3958440" lon="-1.0713350"/>
            <trkpt lat="54.3960230" lon="-1.0708350"/>
            <trkpt lat="54.3960780" lon="-1.0706210"/>
            <trkpt lat="54.3961010" lon="-1.0703460"/>
            <trkpt lat="54.3960910" lon="-1.0702620"/>
            <trkpt lat="54.3962020" lon="-1.0701430"/>
            <trkpt lat="54.3964560" lon="-1.0700810"/>
            <trkpt lat="54.3965100" lon="-1.0700200"/>
            <trkpt lat="54.3965810" lon="-1.0698350"/>
            <trkpt lat="54.3966142" lon="-1.0696473"/>
            <trkpt lat="54.3967900" lon="-1.0686500"/>
            <trkpt lat="54.3970690" lon="-1.0669230"/>
            <trkpt lat="54.3971340" lon="-1.0666040"/>
            <trkpt lat="54.3972590" lon="-1.0657350"/>
            <trkpt lat="54.3973140" lon="-1.0655810"/>
            <trkpt lat="54.3973690" lon="-1.0656040"/>
            <trkpt lat="54.3974003" lon="-1.0656287"/>
            <trkpt lat="54.3980320" lon="-1.0661230"/>
            <trkpt lat="54.3986470" lon="-1.0666730"/>
            <trkpt lat="54.3994660" lon="-1.0673200"/>
            <trkpt lat="54.3996490" lon="-1.0675580"/>
            <trkpt lat="54.4000710" lon="-1.0679170"/>
            <trkpt lat="54.4002360" lon="-1.0680990"/>
            <trkpt lat="54.4006890" lon="-1.0685000"/>
            <trkpt lat="54.4010040" lon="-1.0688340"/>
            <trkpt lat="54.4014580" lon="-1.0692360"/>
            <trkpt lat="54.4016400" lon="-1.0694430"/>
            <trkpt lat="54.4019200" lon="-1.0696820"/>
            <trkpt lat="54.4022750" lon="-1.0700520"/>
            <trkpt lat="54.4026150" lon="-1.0703600"/>
            <trkpt lat="54.4032650" lon="-1.0710330"/>
            <trkpt lat="54.4039150" lon="-1.0716130"/>
            <trkpt lat="54.4046760" lon="-1.0723470"/>
            <trkpt lat="54.4051190" lon="-1.0728130"/>
            <trkpt lat="54.4053080" lon="-1.0729730"/>
            <trkpt lat="54.4054000" lon="-1.0730200"/>
            <trkpt lat="54.4054700" lon="-1.0730400"/>
            <trkpt lat="54.4054600" lon="-1.0735800"/>
            <trkpt lat="54.4055600" lon="-1.0745600"/>
            <trkpt lat="54.4057400" lon="-1.0753800"/>
            <trkpt lat="54.4058500" lon="-1.0756700"/>
            <trkpt lat="54.4059000" lon="-1.0758400"/>
            <trkpt lat="54.4058800" lon="-1.0760200"/>
            <trkpt lat="54.4057200" lon="-1.0763300"/>
            <trkpt lat="54.4055900" lon="-1.0767600"/>
            <trkpt lat="54.4054600" lon="-1.0775800"/>
            <trkpt lat="54.4053500" lon="-1.0794300"/>
            <trkpt lat="54.4052500" lon="-1.0801000"/>
            <trkpt lat="54.4050500" lon="-1.0809300"/>
            <trkpt lat="54.4049300" lon="-1.0815800"/>
            <trkpt lat="54.4049100" lon="-1.0819500"/>
            <trkpt lat="54.4049400" lon="-1.0822300"/>
            <trkpt lat="54.4055200" lon="-1.0858800"/>
            <trkpt lat="54.4059700" lon="-1.0879400"/>
            <trkpt lat="54.4062200" lon="-1.0891200"/>
            <trkpt lat="54.4056300" lon="-1.0934400"/>
            <trkpt lat="54.4056200" lon="-1.0936800"/>
            <trkpt lat="54.4055200" lon="-1.0941400"/>
            <trkpt lat="54.4054800" lon="-1.0946800"/>
            <trkpt lat="54.4054100" lon="-1.0952000"/>
            <trkpt lat="54.4052600" lon="-1.0972000"/>
            <trkpt lat="54.4045800" lon="-1.1073400"/>
            <trkpt lat="54.4045700" lon="-1.1077500"/>
            <trkpt lat="54.4047700" lon="-1.1084800"/>
            <trkpt lat="54.4047900" lon="-1.1086300"/>
            <trkpt lat="54.4047200" lon="-1.1088700"/>
            <trkpt lat="54.4045800" lon="-1.1091000"/>
            <trkpt lat="54.4042400" lon="-1.1094500"/>
            <trkpt lat="54.4039600" lon="-1.1097500"/>
            <trkpt lat="54.4037800" lon="-1.1099900"/>
            <trkpt lat="54.4014400" lon="-1.1153500"/>
            <trkpt lat="54.4012900" lon="-1.1157400"/>
            <trkpt lat="54.4012400" lon="-1.1157900"/>
            <trkpt lat="54.4012100" lon="-1.1159300"/>
            <trkpt lat="54.4010200" lon="-1.1163300"/>
            <trkpt lat="54.4009000" lon="-1.1166500"/>
            <trkpt lat="54.4007300" lon="-1.1172600"/>
            <trkpt lat="54.4006800" lon="-1.1176100"/>
            <trkpt lat="54.4006900" lon="-1.1178500"/>
            <trkpt lat="54.4005600" lon="-1.1182300"/>
            <trkpt lat="54.4006300" lon="-1.1184900"/>
            <trkpt lat="54.4006500" lon="-1.1186300"/>
            <trkpt lat="54.4007100" lon="-1.1187000"/>
            <trkpt lat="54.4007600" lon="-1.1191900"/>
            <trkpt lat="54.4007000" lon="-1.1196100"/>
            <trkpt lat="54.4007300" lon="-1.1198900"/>
            <trkpt lat="54.4009100" lon="-1.1205900"/>
            <trkpt lat="54.4008700" lon="-1.1209400"/>
            <trkpt lat="54.4008000" lon="-1.1210600"/>
            <trkpt lat="54.4005600" lon="-1.1212600"/>
            <trkpt lat="54.4004800" lon="-1.1212800"/>
            <trkpt lat="54.4004200" lon="-1.1212600"/>
            <trkpt lat="54.4002500" lon="-1.1210900"/>
            <trkpt lat="54.4000500" lon="-1.1210900"/>
            <trkpt lat="54.3998700" lon="-1.1211500"/>
            <trkpt lat="54.3997300" lon="-1.1214300"/>
            <trkpt lat="54.3995600" lon="-1.1217000"/>
            <trkpt lat="54.3995100" lon="-1.1218200"/>
            <trkpt lat="54.3995200" lon="-1.1228200"/>
            <trkpt lat="54.3994600" lon="-1.1232200"/>
            <trkpt lat="54.3993900" lon="-1.1234300"/>
            <trkpt lat="54.3993000" lon="-1.1235400"/>
            <trkpt lat="54.3989800" lon="-1.1241200"/>
            <trkpt lat="54.3986400" lon="-1.1245000"/>
            <trkpt lat="54.3984000" lon="-1.1250600"/>
            <trkpt lat="54.3982400" lon="-1.1252600"/>
            <trkpt lat="54.3981600" lon="-1.1253900"/>
            <trkpt lat="54.3976900" lon="-1.1263600"/>
            <trkpt lat="54.3976000" lon="-1.1265000"/>
            <trkpt lat="54.3973500" lon="-1.1266800"/>
            <trkpt lat="54.3971000" lon="-1.1268000"/>
            <trkpt lat="54.3970100" lon="-1.1269100"/>
            <trkpt lat="54.3968500" lon="-1.1272800"/>
            <trkpt lat="54.3964800" lon="-1.1279700"/>
            <trkpt lat="54.3961900" lon="-1.1290500"/>
            <trkpt lat="54.3961800" lon="-1.1291800"/>
            <trkpt lat="54.3962300" lon="-1.1292900"/>
            <trkpt lat="54.3964400" lon="-1.1296000"/>
            <trkpt lat="54.3965500" lon="-1.1297100"/>
            <trkpt lat="54.3965100" lon="-1.1299300"/>
            <trkpt lat="54.3964600" lon="-1.1311800"/>
            <trkpt lat="54.3964600" lon="-1.1321500"/>
            <trkpt lat="54.3964400" lon="-1.1327500"/>
            <trkpt lat="54.3964000" lon="-1.1331900"/>
            <trkpt lat="54.3963500" lon="-1.1334800"/>
            <trkpt lat="54.3962500" lon="-1.1339300"/>
            <trkpt lat="54.3961900" lon="-1.1340400"/>
            <trkpt lat="54.3961200" lon="-1.1341400"/>
            <trkpt lat="54.3958400" lon="-1.1343700"/>
            <trkpt lat="54.3956400" lon="-1.1346100"/>
            <trkpt lat="54.3954100" lon="-1.1349600"/>
            <trkpt lat="54.3952100" lon="-1.1351700"/>
            <trkpt lat="54.3950900" lon="-1.1352400"/>
            <trkpt lat="54.3949400" lon="-1.1352600"/>
            <trkpt lat="54.3949500" lon="-1.1351400"/>
            <trkpt lat="54.3948900" lon="-1.1348600"/>
            <trkpt lat="54.3949000" lon="-1.1347300"/>
            <trkpt lat="54.3947200" lon="-1.1345800"/>
            <trkpt lat="54.3946500" lon="-1.1345800"/>
            <trkpt lat="54.3946200" lon="-1.1346100"/>
            <trkpt lat="54.3945390" lon="-1.1346860"/>
            <trkpt lat="54.3944480" lon="-1.1350550"/>
            <trkpt lat="54.3941820" lon="-1.1353720"/>
            <trkpt lat="54.3940660" lon="-1.1354840"/>
            <trkpt lat="54.3939190" lon="-1.1355870"/>
            <trkpt lat="54.3937210" lon="-1.1356780"/>
            <trkpt lat="54.3936660" lon="-1.1356700"/>
            <trkpt lat="54.3934550" lon="-1.1358090"/>
            <trkpt lat="54.3933630" lon="-1.1358060"/>
            <trkpt lat="54.3931560" lon="-1.1357290"/>
            <trkpt lat="54.3930560" lon="-1.1357610"/>
            <trkpt lat="54.3924324" lon="-1.1358220"/>
            <trkpt lat="54.3922970" lon="-1.1358350"/>
            <trkpt lat="54.3920400" lon="-1.1355200"/>
            <trkpt lat="54.3915010" lon="-1.1354950"/>
            <trkpt lat="54.3906420" lon="-1.1358990"/>
            <trkpt lat="54.3895470" lon="-1.1359360"/>
            <trkpt lat="54.3879230" lon="-1.1366090"/>
            <trkpt lat="54.3875900" lon="-1.1367820"/>
            <trkpt lat="54.3868422" lon="-1.1372558"/>
            <trkpt lat="54.3862100" lon="-1.1390100"/>
            <trkpt lat="54.3862300" lon="-1.1391500"/>
            <trkpt lat="54.3862200" lon="-1.1391800"/>
            <trkpt lat="54.3862500" lon="-1.1393000"/>
            <trkpt lat="54.3862100" lon="-1.1393600"/>
            <trkpt lat="54.3866300" lon="-1.1402600"/>
            <trkpt lat="54.3867000" lon="-1.1403700"/>
        </trkseg>
    </trk>
</gpx>
