<?xml version="1.0" encoding="UTF-8" standalone="yes"?>
<gpx version="1.1" creator="OS Maps - Web" xmlns="http://www.topografix.com/GPX/1/1"
xmlns:xsi="http://www.w3.org/2001/XMLSchema-instance"
xsi:schemaLocation="http://www.topografix.com/GPX/1/1 http://www.topografix.com/GPX/1/1/gpx.xsd"
xmlns:gs="http://www.topografix.com/GPX/gpx_style/0/2"
xmlns:gh="https://graphhopper.com/public/schema/gpx/1.1"
xmlns:os="https://ordnancesurvey.co.uk/public/schema/route/0.1">
    <metadata>
        <name>Swainby-Huwthwaite Green-Scugdale Hall-Carlton Bank</name>
        <desc></desc>
        <bounds minlat="54.3930830" minlon="-1.2672284" maxlat="54.4186800" maxlon="-1.1957400"/>
        <extensions>
            <os:version>2.0</os:version>
            <os:surface_types>
                <os:surface_type>4</os:surface_type>
            </os:surface_types>
            <os:point lat="54.4126224" lon="-1.2672284" type="start"/>
            <os:point lat="54.3996797" lon="-1.2422125" type="end"/>
            <os:activity>ON_FOOT_WALKING</os:activity>
            <os:difficulty>UNKNOWN</os:difficulty>
            <os:paths>
                <os:path start="0" end="22" type="routed"/>
                <os:path start="23" end="23" type="plotted"/>
                <os:path start="24" end="59" type="routed"/>
            </os:paths>
            <os:distance>12947.6250149</os:distance>
            <os:elevation_ascent>452.3400000</os:elevation_ascent>
            <os:route_type>SINGLE</os:route_type>
        </extensions>
    </metadata>
    <wpt lat="54.4126224" lon="-1.2672284"/>
    <wpt lat="54.4081429" lon="-1.2625602"/>
    <wpt lat="54.4052196" lon="-1.2552922"/>
    <wpt lat="54.3996983" lon="-1.2427852"/>
    <wpt lat="54.3959400" lon="-1.2215400"/>
    <wpt lat="54.3930915" lon="-1.2036064"/>
    <wpt lat="54.4064500" lon="-1.1968400"/>
    <wpt lat="54.4186800" lon="-1.1957400"/>
    <wpt lat="54.4054200" lon="-1.2192700"/>
    <wpt lat="54.4042642" lon="-1.2415535"/>
    <wpt lat="54.3997731" lon="-1.2417948"/>
    <wpt lat="54.3996797" lon="-1.2422125"/>
    <trk>
        <name>Swainby-Huwthwaite Green-Scugdale Hall-Carlton Bank</name>
        <trkseg>
            <trkpt lat="54.4126224" lon="-1.2672284"/>
            <trkpt lat="54.4126820" lon="-1.2669100"/>
            <trkpt lat="54.4121950" lon="-1.2666410"/>
            <trkpt lat="54.4118070" lon="-1.2664630"/>
            <trkpt lat="54.4113080" lon="-1.2660250"/>
            <trkpt lat="54.4107490" lon="-1.2653880"/>
            <trkpt lat="54.4100970" lon="-1.2644750"/>
            <trkpt lat="54.4097620" lon="-1.2640810"/>
            <trkpt lat="54.4094350" lon="-1.2635780"/>
            <trkpt lat="54.4089370" lon="-1.2628780"/>
            <trkpt lat="54.4088550" lon="-1.2627870"/>
            <trkpt lat="54.4085850" lon="-1.2627310"/>
            <trkpt lat="54.4081429" lon="-1.2625602"/>
            <trkpt lat="54.4081710" lon="-1.2625690"/>
            <trkpt lat="54.4081250" lon="-1.2623690"/>
            <trkpt lat="54.4078350" lon="-1.2618640"/>
            <trkpt lat="54.4077340" lon="-1.2616210"/>
            <trkpt lat="54.4075580" lon="-1.2607920"/>
            <trkpt lat="54.4075180" lon="-1.2601770"/>
            <trkpt lat="54.4075270" lon="-1.2601000"/>
            <trkpt lat="54.4071470" lon="-1.2593460"/>
            <trkpt lat="54.4068410" lon="-1.2591390"/>
            <trkpt lat="54.4064270" lon="-1.2586600"/>
            <trkpt lat="54.4061620" lon="-1.2584340"/>
            <trkpt lat="54.4059170" lon="-1.2578590"/>
            <trkpt lat="54.4057670" lon="-1.2572550"/>
            <trkpt lat="54.4053350" lon="-1.2556600"/>
            <trkpt lat="54.4053950" lon="-1.2554920"/>
            <trkpt lat="54.4052196" lon="-1.2552922"/>
            <trkpt lat="54.4050600" lon="-1.2551060"/>
            <trkpt lat="54.4049880" lon="-1.2550620"/>
            <trkpt lat="54.4048710" lon="-1.2550330"/>
            <trkpt lat="54.4046000" lon="-1.2548530"/>
            <trkpt lat="54.4038950" lon="-1.2542030"/>
            <trkpt lat="54.4036960" lon="-1.2539300"/>
            <trkpt lat="54.4032350" lon="-1.2530720"/>
            <trkpt lat="54.4028550" lon="-1.2521870"/>
            <trkpt lat="54.4027710" lon="-1.2520330"/>
            <trkpt lat="54.4023170" lon="-1.2514030"/>
            <trkpt lat="54.4018490" lon="-1.2506300"/>
            <trkpt lat="54.4015500" lon="-1.2503470"/>
            <trkpt lat="54.4013990" lon="-1.2501660"/>
            <trkpt lat="54.4005000" lon="-1.2486770"/>
            <trkpt lat="54.4004200" lon="-1.2485030"/>
            <trkpt lat="54.4003130" lon="-1.2481280"/>
            <trkpt lat="54.4002750" lon="-1.2478770"/>
            <trkpt lat="54.4002200" lon="-1.2470150"/>
            <trkpt lat="54.4003050" lon="-1.2462330"/>
            <trkpt lat="54.4003100" lon="-1.2459540"/>
            <trkpt lat="54.4002690" lon="-1.2451250"/>
            <trkpt lat="54.4001770" lon="-1.2440540"/>
            <trkpt lat="54.4001490" lon="-1.2438800"/>
            <trkpt lat="54.3997540" lon="-1.2429570"/>
            <trkpt lat="54.3996983" lon="-1.2427852"/>
            <trkpt lat="54.3996440" lon="-1.2426200"/>
            <trkpt lat="54.3995780" lon="-1.2416700"/>
            <trkpt lat="54.3994600" lon="-1.2407400"/>
            <trkpt lat="54.3994200" lon="-1.2405720"/>
            <trkpt lat="54.3990910" lon="-1.2395650"/>
            <trkpt lat="54.3988430" lon="-1.2389080"/>
            <trkpt lat="54.3987350" lon="-1.2385730"/>
            <trkpt lat="54.3985970" lon="-1.2379550"/>
            <trkpt lat="54.3985850" lon="-1.2378140"/>
            <trkpt lat="54.3986480" lon="-1.2371280"/>
            <trkpt lat="54.3986380" lon="-1.2369950"/>
            <trkpt lat="54.3984070" lon="-1.2361400"/>
            <trkpt lat="54.3983520" lon="-1.2360040"/>
            <trkpt lat="54.3981400" lon="-1.2357200"/>
            <trkpt lat="54.3979720" lon="-1.2354270"/>
            <trkpt lat="54.3978990" lon="-1.2352430"/>
            <trkpt lat="54.3976080" lon="-1.2346790"/>
            <trkpt lat="54.3972790" lon="-1.2338070"/>
            <trkpt lat="54.3970490" lon="-1.2330410"/>
            <trkpt lat="54.3967410" lon="-1.2325230"/>
            <trkpt lat="54.3965680" lon="-1.2321720"/>
            <trkpt lat="54.3965030" lon="-1.2319580"/>
            <trkpt lat="54.3964930" lon="-1.2317420"/>
            <trkpt lat="54.3966130" lon="-1.2311730"/>
            <trkpt lat="54.3966250" lon="-1.2308770"/>
            <trkpt lat="54.3966020" lon="-1.2305530"/>
            <trkpt lat="54.3965420" lon="-1.2301390"/>
            <trkpt lat="54.3965360" lon="-1.2299340"/>
            <trkpt lat="54.3965520" lon="-1.2297630"/>
            <trkpt lat="54.3965850" lon="-1.2295980"/>
            <trkpt lat="54.3965880" lon="-1.2294780"/>
            <trkpt lat="54.3964610" lon="-1.2290310"/>
            <trkpt lat="54.3964100" lon="-1.2287570"/>
            <trkpt lat="54.3963160" lon="-1.2276080"/>
            <trkpt lat="54.3963050" lon="-1.2273160"/>
            <trkpt lat="54.3963530" lon="-1.2261430"/>
            <trkpt lat="54.3964600" lon="-1.2254300"/>
            <trkpt lat="54.3967980" lon="-1.2238610"/>
            <trkpt lat="54.3968770" lon="-1.2233170"/>
            <trkpt lat="54.3968990" lon="-1.2230400"/>
            <trkpt lat="54.3968970" lon="-1.2223460"/>
            <trkpt lat="54.3968810" lon="-1.2221700"/>
            <trkpt lat="54.3965250" lon="-1.2219730"/>
            <trkpt lat="54.3959400" lon="-1.2215400"/>
            <trkpt lat="54.3959100" lon="-1.2215200"/>
            <trkpt lat="54.3957300" lon="-1.2201300"/>
            <trkpt lat="54.3956200" lon="-1.2194600"/>
            <trkpt lat="54.3955900" lon="-1.2189100"/>
            <trkpt lat="54.3951400" lon="-1.2171500"/>
            <trkpt lat="54.3952400" lon="-1.2161100"/>
            <trkpt lat="54.3952500" lon="-1.2158000"/>
            <trkpt lat="54.3950000" lon="-1.2149500"/>
            <trkpt lat="54.3949200" lon="-1.2143300"/>
            <trkpt lat="54.3947500" lon="-1.2135400"/>
            <trkpt lat="54.3930915" lon="-1.2036064"/>
            <trkpt lat="54.3930830" lon="-1.2034880"/>
            <trkpt lat="54.3938530" lon="-1.2028790"/>
            <trkpt lat="54.3945030" lon="-1.2024320"/>
            <trkpt lat="54.3945480" lon="-1.2023310"/>
            <trkpt lat="54.3946450" lon="-1.2020090"/>
            <trkpt lat="54.3947140" lon="-1.2016870"/>
            <trkpt lat="54.3948570" lon="-1.2013740"/>
            <trkpt lat="54.3949250" lon="-1.2010090"/>
            <trkpt lat="54.3949490" lon="-1.2007600"/>
            <trkpt lat="54.3950720" lon="-1.2004940"/>
            <trkpt lat="54.3951510" lon="-1.2003790"/>
            <trkpt lat="54.3954340" lon="-1.2002360"/>
            <trkpt lat="54.3955040" lon="-1.2001690"/>
            <trkpt lat="54.3955360" lon="-1.2001010"/>
            <trkpt lat="54.3955460" lon="-1.1999970"/>
            <trkpt lat="54.3955110" lon="-1.1998340"/>
            <trkpt lat="54.3954930" lon="-1.1996130"/>
            <trkpt lat="54.3955920" lon="-1.1993280"/>
            <trkpt lat="54.3956440" lon="-1.1991290"/>
            <trkpt lat="54.3956470" lon="-1.1987510"/>
            <trkpt lat="54.3956710" lon="-1.1986530"/>
            <trkpt lat="54.3960620" lon="-1.1979590"/>
            <trkpt lat="54.3964180" lon="-1.1977370"/>
            <trkpt lat="54.3971330" lon="-1.1971480"/>
            <trkpt lat="54.3972580" lon="-1.1970680"/>
            <trkpt lat="54.3973270" lon="-1.1969930"/>
            <trkpt lat="54.3977790" lon="-1.1966930"/>
            <trkpt lat="54.3985860" lon="-1.1967060"/>
            <trkpt lat="54.3988080" lon="-1.1966840"/>
            <trkpt lat="54.3989360" lon="-1.1967050"/>
            <trkpt lat="54.3990690" lon="-1.1968240"/>
            <trkpt lat="54.3993340" lon="-1.1968950"/>
            <trkpt lat="54.3996450" lon="-1.1968350"/>
            <trkpt lat="54.4002480" lon="-1.1970380"/>
            <trkpt lat="54.4006660" lon="-1.1971190"/>
            <trkpt lat="54.4009340" lon="-1.1972510"/>
            <trkpt lat="54.4010080" lon="-1.1972620"/>
            <trkpt lat="54.4012270" lon="-1.1971730"/>
            <trkpt lat="54.4014420" lon="-1.1971490"/>
            <trkpt lat="54.4016110" lon="-1.1970470"/>
            <trkpt lat="54.4018180" lon="-1.1969920"/>
            <trkpt lat="54.4019330" lon="-1.1968790"/>
            <trkpt lat="54.4022560" lon="-1.1964620"/>
            <trkpt lat="54.4024970" lon="-1.1961910"/>
            <trkpt lat="54.4026550" lon="-1.1960800"/>
            <trkpt lat="54.4029900" lon="-1.1959150"/>
            <trkpt lat="54.4031490" lon="-1.1958760"/>
            <trkpt lat="54.4036790" lon="-1.1958400"/>
            <trkpt lat="54.4043910" lon="-1.1958780"/>
            <trkpt lat="54.4049330" lon="-1.1957910"/>
            <trkpt lat="54.4050310" lon="-1.1958120"/>
            <trkpt lat="54.4051770" lon="-1.1958950"/>
            <trkpt lat="54.4054280" lon="-1.1959850"/>
            <trkpt lat="54.4057430" lon="-1.1962320"/>
            <trkpt lat="54.4058470" lon="-1.1963870"/>
            <trkpt lat="54.4060890" lon="-1.1965300"/>
            <trkpt lat="54.4064500" lon="-1.1968400"/>
            <trkpt lat="54.4065700" lon="-1.1969800"/>
            <trkpt lat="54.4067100" lon="-1.1970300"/>
            <trkpt lat="54.4068600" lon="-1.1971700"/>
            <trkpt lat="54.4072400" lon="-1.1971800"/>
            <trkpt lat="54.4075500" lon="-1.1969000"/>
            <trkpt lat="54.4078800" lon="-1.1966800"/>
            <trkpt lat="54.4081800" lon="-1.1963400"/>
            <trkpt lat="54.4087500" lon="-1.1958900"/>
            <trkpt lat="54.4088400" lon="-1.1959900"/>
            <trkpt lat="54.4088900" lon="-1.1963300"/>
            <trkpt lat="54.4090400" lon="-1.1967500"/>
            <trkpt lat="54.4094500" lon="-1.1973700"/>
            <trkpt lat="54.4096000" lon="-1.1974600"/>
            <trkpt lat="54.4098700" lon="-1.1975000"/>
            <trkpt lat="54.4114100" lon="-1.1971800"/>
            <trkpt lat="54.4116200" lon="-1.1971800"/>
            <trkpt lat="54.4118800" lon="-1.1972600"/>
            <trkpt lat="54.4119400" lon="-1.1971900"/>
            <trkpt lat="54.4123100" lon="-1.1972400"/>
            <trkpt lat="54.4126900" lon="-1.1973200"/>
            <trkpt lat="54.4128300" lon="-1.1972300"/>
            <trkpt lat="54.4133000" lon="-1.1970900"/>
            <trkpt lat="54.4136000" lon="-1.1969400"/>
            <trkpt lat="54.4138700" lon="-1.1967600"/>
            <trkpt lat="54.4143000" lon="-1.1967700"/>
            <trkpt lat="54.4150900" lon="-1.1970200"/>
            <trkpt lat="54.4158400" lon="-1.1971400"/>
            <trkpt lat="54.4169100" lon="-1.1964200"/>
            <trkpt lat="54.4171100" lon="-1.1963100"/>
            <trkpt lat="54.4172300" lon="-1.1962800"/>
            <trkpt lat="54.4174600" lon="-1.1963900"/>
            <trkpt lat="54.4176500" lon="-1.1964200"/>
            <trkpt lat="54.4177100" lon="-1.1963800"/>
            <trkpt lat="54.4180700" lon="-1.1958800"/>
            <trkpt lat="54.4181900" lon="-1.1958100"/>
            <trkpt lat="54.4186400" lon="-1.1958200"/>
            <trkpt lat="54.4186800" lon="-1.1957400"/>
            <trkpt lat="54.4186400" lon="-1.1958200"/>
            <trkpt lat="54.4185500" lon="-1.1964000"/>
            <trkpt lat="54.4184100" lon="-1.1966500"/>
            <trkpt lat="54.4183200" lon="-1.1969700"/>
            <trkpt lat="54.4181200" lon="-1.1971400"/>
            <trkpt lat="54.4180300" lon="-1.1972800"/>
            <trkpt lat="54.4180000" lon="-1.1974100"/>
            <trkpt lat="54.4179300" lon="-1.1974600"/>
            <trkpt lat="54.4178500" lon="-1.1974400"/>
            <trkpt lat="54.4177000" lon="-1.1972900"/>
            <trkpt lat="54.4175900" lon="-1.1972800"/>
            <trkpt lat="54.4173000" lon="-1.1973700"/>
            <trkpt lat="54.4171300" lon="-1.1975000"/>
            <trkpt lat="54.4170200" lon="-1.1976300"/>
            <trkpt lat="54.4169500" lon="-1.1978400"/>
            <trkpt lat="54.4169500" lon="-1.1980100"/>
            <trkpt lat="54.4170100" lon="-1.1981700"/>
            <trkpt lat="54.4170300" lon="-1.1983700"/>
            <trkpt lat="54.4170000" lon="-1.1984400"/>
            <trkpt lat="54.4168300" lon="-1.1985800"/>
            <trkpt lat="54.4167900" lon="-1.1986700"/>
            <trkpt lat="54.4168100" lon="-1.1988000"/>
            <trkpt lat="54.4168700" lon="-1.1989000"/>
            <trkpt lat="54.4169000" lon="-1.1989900"/>
            <trkpt lat="54.4168400" lon="-1.1990600"/>
            <trkpt lat="54.4166500" lon="-1.1992100"/>
            <trkpt lat="54.4165300" lon="-1.1994300"/>
            <trkpt lat="54.4164800" lon="-1.1998400"/>
            <trkpt lat="54.4163900" lon="-1.2000800"/>
            <trkpt lat="54.4163300" lon="-1.2001300"/>
            <trkpt lat="54.4163100" lon="-1.2002000"/>
            <trkpt lat="54.4163300" lon="-1.2003200"/>
            <trkpt lat="54.4163000" lon="-1.2003900"/>
            <trkpt lat="54.4162800" lon="-1.2005300"/>
            <trkpt lat="54.4161800" lon="-1.2009000"/>
            <trkpt lat="54.4161300" lon="-1.2011400"/>
            <trkpt lat="54.4159700" lon="-1.2014000"/>
            <trkpt lat="54.4155400" lon="-1.2019100"/>
            <trkpt lat="54.4149300" lon="-1.2024900"/>
            <trkpt lat="54.4147000" lon="-1.2026300"/>
            <trkpt lat="54.4145200" lon="-1.2026900"/>
            <trkpt lat="54.4144100" lon="-1.2026700"/>
            <trkpt lat="54.4142700" lon="-1.2027100"/>
            <trkpt lat="54.4142100" lon="-1.2027600"/>
            <trkpt lat="54.4141200" lon="-1.2028900"/>
            <trkpt lat="54.4138200" lon="-1.2030300"/>
            <trkpt lat="54.4137400" lon="-1.2031200"/>
            <trkpt lat="54.4134600" lon="-1.2033200"/>
            <trkpt lat="54.4133000" lon="-1.2033100"/>
            <trkpt lat="54.4132300" lon="-1.2032800"/>
            <trkpt lat="54.4131800" lon="-1.2033100"/>
            <trkpt lat="54.4131200" lon="-1.2033900"/>
            <trkpt lat="54.4127300" lon="-1.2035700"/>
            <trkpt lat="54.4124900" lon="-1.2036300"/>
            <trkpt lat="54.4123400" lon="-1.2037600"/>
            <trkpt lat="54.4123100" lon="-1.2035100"/>
            <trkpt lat="54.4122600" lon="-1.2032600"/>
            <trkpt lat="54.4121100" lon="-1.2028800"/>
            <trkpt lat="54.4120400" lon="-1.2029900"/>
            <trkpt lat="54.4119400" lon="-1.2030500"/>
            <trkpt lat="54.4116600" lon="-1.2033000"/>
            <trkpt lat="54.4110200" lon="-1.2040100"/>
            <trkpt lat="54.4102000" lon="-1.2051400"/>
            <trkpt lat="54.4088400" lon="-1.2064000"/>
            <trkpt lat="54.4082000" lon="-1.2071100"/>
            <trkpt lat="54.4079800" lon="-1.2074800"/>
            <trkpt lat="54.4078800" lon="-1.2077200"/>
            <trkpt lat="54.4078400" lon="-1.2079700"/>
            <trkpt lat="54.4077700" lon="-1.2080400"/>
            <trkpt lat="54.4077300" lon="-1.2081300"/>
            <trkpt lat="54.4077200" lon="-1.2083100"/>
            <trkpt lat="54.4076100" lon="-1.2087300"/>
            <trkpt lat="54.4075300" lon="-1.2089800"/>
            <trkpt lat="54.4074000" lon="-1.2093200"/>
            <trkpt lat="54.4071500" lon="-1.2098300"/>
            <trkpt lat="54.4070000" lon="-1.2100900"/>
            <trkpt lat="54.4069300" lon="-1.2101600"/>
            <trkpt lat="54.4069000" lon="-1.2102400"/>
            <trkpt lat="54.4069700" lon="-1.2106900"/>
            <trkpt lat="54.4069200" lon="-1.2111800"/>
            <trkpt lat="54.4068400" lon="-1.2115800"/>
            <trkpt lat="54.4067600" lon="-1.2118200"/>
            <trkpt lat="54.4066900" lon="-1.2122000"/>
            <trkpt lat="54.4064300" lon="-1.2130400"/>
            <trkpt lat="54.4063300" lon="-1.2134500"/>
            <trkpt lat="54.4063100" lon="-1.2137900"/>
            <trkpt lat="54.4062400" lon="-1.2142600"/>
            <trkpt lat="54.4062200" lon="-1.2145300"/>
            <trkpt lat="54.4061400" lon="-1.2151500"/>
            <trkpt lat="54.4059500" lon="-1.2160400"/>
            <trkpt lat="54.4058300" lon="-1.2164200"/>
            <trkpt lat="54.4055500" lon="-1.2176300"/>
            <trkpt lat="54.4054800" lon="-1.2180200"/>
            <trkpt lat="54.4054200" lon="-1.2192700"/>
            <trkpt lat="54.4052860" lon="-1.2213300"/>
            <trkpt lat="54.4052380" lon="-1.2215500"/>
            <trkpt lat="54.4052060" lon="-1.2217970"/>
            <trkpt lat="54.4050370" lon="-1.2222990"/>
            <trkpt lat="54.4049090" lon="-1.2229090"/>
            <trkpt lat="54.4048090" lon="-1.2231880"/>
            <trkpt lat="54.4046280" lon="-1.2235630"/>
            <trkpt lat="54.4045600" lon="-1.2237910"/>
            <trkpt lat="54.4044780" lon="-1.2241570"/>
            <trkpt lat="54.4044500" lon="-1.2244820"/>
            <trkpt lat="54.4044520" lon="-1.2247220"/>
            <trkpt lat="54.4044790" lon="-1.2251270"/>
            <trkpt lat="54.4045780" lon="-1.2260760"/>
            <trkpt lat="54.4045910" lon="-1.2264220"/>
            <trkpt lat="54.4045440" lon="-1.2274940"/>
            <trkpt lat="54.4045070" lon="-1.2279120"/>
            <trkpt lat="54.4044330" lon="-1.2292080"/>
            <trkpt lat="54.4043660" lon="-1.2296950"/>
            <trkpt lat="54.4043690" lon="-1.2299760"/>
            <trkpt lat="54.4043800" lon="-1.2300990"/>
            <trkpt lat="54.4044530" lon="-1.2303280"/>
            <trkpt lat="54.4045060" lon="-1.2306200"/>
            <trkpt lat="54.4046350" lon="-1.2311190"/>
            <trkpt lat="54.4046730" lon="-1.2315730"/>
            <trkpt lat="54.4047420" lon="-1.2318910"/>
            <trkpt lat="54.4048590" lon="-1.2321300"/>
            <trkpt lat="54.4050160" lon="-1.2327080"/>
            <trkpt lat="54.4050790" lon="-1.2330490"/>
            <trkpt lat="54.4051350" lon="-1.2332200"/>
            <trkpt lat="54.4052060" lon="-1.2339180"/>
            <trkpt lat="54.4052100" lon="-1.2340640"/>
            <trkpt lat="54.4051250" lon="-1.2347190"/>
            <trkpt lat="54.4049890" lon="-1.2354770"/>
            <trkpt lat="54.4049830" lon="-1.2360270"/>
            <trkpt lat="54.4049420" lon="-1.2368650"/>
            <trkpt lat="54.4048710" lon="-1.2374280"/>
            <trkpt lat="54.4048110" lon="-1.2377340"/>
            <trkpt lat="54.4046810" lon="-1.2380920"/>
            <trkpt lat="54.4046150" lon="-1.2384260"/>
            <trkpt lat="54.4045870" lon="-1.2387410"/>
            <trkpt lat="54.4044940" lon="-1.2389820"/>
            <trkpt lat="54.4043820" lon="-1.2391310"/>
            <trkpt lat="54.4043610" lon="-1.2392220"/>
            <trkpt lat="54.4043780" lon="-1.2393510"/>
            <trkpt lat="54.4043770" lon="-1.2395550"/>
            <trkpt lat="54.4042750" lon="-1.2398730"/>
            <trkpt lat="54.4042820" lon="-1.2413220"/>
            <trkpt lat="54.4043070" lon="-1.2413730"/>
            <trkpt lat="54.4042720" lon="-1.2415380"/>
            <trkpt lat="54.4042642" lon="-1.2415535"/>
            <trkpt lat="54.4042360" lon="-1.2416110"/>
            <trkpt lat="54.4041200" lon="-1.2416720"/>
            <trkpt lat="54.4039900" lon="-1.2416890"/>
            <trkpt lat="54.4037480" lon="-1.2416630"/>
            <trkpt lat="54.4024470" lon="-1.2408370"/>
            <trkpt lat="54.4021990" lon="-1.2406260"/>
            <trkpt lat="54.4020140" lon="-1.2404220"/>
            <trkpt lat="54.4016780" lon="-1.2403200"/>
            <trkpt lat="54.4010690" lon="-1.2399030"/>
            <trkpt lat="54.4009630" lon="-1.2398920"/>
            <trkpt lat="54.4008730" lon="-1.2399490"/>
            <trkpt lat="54.4007930" lon="-1.2400370"/>
            <trkpt lat="54.4001300" lon="-1.2408950"/>
            <trkpt lat="54.3999510" lon="-1.2412330"/>
            <trkpt lat="54.3998720" lon="-1.2414350"/>
            <trkpt lat="54.3997910" lon="-1.2417160"/>
            <trkpt lat="54.3997731" lon="-1.2417948"/>
            <trkpt lat="54.3996797" lon="-1.2422125"/>
        </trkseg>
    </trk>
</gpx>
